{
 "type": "FeatureCollection",
 "properties": {
  "scene": "S1A_IW_GRDH_1SDV_20240504T225843_20240504T225908_053728_068708_1D1B_COG.SAFE",
  "acquired": "2024-05-04T22:58:43+00:00",
  "geolocation_rms_m": 3.1,
  "geolocation_holdout_m": 9.9,
  "geolocation_median_m": 10.0,
  "geolocation_p90_m": 10.7,
  "geolocation_worst_m": 49.4,
  "geolocation_uneven": true,
  "geolocation_convergence": 3.2,
  "geolocation_method": "geolocation grid (bilinear)",
  "geolocation_validation": "holdout at 2x spacing",
  "tiles": 117,
  "tiles_skipped": 0,
  "k_sigma": 6.0,
  "land_masked": true,
  "water_fraction": 0.383,
  "land_sea_contrast": 1.85,
  "coast_blind_m": 605.0,
  "searched_km2": 16098.6,
  "refused_km2": 0.0,
  "tiles_without_water": 56,
  "outside_aoi": 0,
  "aoi_sea": [
   -77.2,
   36.0,
   -71.0,
   39.6
  ],
  "footprint": [
   [
    -76.22441,
    36.42855
   ],
   [
    -75.99046,
    36.46448
   ],
   [
    -75.75631,
    36.49997
   ],
   [
    -75.52193,
    36.53502
   ],
   [
    -75.28732,
    36.56958
   ],
   [
    -75.05251,
    36.6037
   ],
   [
    -74.8175,
    36.63737
   ],
   [
    -74.58228,
    36.67054
   ],
   [
    -74.34686,
    36.70327
   ],
   [
    -74.11125,
    36.73555
   ],
   [
    -73.87543,
    36.76733
   ],
   [
    -73.63943,
    36.79866
   ],
   [
    -73.40324,
    36.82954
   ],
   [
    -73.42878,
    36.9547
   ],
   [
    -73.45435,
    37.07987
   ],
   [
    -73.47994,
    37.20503
   ],
   [
    -73.50555,
    37.33018
   ],
   [
    -73.5312,
    37.45534
   ],
   [
    -73.55686,
    37.58048
   ],
   [
    -73.58256,
    37.70563
   ],
   [
    -73.60826,
    37.83077
   ],
   [
    -73.63398,
    37.9559
   ],
   [
    -73.65973,
    38.08104
   ],
   [
    -73.68551,
    38.20616
   ],
   [
    -73.7113,
    38.33129
   ],
   [
    -73.95234,
    38.30069
   ],
   [
    -74.19318,
    38.26961
   ],
   [
    -74.43382,
    38.23806
   ],
   [
    -74.67424,
    38.20597
   ],
   [
    -74.91445,
    38.17342
   ],
   [
    -75.15446,
    38.1404
   ],
   [
    -75.39413,
    38.10686
   ],
   [
    -75.63367,
    38.07284
   ],
   [
    -75.87314,
    38.03834
   ],
   [
    -76.11224,
    38.00332
   ],
   [
    -76.35102,
    37.96786
   ],
   [
    -76.58923,
    37.93199
   ],
   [
    -76.55868,
    37.80671
   ],
   [
    -76.5282,
    37.68143
   ],
   [
    -76.49755,
    37.55617
   ],
   [
    -76.46705,
    37.43089
   ],
   [
    -76.43661,
    37.30561
   ],
   [
    -76.40616,
    37.18033
   ],
   [
    -76.37547,
    37.05509
   ],
   [
    -76.34495,
    36.92982
   ],
   [
    -76.31494,
    36.80448
   ],
   [
    -76.28473,
    36.67917
   ],
   [
    -76.25454,
    36.55386
   ]
  ],
  "searched_grid": {
   "cell_deg": 0.01,
   "lon0": -76.05,
   "lat0": 36.46,
   "levels": 10,
   "rows": {
    "4": [
     [
      14,
      1,
      1
     ],
     [
      15,
      1,
      6
     ],
     [
      16,
      1,
      1
     ]
    ],
    "5": [
     [
      38,
      1,
      1
     ],
     [
      39,
      4,
      10
     ]
    ],
    "6": [
     [
      22,
      1,
      3
     ],
     [
      23,
      1,
      5
     ],
     [
      24,
      1,
      1
     ],
     [
      37,
      1,
      4
     ],
     [
      38,
      12,
      10
     ]
    ],
    "7": [
     [
      21,
      1,
      1
     ],
     [
      22,
      3,
      10
     ],
     [
      25,
      1,
      8
     ],
     [
      26,
      1,
      6
     ],
     [
      27,
      1,
      3
     ],
     [
      30,
      1,
      2
     ],
     [
      31,
      1,
      1
     ],
     [
      37,
      19,
      10
     ]
    ],
    "8": [
     [
      22,
      1,
      6
     ],
     [
      23,
      5,
      10
     ],
     [
      28,
      1,
      9
     ],
     [
      29,
      1,
      5
     ],
     [
      31,
      1,
      1
     ],
     [
      34,
      2,
      1
     ],
     [
      36,
      1,
      6
     ],
     [
      37,
      26,
      10
     ]
    ],
    "9": [
     [
      19,
      1,
      7
     ],
     [
      20,
      1,
      8
     ],
     [
      21,
      1,
      7
     ],
     [
      22,
      2,
      3
     ],
     [
      24,
      1,
      8
     ],
     [
      25,
      5,
      10
     ],
     [
      30,
      1,
      9
     ],
     [
      31,
      39,
      10
     ]
    ],
    "10": [
     [
      18,
      1,
      2
     ],
     [
      19,
      2,
      10
     ],
     [
      21,
      1,
      4
     ],
     [
      24,
      1,
      6
     ],
     [
      25,
      52,
      10
     ]
    ],
    "11": [
     [
      18,
      1,
      1
     ],
     [
      19,
      2,
      10
     ],
     [
      25,
      1,
      2
     ],
     [
      26,
      58,
      10
     ]
    ],
    "12": [
     [
      20,
      1,
      4
     ],
     [
      21,
      1,
      1
     ],
     [
      25,
      1,
      2
     ],
     [
      26,
      65,
      10
     ]
    ],
    "13": [
     [
      25,
      1,
      2
     ],
     [
      26,
      1,
      9
     ],
     [
      27,
      71,
      10
     ]
    ],
    "14": [
     [
      26,
      1,
      8
     ],
     [
      27,
      78,
      10
     ]
    ],
    "15": [
     [
      26,
      1,
      7
     ],
     [
      27,
      84,
      10
     ]
    ],
    "16": [
     [
      27,
      1,
      1
     ],
     [
      28,
      1,
      8
     ],
     [
      29,
      89,
      10
     ]
    ],
    "17": [
     [
      27,
      1,
      4
     ],
     [
      28,
      97,
      10
     ]
    ],
    "18": [
     [
      27,
      1,
      5
     ],
     [
      28,
      104,
      10
     ]
    ],
    "19": [
     [
      27,
      1,
      4
     ],
     [
      28,
      111,
      10
     ]
    ],
    "20": [
     [
      27,
      1,
      1
     ],
     [
      28,
      1,
      3
     ],
     [
      29,
      1,
      7
     ],
     [
      30,
      117,
      10
     ]
    ],
    "21": [
     [
      29,
      1,
      4
     ],
     [
      30,
      124,
      10
     ]
    ],
    "22": [
     [
      29,
      1,
      6
     ],
     [
      30,
      131,
      10
     ]
    ],
    "23": [
     [
      30,
      1,
      6
     ],
     [
      31,
      137,
      10
     ]
    ],
    "24": [
     [
      30,
      1,
      3
     ],
     [
      31,
      1,
      8
     ],
     [
      32,
      143,
      10
     ]
    ],
    "25": [
     [
      31,
      1,
      2
     ],
     [
      32,
      1,
      8
     ],
     [
      33,
      2,
      10
     ],
     [
      35,
      1,
      9
     ],
     [
      36,
      1,
      7
     ],
     [
      37,
      146,
      10
     ]
    ],
    "26": [
     [
      34,
      2,
      1
     ],
     [
      37,
      1,
      3
     ],
     [
      38,
      1,
      8
     ],
     [
      39,
      151,
      10
     ]
    ],
    "27": [
     [
      36,
      1,
      1
     ],
     [
      37,
      2,
      3
     ],
     [
      39,
      1,
      9
     ],
     [
      40,
      157,
      10
     ]
    ],
    "28": [
     [
      36,
      1,
      1
     ],
     [
      39,
      1,
      3
     ],
     [
      40,
      1,
      9
     ],
     [
      41,
      1,
      10
     ],
     [
      42,
      1,
      8
     ],
     [
      43,
      1,
      3
     ],
     [
      44,
      1,
      5
     ],
     [
      45,
      1,
      8
     ],
     [
      46,
      4,
      10
     ],
     [
      50,
      1,
      8
     ],
     [
      51,
      1,
      7
     ],
     [
      52,
      153,
      10
     ]
    ],
    "29": [
     [
      40,
      1,
      3
     ],
     [
      41,
      1,
      9
     ],
     [
      46,
      1,
      10
     ],
     [
      47,
      1,
      7
     ],
     [
      48,
      1,
      8
     ],
     [
      49,
      1,
      5
     ],
     [
      50,
      1,
      1
     ],
     [
      53,
      1,
      8
     ],
     [
      54,
      158,
      10
     ]
    ],
    "30": [
     [
      45,
      1,
      4
     ],
     [
      46,
      1,
      9
     ],
     [
      47,
      1,
      2
     ],
     [
      54,
      1,
      2
     ],
     [
      55,
      1,
      1
     ],
     [
      56,
      1,
      2
     ],
     [
      59,
      1,
      3
     ],
     [
      60,
      160,
      10
     ]
    ],
    "31": [
     [
      46,
      1,
      1
     ],
     [
      47,
      1,
      7
     ],
     [
      48,
      1,
      9
     ],
     [
      49,
      1,
      6
     ],
     [
      50,
      1,
      5
     ],
     [
      51,
      1,
      4
     ],
     [
      52,
      1,
      2
     ],
     [
      60,
      1,
      3
     ],
     [
      61,
      166,
      10
     ]
    ],
    "32": [
     [
      47,
      1,
      5
     ],
     [
      48,
      4,
      10
     ],
     [
      52,
      1,
      7
     ],
     [
      61,
      1,
      6
     ],
     [
      62,
      173,
      10
     ]
    ],
    "33": [
     [
      44,
      1,
      2
     ],
     [
      45,
      1,
      5
     ],
     [
      47,
      1,
      6
     ],
     [
      48,
      5,
      10
     ],
     [
      53,
      1,
      8
     ],
     [
      61,
      1,
      5
     ],
     [
      62,
      180,
      10
     ]
    ],
    "34": [
     [
      47,
      1,
      1
     ],
     [
      48,
      6,
      10
     ],
     [
      54,
      1,
      8
     ],
     [
      55,
      1,
      2
     ],
     [
      61,
      1,
      7
     ],
     [
      62,
      21,
      10
     ],
     [
      83,
      1,
      7
     ],
     [
      84,
      1,
      4
     ],
     [
      85,
      1,
      7
     ],
     [
      86,
      164,
      10
     ]
    ],
    "35": [
     [
      48,
      1,
      7
     ],
     [
      49,
      6,
      10
     ],
     [
      55,
      1,
      5
     ],
     [
      58,
      1,
      1
     ],
     [
      59,
      1,
      5
     ],
     [
      60,
      23,
      10
     ],
     [
      83,
      1,
      3
     ],
     [
      86,
      1,
      9
     ],
     [
      87,
      171,
      10
     ]
    ],
    "36": [
     [
      48,
      1,
      1
     ],
     [
      49,
      1,
      9
     ],
     [
      50,
      5,
      10
     ],
     [
      59,
      1,
      1
     ],
     [
      60,
      1,
      5
     ],
     [
      61,
      1,
      9
     ],
     [
      62,
      5,
      10
     ],
     [
      67,
      1,
      8
     ],
     [
      68,
      2,
      4
     ],
     [
      70,
      1,
      8
     ],
     [
      71,
      12,
      10
     ],
     [
      83,
      1,
      7
     ],
     [
      84,
      1,
      3
     ],
     [
      85,
      1,
      4
     ],
     [
      86,
      174,
      10
     ]
    ],
    "37": [
     [
      49,
      1,
      1
     ],
     [
      50,
      1,
      8
     ],
     [
      51,
      4,
      10
     ],
     [
      55,
      1,
      6
     ],
     [
      61,
      1,
      5
     ],
     [
      62,
      3,
      10
     ],
     [
      65,
      1,
      8
     ],
     [
      66,
      1,
      4
     ],
     [
      70,
      1,
      6
     ],
     [
      71,
      188,
      10
     ],
     [
      259,
      1,
      8
     ]
    ],
    "38": [
     [
      50,
      1,
      4
     ],
     [
      51,
      5,
      10
     ],
     [
      56,
      1,
      9
     ],
     [
      57,
      1,
      2
     ],
     [
      61,
      1,
      1
     ],
     [
      62,
      1,
      3
     ],
     [
      63,
      1,
      8
     ],
     [
      70,
      1,
      2
     ],
     [
      71,
      1,
      6
     ],
     [
      72,
      187,
      10
     ],
     [
      259,
      1,
      6
     ]
    ],
    "39": [
     [
      50,
      1,
      2
     ],
     [
      51,
      1,
      6
     ],
     [
      52,
      1,
      4
     ],
     [
      53,
      1,
      8
     ],
     [
      54,
      2,
      10
     ],
     [
      56,
      1,
      1
     ],
     [
      58,
      1,
      2
     ],
     [
      59,
      1,
      1
     ],
     [
      63,
      1,
      9
     ],
     [
      64,
      1,
      6
     ],
     [
      65,
      2,
      5
     ],
     [
      71,
      1,
      1
     ],
     [
      72,
      1,
      4
     ],
     [
      73,
      186,
      10
     ],
     [
      259,
      1,
      3
     ]
    ],
    "40": [
     [
      53,
      1,
      3
     ],
     [
      54,
      2,
      7
     ],
     [
      58,
      1,
      4
     ],
     [
      62,
      1,
      5
     ],
     [
      63,
      4,
      10
     ],
     [
      67,
      1,
      7
     ],
     [
      68,
      1,
      1
     ],
     [
      73,
      1,
      7
     ],
     [
      74,
      185,
      10
     ],
     [
      259,
      1,
      2
     ]
    ],
    "41": [
     [
      62,
      3,
      4
     ],
     [
      65,
      1,
      5
     ],
     [
      66,
      1,
      8
     ],
     [
      67,
      1,
      7
     ],
     [
      68,
      1,
      9
     ],
     [
      69,
      1,
      4
     ],
     [
      70,
      1,
      6
     ],
     [
      71,
      1,
      4
     ],
     [
      74,
      1,
      3
     ],
     [
      75,
      184,
      10
     ]
    ],
    "42": [
     [
      65,
      1,
      1
     ],
     [
      67,
      1,
      2
     ],
     [
      68,
      1,
      10
     ],
     [
      69,
      1,
      6
     ],
     [
      70,
      1,
      4
     ],
     [
      71,
      1,
      3
     ],
     [
      75,
      1,
      4
     ],
     [
      76,
      182,
      10
     ],
     [
      258,
      1,
      7
     ]
    ],
    "43": [
     [
      67,
      1,
      2
     ],
     [
      75,
      1,
      6
     ],
     [
      76,
      15,
      10
     ],
     [
      91,
      1,
      6
     ],
     [
      92,
      1,
      4
     ],
     [
      94,
      1,
      6
     ],
     [
      95,
      163,
      10
     ],
     [
      258,
      1,
      6
     ]
    ],
    "44": [
     [
      74,
      1,
      2
     ],
     [
      75,
      1,
      9
     ],
     [
      76,
      1,
      5
     ],
     [
      77,
      1,
      8
     ],
     [
      78,
      1,
      7
     ],
     [
      79,
      12,
      10
     ],
     [
      91,
      1,
      1
     ],
     [
      94,
      1,
      7
     ],
     [
      95,
      163,
      10
     ],
     [
      258,
      1,
      4
     ]
    ],
    "45": [
     [
      75,
      1,
      5
     ],
     [
      79,
      1,
      4
     ],
     [
      80,
      8,
      10
     ],
     [
      88,
      1,
      6
     ],
     [
      89,
      2,
      5
     ],
     [
      91,
      1,
      1
     ],
     [
      93,
      1,
      2
     ],
     [
      94,
      1,
      6
     ],
     [
      95,
      1,
      8
     ],
     [
      96,
      162,
      10
     ],
     [
      258,
      1,
      1
     ]
    ],
    "46": [
     [
      79,
      1,
      6
     ],
     [
      80,
      1,
      8
     ],
     [
      81,
      1,
      7
     ],
     [
      82,
      2,
      10
     ],
     [
      84,
      1,
      5
     ],
     [
      85,
      1,
      9
     ],
     [
      86,
      1,
      10
     ],
     [
      87,
      1,
      6
     ],
     [
      93,
      1,
      2
     ],
     [
      94,
      2,
      1
     ],
     [
      96,
      3,
      10
     ],
     [
      99,
      1,
      3
     ],
     [
      100,
      1,
      8
     ],
     [
      101,
      157,
      10
     ]
    ],
    "47": [
     [
      86,
      1,
      1
     ],
     [
      96,
      1,
      3
     ],
     [
      97,
      1,
      7
     ],
     [
      100,
      1,
      2
     ],
     [
      101,
      156,
      10
     ],
     [
      257,
      1,
      7
     ]
    ],
    "48": [
     [
      100,
      1,
      2
     ],
     [
      101,
      156,
      10
     ],
     [
      257,
      1,
      6
     ]
    ],
    "49": [
     [
      100,
      1,
      2
     ],
     [
      101,
      1,
      6
     ],
     [
      102,
      1,
      8
     ],
     [
      103,
      1,
      9
     ],
     [
      104,
      153,
      10
     ],
     [
      257,
      1,
      3
     ]
    ],
    "50": [
     [
      102,
      1,
      1
     ],
     [
      104,
      1,
      6
     ],
     [
      105,
      152,
      10
     ],
     [
      257,
      1,
      1
     ]
    ],
    "51": [
     [
      103,
      1,
      4
     ],
     [
      104,
      153,
      10
     ]
    ],
    "52": [
     [
      102,
      1,
      1
     ],
     [
      103,
      1,
      8
     ],
     [
      104,
      1,
      3
     ],
     [
      105,
      1,
      4
     ],
     [
      107,
      1,
      4
     ],
     [
      108,
      148,
      10
     ],
     [
      256,
      1,
      7
     ]
    ],
    "53": [
     [
      102,
      1,
      2
     ],
     [
      103,
      1,
      4
     ],
     [
      107,
      1,
      6
     ],
     [
      108,
      148,
      10
     ],
     [
      256,
      1,
      4
     ]
    ],
    "54": [
     [
      106,
      1,
      1
     ],
     [
      107,
      1,
      2
     ],
     [
      108,
      1,
      4
     ],
     [
      109,
      1,
      8
     ],
     [
      110,
      146,
      10
     ],
     [
      256,
      1,
      3
     ]
    ],
    "55": [
     [
      109,
      1,
      5
     ],
     [
      110,
      1,
      10
     ],
     [
      111,
      1,
      4
     ],
     [
      112,
      1,
      1
     ],
     [
      113,
      1,
      3
     ],
     [
      114,
      142,
      10
     ]
    ],
    "56": [
     [
      109,
      1,
      1
     ],
     [
      113,
      1,
      1
     ],
     [
      114,
      1,
      5
     ],
     [
      115,
      140,
      10
     ],
     [
      255,
      1,
      9
     ]
    ],
    "57": [
     [
      115,
      1,
      9
     ],
     [
      116,
      139,
      10
     ],
     [
      255,
      1,
      7
     ]
    ],
    "58": [
     [
      109,
      1,
      1
     ],
     [
      110,
      1,
      7
     ],
     [
      111,
      1,
      5
     ],
     [
      115,
      1,
      1
     ],
     [
      116,
      1,
      3
     ],
     [
      117,
      1,
      8
     ],
     [
      118,
      1,
      7
     ],
     [
      119,
      1,
      3
     ],
     [
      120,
      135,
      10
     ],
     [
      255,
      1,
      4
     ]
    ],
    "59": [
     [
      110,
      1,
      7
     ],
     [
      111,
      1,
      4
     ],
     [
      117,
      1,
      1
     ],
     [
      120,
      1,
      3
     ],
     [
      121,
      1,
      8
     ],
     [
      122,
      25,
      10
     ],
     [
      147,
      1,
      9
     ],
     [
      148,
      1,
      7
     ],
     [
      149,
      1,
      9
     ],
     [
      150,
      105,
      10
     ],
     [
      255,
      1,
      3
     ]
    ],
    "60": [
     [
      111,
      1,
      1
     ],
     [
      116,
      1,
      6
     ],
     [
      117,
      1,
      2
     ],
     [
      121,
      26,
      10
     ],
     [
      147,
      1,
      4
     ],
     [
      149,
      1,
      8
     ],
     [
      150,
      105,
      10
     ]
    ],
    "61": [
     [
      109,
      1,
      1
     ],
     [
      117,
      1,
      8
     ],
     [
      118,
      1,
      6
     ],
     [
      121,
      1,
      3
     ],
     [
      122,
      1,
      8
     ],
     [
      123,
      24,
      10
     ],
     [
      147,
      1,
      8
     ],
     [
      148,
      1,
      6
     ],
     [
      149,
      105,
      10
     ],
     [
      254,
      1,
      8
     ]
    ],
    "62": [
     [
      110,
      1,
      2
     ],
     [
      118,
      1,
      4
     ],
     [
      119,
      1,
      5
     ],
     [
      122,
      1,
      2
     ],
     [
      123,
      1,
      7
     ],
     [
      124,
      130,
      10
     ],
     [
      254,
      1,
      7
     ]
    ],
    "63": [
     [
      123,
      1,
      6
     ],
     [
      124,
      130,
      10
     ],
     [
      254,
      1,
      4
     ]
    ],
    "64": [
     [
      121,
      1,
      1
     ],
     [
      123,
      1,
      1
     ],
     [
      124,
      130,
      10
     ],
     [
      254,
      1,
      2
     ]
    ],
    "65": [
     [
      120,
      2,
      3
     ],
     [
      123,
      1,
      1
     ],
     [
      124,
      1,
      3
     ],
     [
      125,
      1,
      6
     ],
     [
      126,
      1,
      10
     ],
     [
      127,
      2,
      9
     ],
     [
      129,
      2,
      10
     ],
     [
      131,
      1,
      4
     ],
     [
      133,
      2,
      5
     ],
     [
      135,
      2,
      2
     ],
     [
      137,
      100,
      10
     ],
     [
      237,
      1,
      9
     ],
     [
      238,
      1,
      4
     ],
     [
      239,
      1,
      3
     ],
     [
      240,
      1,
      4
     ],
     [
      241,
      1,
      1
     ],
     [
      242,
      1,
      5
     ],
     [
      243,
      1,
      6
     ],
     [
      244,
      1,
      4
     ],
     [
      245,
      1,
      3
     ],
     [
      246,
      1,
      7
     ],
     [
      247,
      2,
      8
     ],
     [
      249,
      1,
      6
     ],
     [
      250,
      1,
      3
     ],
     [
      251,
      1,
      6
     ],
     [
      252,
      1,
      9
     ],
     [
      253,
      1,
      8
     ]
    ],
    "66": [
     [
      125,
      1,
      2
     ],
     [
      126,
      1,
      10
     ],
     [
      127,
      1,
      4
     ],
     [
      129,
      1,
      7
     ],
     [
      130,
      1,
      5
     ],
     [
      131,
      1,
      1
     ],
     [
      138,
      1,
      3
     ],
     [
      139,
      1,
      8
     ],
     [
      140,
      83,
      10
     ],
     [
      223,
      1,
      9
     ],
     [
      224,
      1,
      7
     ],
     [
      225,
      1,
      6
     ],
     [
      226,
      2,
      4
     ],
     [
      228,
      2,
      3
     ],
     [
      231,
      1,
      2
     ],
     [
      232,
      1,
      6
     ],
     [
      233,
      1,
      1
     ],
     [
      234,
      1,
      3
     ],
     [
      235,
      1,
      4
     ],
     [
      236,
      1,
      2
     ],
     [
      247,
      1,
      2
     ]
    ],
    "67": [
     [
      125,
      1,
      3
     ],
     [
      126,
      1,
      10
     ],
     [
      127,
      1,
      8
     ],
     [
      139,
      2,
      5
     ],
     [
      142,
      1,
      5
     ],
     [
      143,
      75,
      10
     ],
     [
      218,
      2,
      8
     ],
     [
      220,
      2,
      10
     ],
     [
      222,
      1,
      8
     ],
     [
      223,
      1,
      2
     ]
    ],
    "68": [
     [
      126,
      1,
      1
     ],
     [
      127,
      1,
      2
     ],
     [
      128,
      1,
      1
     ],
     [
      138,
      1,
      1
     ],
     [
      142,
      1,
      4
     ],
     [
      143,
      74,
      10
     ],
     [
      217,
      1,
      6
     ],
     [
      219,
      1,
      1
     ],
     [
      220,
      2,
      7
     ],
     [
      222,
      1,
      3
     ]
    ],
    "69": [
     [
      142,
      1,
      1
     ],
     [
      143,
      37,
      10
     ],
     [
      180,
      1,
      7
     ],
     [
      181,
      5,
      10
     ],
     [
      186,
      1,
      4
     ],
     [
      187,
      1,
      6
     ],
     [
      188,
      1,
      8
     ],
     [
      189,
      1,
      4
     ],
     [
      190,
      1,
      3
     ],
     [
      191,
      20,
      10
     ],
     [
      211,
      1,
      7
     ],
     [
      212,
      1,
      3
     ],
     [
      213,
      1,
      7
     ],
     [
      214,
      1,
      10
     ],
     [
      215,
      1,
      9
     ],
     [
      216,
      2,
      8
     ]
    ],
    "70": [
     [
      141,
      1,
      2
     ],
     [
      142,
      1,
      6
     ],
     [
      143,
      34,
      10
     ],
     [
      177,
      1,
      2
     ],
     [
      178,
      1,
      4
     ],
     [
      179,
      1,
      3
     ],
     [
      181,
      1,
      1
     ],
     [
      182,
      1,
      4
     ],
     [
      183,
      1,
      10
     ],
     [
      184,
      1,
      9
     ],
     [
      185,
      1,
      3
     ],
     [
      191,
      1,
      6
     ],
     [
      192,
      14,
      10
     ],
     [
      206,
      2,
      7
     ],
     [
      208,
      1,
      9
     ],
     [
      209,
      1,
      5
     ],
     [
      214,
      1,
      5
     ]
    ],
    "71": [
     [
      143,
      1,
      1
     ],
     [
      144,
      1,
      2
     ],
     [
      147,
      1,
      9
     ],
     [
      148,
      1,
      8
     ],
     [
      149,
      1,
      2
     ],
     [
      150,
      1,
      3
     ],
     [
      151,
      1,
      8
     ],
     [
      152,
      1,
      9
     ],
     [
      153,
      1,
      7
     ],
     [
      154,
      3,
      10
     ],
     [
      157,
      1,
      8
     ],
     [
      158,
      2,
      3
     ],
     [
      160,
      1,
      4
     ],
     [
      161,
      1,
      2
     ],
     [
      162,
      1,
      5
     ],
     [
      163,
      1,
      7
     ],
     [
      164,
      1,
      1
     ],
     [
      165,
      1,
      7
     ],
     [
      166,
      10,
      10
     ],
     [
      176,
      1,
      9
     ],
     [
      177,
      1,
      1
     ],
     [
      193,
      1,
      8
     ],
     [
      194,
      12,
      10
     ],
     [
      206,
      1,
      3
     ],
     [
      208,
      1,
      8
     ],
     [
      209,
      1,
      2
     ]
    ],
    "72": [
     [
      147,
      1,
      3
     ],
     [
      151,
      2,
      1
     ],
     [
      154,
      1,
      8
     ],
     [
      155,
      2,
      10
     ],
     [
      157,
      1,
      7
     ],
     [
      160,
      1,
      1
     ],
     [
      165,
      1,
      4
     ],
     [
      166,
      12,
      10
     ],
     [
      178,
      1,
      9
     ],
     [
      179,
      1,
      7
     ],
     [
      180,
      1,
      2
     ],
     [
      194,
      1,
      4
     ],
     [
      195,
      1,
      8
     ],
     [
      196,
      13,
      10
     ],
     [
      209,
      1,
      9
     ]
    ],
    "73": [
     [
      154,
      1,
      6
     ],
     [
      155,
      2,
      10
     ],
     [
      157,
      1,
      6
     ],
     [
      160,
      1,
      6
     ],
     [
      161,
      1,
      3
     ],
     [
      166,
      15,
      10
     ],
     [
      181,
      1,
      6
     ],
     [
      182,
      1,
      4
     ],
     [
      197,
      1,
      8
     ],
     [
      198,
      11,
      10
     ],
     [
      209,
      1,
      9
     ],
     [
      210,
      1,
      4
     ]
    ],
    "74": [
     [
      154,
      1,
      5
     ],
     [
      155,
      1,
      7
     ],
     [
      156,
      2,
      10
     ],
     [
      158,
      1,
      6
     ],
     [
      159,
      1,
      4
     ],
     [
      160,
      2,
      10
     ],
     [
      162,
      1,
      4
     ],
     [
      164,
      1,
      4
     ],
     [
      165,
      1,
      3
     ],
     [
      166,
      18,
      10
     ],
     [
      184,
      1,
      1
     ],
     [
      197,
      1,
      4
     ],
     [
      198,
      1,
      5
     ],
     [
      200,
      1,
      8
     ],
     [
      201,
      11,
      10
     ],
     [
      212,
      1,
      9
     ],
     [
      213,
      1,
      4
     ]
    ],
    "75": [
     [
      156,
      1,
      5
     ],
     [
      157,
      5,
      10
     ],
     [
      162,
      1,
      9
     ],
     [
      163,
      1,
      6
     ],
     [
      164,
      20,
      10
     ],
     [
      184,
      1,
      9
     ],
     [
      185,
      1,
      6
     ],
     [
      200,
      1,
      10
     ],
     [
      201,
      1,
      9
     ],
     [
      202,
      2,
      10
     ],
     [
      204,
      1,
      6
     ],
     [
      205,
      1,
      4
     ],
     [
      206,
      1,
      3
     ],
     [
      207,
      7,
      10
     ],
     [
      214,
      1,
      8
     ]
    ],
    "76": [
     [
      153,
      2,
      4
     ],
     [
      155,
      1,
      2
     ],
     [
      156,
      1,
      7
     ],
     [
      157,
      5,
      10
     ],
     [
      162,
      1,
      6
     ],
     [
      164,
      1,
      1
     ],
     [
      165,
      21,
      10
     ],
     [
      186,
      1,
      8
     ],
     [
      187,
      1,
      6
     ],
     [
      188,
      1,
      3
     ],
     [
      203,
      1,
      2
     ],
     [
      207,
      1,
      9
     ],
     [
      208,
      1,
      6
     ],
     [
      209,
      2,
      4
     ],
     [
      211,
      1,
      9
     ],
     [
      212,
      2,
      10
     ],
     [
      214,
      1,
      1
     ]
    ],
    "77": [
     [
      153,
      1,
      2
     ],
     [
      154,
      8,
      10
     ],
     [
      162,
      1,
      7
     ],
     [
      163,
      1,
      5
     ],
     [
      165,
      1,
      4
     ],
     [
      166,
      23,
      10
     ],
     [
      189,
      1,
      5
     ],
     [
      211,
      1,
      1
     ],
     [
      212,
      1,
      9
     ],
     [
      213,
      1,
      10
     ],
     [
      214,
      1,
      3
     ]
    ],
    "78": [
     [
      153,
      1,
      3
     ],
     [
      154,
      10,
      10
     ],
     [
      164,
      1,
      3
     ],
     [
      166,
      1,
      8
     ],
     [
      167,
      24,
      10
     ],
     [
      191,
      1,
      9
     ],
     [
      192,
      1,
      6
     ],
     [
      213,
      1,
      2
     ],
     [
      216,
      1,
      4
     ]
    ],
    "79": [
     [
      153,
      1,
      6
     ],
     [
      154,
      10,
      10
     ],
     [
      164,
      1,
      9
     ],
     [
      165,
      1,
      7
     ],
     [
      166,
      29,
      10
     ],
     [
      195,
      1,
      5
     ],
     [
      196,
      1,
      4
     ]
    ],
    "80": [
     [
      135,
      1,
      1
     ],
     [
      152,
      1,
      7
     ],
     [
      153,
      1,
      9
     ],
     [
      154,
      45,
      10
     ],
     [
      199,
      1,
      9
     ],
     [
      200,
      1,
      1
     ]
    ],
    "81": [
     [
      136,
      1,
      2
     ],
     [
      151,
      1,
      4
     ],
     [
      152,
      49,
      10
     ],
     [
      201,
      1,
      7
     ],
     [
      202,
      1,
      1
     ]
    ],
    "82": [
     [
      133,
      1,
      2
     ],
     [
      134,
      3,
      6
     ],
     [
      151,
      1,
      2
     ],
     [
      152,
      1,
      8
     ],
     [
      153,
      49,
      10
     ],
     [
      202,
      1,
      8
     ],
     [
      204,
      1,
      1
     ],
     [
      205,
      1,
      3
     ]
    ],
    "83": [
     [
      132,
      1,
      5
     ],
     [
      133,
      1,
      1
     ],
     [
      134,
      1,
      6
     ],
     [
      135,
      2,
      10
     ],
     [
      137,
      1,
      6
     ],
     [
      152,
      1,
      1
     ],
     [
      153,
      1,
      7
     ],
     [
      154,
      48,
      10
     ],
     [
      202,
      1,
      5
     ]
    ],
    "84": [
     [
      132,
      1,
      7
     ],
     [
      133,
      1,
      1
     ],
     [
      134,
      1,
      3
     ],
     [
      135,
      1,
      7
     ],
     [
      136,
      1,
      3
     ],
     [
      140,
      1,
      5
     ],
     [
      152,
      1,
      4
     ],
     [
      153,
      50,
      10
     ],
     [
      203,
      1,
      5
     ]
    ],
    "85": [
     [
      132,
      1,
      3
     ],
     [
      133,
      1,
      1
     ],
     [
      139,
      2,
      2
     ],
     [
      150,
      2,
      2
     ],
     [
      154,
      1,
      4
     ],
     [
      155,
      2,
      6
     ],
     [
      157,
      1,
      7
     ],
     [
      158,
      45,
      10
     ],
     [
      203,
      1,
      5
     ]
    ],
    "86": [
     [
      131,
      1,
      1
     ],
     [
      133,
      1,
      8
     ],
     [
      134,
      1,
      5
     ],
     [
      135,
      1,
      2
     ],
     [
      137,
      2,
      6
     ],
     [
      152,
      1,
      3
     ],
     [
      157,
      1,
      1
     ],
     [
      158,
      1,
      6
     ],
     [
      159,
      45,
      10
     ],
     [
      204,
      1,
      8
     ],
     [
      205,
      1,
      2
     ]
    ],
    "87": [
     [
      132,
      1,
      4
     ],
     [
      133,
      1,
      10
     ],
     [
      134,
      1,
      1
     ],
     [
      136,
      1,
      2
     ],
     [
      137,
      1,
      6
     ],
     [
      138,
      1,
      1
     ],
     [
      143,
      1,
      1
     ],
     [
      148,
      1,
      1
     ],
     [
      149,
      2,
      8
     ],
     [
      151,
      1,
      7
     ],
     [
      152,
      1,
      8
     ],
     [
      153,
      1,
      3
     ],
     [
      156,
      1,
      3
     ],
     [
      157,
      1,
      5
     ],
     [
      158,
      1,
      8
     ],
     [
      159,
      2,
      10
     ],
     [
      161,
      1,
      8
     ],
     [
      162,
      1,
      4
     ],
     [
      163,
      1,
      9
     ],
     [
      164,
      41,
      10
     ],
     [
      205,
      1,
      3
     ]
    ],
    "88": [
     [
      130,
      1,
      1
     ],
     [
      131,
      1,
      5
     ],
     [
      142,
      1,
      6
     ],
     [
      143,
      1,
      7
     ],
     [
      146,
      1,
      2
     ],
     [
      149,
      1,
      6
     ],
     [
      150,
      3,
      10
     ],
     [
      153,
      1,
      9
     ],
     [
      154,
      1,
      4
     ],
     [
      156,
      1,
      9
     ],
     [
      157,
      4,
      10
     ],
     [
      161,
      1,
      5
     ],
     [
      163,
      1,
      4
     ],
     [
      164,
      42,
      10
     ],
     [
      206,
      1,
      9
     ],
     [
      207,
      1,
      4
     ],
     [
      208,
      1,
      1
     ]
    ],
    "89": [
     [
      131,
      1,
      2
     ],
     [
      132,
      1,
      1
     ],
     [
      136,
      1,
      2
     ],
     [
      142,
      1,
      9
     ],
     [
      143,
      1,
      10
     ],
     [
      144,
      1,
      4
     ],
     [
      145,
      1,
      3
     ],
     [
      146,
      1,
      10
     ],
     [
      147,
      1,
      9
     ],
     [
      148,
      2,
      7
     ],
     [
      150,
      5,
      10
     ],
     [
      155,
      1,
      2
     ],
     [
      156,
      1,
      5
     ],
     [
      157,
      5,
      10
     ],
     [
      162,
      1,
      5
     ],
     [
      163,
      1,
      6
     ],
     [
      164,
      9,
      10
     ],
     [
      173,
      1,
      4
     ],
     [
      174,
      1,
      6
     ],
     [
      175,
      33,
      10
     ],
     [
      208,
      1,
      8
     ],
     [
      209,
      1,
      6
     ],
     [
      210,
      1,
      4
     ],
     [
      211,
      1,
      1
     ]
    ],
    "90": [
     [
      139,
      1,
      2
     ],
     [
      141,
      1,
      1
     ],
     [
      142,
      12,
      10
     ],
     [
      154,
      1,
      9
     ],
     [
      155,
      1,
      4
     ],
     [
      156,
      1,
      5
     ],
     [
      157,
      15,
      10
     ],
     [
      172,
      1,
      4
     ],
     [
      174,
      1,
      4
     ],
     [
      175,
      37,
      10
     ],
     [
      212,
      1,
      9
     ],
     [
      213,
      1,
      6
     ],
     [
      214,
      1,
      4
     ]
    ],
    "91": [
     [
      132,
      1,
      2
     ],
     [
      134,
      1,
      8
     ],
     [
      135,
      1,
      3
     ],
     [
      137,
      1,
      5
     ],
     [
      140,
      1,
      3
     ],
     [
      141,
      1,
      8
     ],
     [
      142,
      29,
      10
     ],
     [
      171,
      1,
      8
     ],
     [
      172,
      1,
      3
     ],
     [
      173,
      1,
      7
     ],
     [
      174,
      39,
      10
     ],
     [
      213,
      1,
      8
     ],
     [
      214,
      1,
      3
     ],
     [
      216,
      1,
      1
     ],
     [
      217,
      1,
      3
     ]
    ],
    "92": [
     [
      134,
      1,
      3
     ],
     [
      135,
      1,
      1
     ],
     [
      137,
      1,
      2
     ],
     [
      138,
      1,
      1
     ],
     [
      141,
      1,
      5
     ],
     [
      142,
      70,
      10
     ],
     [
      212,
      1,
      6
     ],
     [
      220,
      1,
      2
     ],
     [
      221,
      1,
      4
     ],
     [
      222,
      1,
      3
     ]
    ],
    "93": [
     [
      136,
      1,
      1
     ],
     [
      137,
      1,
      5
     ],
     [
      138,
      1,
      3
     ],
     [
      140,
      1,
      4
     ],
     [
      141,
      1,
      8
     ],
     [
      142,
      11,
      10
     ],
     [
      153,
      1,
      7
     ],
     [
      154,
      1,
      8
     ],
     [
      155,
      57,
      10
     ],
     [
      212,
      1,
      9
     ],
     [
      213,
      1,
      1
     ]
    ],
    "94": [
     [
      137,
      1,
      3
     ],
     [
      138,
      1,
      4
     ],
     [
      139,
      1,
      8
     ],
     [
      140,
      1,
      7
     ],
     [
      141,
      1,
      3
     ],
     [
      142,
      1,
      6
     ],
     [
      143,
      1,
      8
     ],
     [
      144,
      8,
      10
     ],
     [
      152,
      1,
      2
     ],
     [
      154,
      1,
      3
     ],
     [
      155,
      52,
      10
     ],
     [
      207,
      2,
      2
     ],
     [
      210,
      1,
      7
     ],
     [
      211,
      1,
      6
     ],
     [
      212,
      1,
      7
     ],
     [
      213,
      1,
      3
     ],
     [
      237,
      1,
      2
     ],
     [
      238,
      1,
      4
     ],
     [
      239,
      1,
      3
     ],
     [
      240,
      1,
      6
     ],
     [
      241,
      1,
      5
     ],
     [
      242,
      1,
      2
     ]
    ],
    "95": [
     [
      136,
      1,
      1
     ],
     [
      138,
      1,
      1
     ],
     [
      139,
      1,
      10
     ],
     [
      143,
      1,
      1
     ],
     [
      144,
      1,
      8
     ],
     [
      145,
      6,
      10
     ],
     [
      151,
      1,
      9
     ],
     [
      153,
      1,
      1
     ],
     [
      154,
      1,
      4
     ],
     [
      155,
      1,
      7
     ],
     [
      156,
      1,
      9
     ],
     [
      157,
      49,
      10
     ],
     [
      206,
      1,
      8
     ],
     [
      237,
      1,
      8
     ],
     [
      239,
      1,
      2
     ],
     [
      240,
      3,
      10
     ],
     [
      243,
      1,
      9
     ],
     [
      244,
      1,
      6
     ],
     [
      245,
      1,
      5
     ],
     [
      246,
      1,
      4
     ],
     [
      247,
      1,
      1
     ]
    ],
    "96": [
     [
      136,
      1,
      2
     ],
     [
      138,
      1,
      3
     ],
     [
      139,
      1,
      10
     ],
     [
      140,
      1,
      7
     ],
     [
      141,
      1,
      6
     ],
     [
      142,
      1,
      3
     ],
     [
      144,
      1,
      7
     ],
     [
      145,
      7,
      10
     ],
     [
      152,
      1,
      8
     ],
     [
      153,
      1,
      4
     ],
     [
      156,
      1,
      7
     ],
     [
      157,
      50,
      10
     ],
     [
      207,
      1,
      4
     ],
     [
      237,
      1,
      6
     ],
     [
      238,
      2,
      5
     ],
     [
      240,
      7,
      10
     ],
     [
      247,
      1,
      8
     ]
    ],
    "97": [
     [
      138,
      1,
      6
     ],
     [
      139,
      2,
      10
     ],
     [
      141,
      1,
      9
     ],
     [
      142,
      1,
      3
     ],
     [
      143,
      1,
      1
     ],
     [
      144,
      1,
      5
     ],
     [
      145,
      9,
      10
     ],
     [
      154,
      1,
      6
     ],
     [
      156,
      1,
      4
     ],
     [
      157,
      1,
      1
     ],
     [
      159,
      49,
      10
     ],
     [
      208,
      1,
      8
     ],
     [
      209,
      2,
      7
     ],
     [
      211,
      1,
      2
     ],
     [
      236,
      1,
      1
     ],
     [
      237,
      1,
      6
     ],
     [
      238,
      1,
      5
     ],
     [
      239,
      1,
      9
     ],
     [
      240,
      7,
      10
     ],
     [
      247,
      1,
      5
     ]
    ],
    "98": [
     [
      140,
      1,
      1
     ],
     [
      141,
      1,
      3
     ],
     [
      143,
      1,
      2
     ],
     [
      145,
      1,
      2
     ],
     [
      146,
      8,
      10
     ],
     [
      154,
      1,
      6
     ],
     [
      156,
      1,
      2
     ],
     [
      159,
      1,
      8
     ],
     [
      160,
      49,
      10
     ],
     [
      209,
      1,
      5
     ],
     [
      211,
      1,
      5
     ],
     [
      212,
      1,
      1
     ],
     [
      214,
      1,
      2
     ],
     [
      239,
      1,
      8
     ],
     [
      240,
      7,
      10
     ]
    ],
    "99": [
     [
      142,
      1,
      1
     ],
     [
      143,
      1,
      2
     ],
     [
      145,
      1,
      2
     ],
     [
      146,
      1,
      6
     ],
     [
      147,
      1,
      7
     ],
     [
      148,
      1,
      6
     ],
     [
      149,
      1,
      8
     ],
     [
      150,
      6,
      10
     ],
     [
      156,
      1,
      4
     ],
     [
      159,
      1,
      3
     ],
     [
      160,
      1,
      8
     ],
     [
      161,
      48,
      10
     ],
     [
      209,
      1,
      8
     ],
     [
      210,
      1,
      5
     ],
     [
      211,
      1,
      9
     ],
     [
      212,
      1,
      8
     ],
     [
      213,
      1,
      7
     ],
     [
      214,
      1,
      3
     ],
     [
      217,
      1,
      1
     ],
     [
      218,
      1,
      4
     ],
     [
      219,
      1,
      2
     ],
     [
      221,
      1,
      1
     ],
     [
      224,
      1,
      2
     ],
     [
      225,
      1,
      9
     ],
     [
      239,
      1,
      5
     ],
     [
      240,
      6,
      10
     ],
     [
      246,
      1,
      6
     ]
    ],
    "100": [
     [
      148,
      1,
      1
     ],
     [
      150,
      1,
      3
     ],
     [
      151,
      1,
      4
     ],
     [
      152,
      1,
      8
     ],
     [
      153,
      1,
      10
     ],
     [
      154,
      1,
      9
     ],
     [
      155,
      1,
      7
     ],
     [
      156,
      1,
      3
     ],
     [
      158,
      1,
      2
     ],
     [
      160,
      1,
      4
     ],
     [
      161,
      53,
      10
     ],
     [
      214,
      1,
      6
     ],
     [
      217,
      1,
      6
     ],
     [
      218,
      4,
      10
     ],
     [
      222,
      1,
      9
     ],
     [
      223,
      1,
      7
     ],
     [
      224,
      2,
      10
     ],
     [
      227,
      1,
      3
     ],
     [
      228,
      1,
      4
     ],
     [
      238,
      1,
      4
     ],
     [
      239,
      1,
      6
     ],
     [
      240,
      6,
      10
     ],
     [
      246,
      1,
      8
     ]
    ],
    "101": [
     [
      150,
      1,
      1
     ],
     [
      151,
      1,
      2
     ],
     [
      152,
      1,
      1
     ],
     [
      153,
      1,
      8
     ],
     [
      154,
      1,
      2
     ],
     [
      156,
      1,
      6
     ],
     [
      157,
      1,
      10
     ],
     [
      158,
      1,
      6
     ],
     [
      159,
      1,
      4
     ],
     [
      160,
      69,
      10
     ],
     [
      229,
      1,
      7
     ],
     [
      230,
      1,
      2
     ],
     [
      231,
      1,
      1
     ],
     [
      232,
      1,
      2
     ],
     [
      235,
      1,
      3
     ],
     [
      236,
      1,
      6
     ],
     [
      237,
      1,
      4
     ],
     [
      238,
      1,
      8
     ],
     [
      239,
      4,
      10
     ],
     [
      243,
      1,
      5
     ],
     [
      244,
      1,
      7
     ],
     [
      245,
      2,
      10
     ]
    ],
    "102": [
     [
      150,
      1,
      2
     ],
     [
      154,
      1,
      2
     ],
     [
      155,
      1,
      6
     ],
     [
      156,
      1,
      9
     ],
     [
      157,
      1,
      6
     ],
     [
      158,
      1,
      7
     ],
     [
      159,
      74,
      10
     ],
     [
      233,
      1,
      8
     ],
     [
      234,
      1,
      7
     ],
     [
      235,
      7,
      10
     ],
     [
      242,
      1,
      7
     ],
     [
      244,
      1,
      4
     ],
     [
      245,
      1,
      10
     ],
     [
      246,
      1,
      8
     ]
    ],
    "103": [
     [
      154,
      1,
      1
     ],
     [
      155,
      2,
      7
     ],
     [
      159,
      84,
      10
     ],
     [
      243,
      1,
      8
     ],
     [
      244,
      1,
      9
     ],
     [
      245,
      1,
      10
     ],
     [
      246,
      1,
      7
     ]
    ],
    "104": [
     [
      149,
      1,
      1
     ],
     [
      150,
      1,
      5
     ],
     [
      154,
      1,
      3
     ],
     [
      156,
      1,
      2
     ],
     [
      157,
      1,
      7
     ],
     [
      158,
      1,
      9
     ],
     [
      159,
      87,
      10
     ],
     [
      246,
      1,
      4
     ]
    ],
    "105": [
     [
      147,
      1,
      2
     ],
     [
      148,
      1,
      7
     ],
     [
      149,
      1,
      6
     ],
     [
      150,
      1,
      10
     ],
     [
      151,
      1,
      7
     ],
     [
      152,
      1,
      9
     ],
     [
      153,
      2,
      8
     ],
     [
      156,
      1,
      3
     ],
     [
      157,
      89,
      10
     ],
     [
      246,
      1,
      2
     ]
    ],
    "106": [
     [
      142,
      1,
      4
     ],
     [
      145,
      1,
      2
     ],
     [
      146,
      1,
      4
     ],
     [
      147,
      1,
      6
     ],
     [
      148,
      7,
      10
     ],
     [
      155,
      2,
      9
     ],
     [
      157,
      12,
      10
     ],
     [
      169,
      1,
      7
     ],
     [
      170,
      1,
      3
     ],
     [
      171,
      1,
      8
     ],
     [
      172,
      74,
      10
     ]
    ],
    "107": [
     [
      140,
      1,
      3
     ],
     [
      143,
      1,
      7
     ],
     [
      144,
      1,
      4
     ],
     [
      145,
      1,
      9
     ],
     [
      146,
      23,
      10
     ],
     [
      169,
      1,
      9
     ],
     [
      170,
      1,
      4
     ],
     [
      171,
      1,
      8
     ],
     [
      172,
      1,
      10
     ],
     [
      173,
      1,
      2
     ],
     [
      174,
      1,
      6
     ],
     [
      175,
      70,
      10
     ],
     [
      245,
      1,
      8
     ]
    ],
    "108": [
     [
      140,
      1,
      2
     ],
     [
      141,
      2,
      3
     ],
     [
      143,
      1,
      9
     ],
     [
      144,
      28,
      10
     ],
     [
      172,
      1,
      9
     ],
     [
      174,
      1,
      3
     ],
     [
      175,
      70,
      10
     ],
     [
      245,
      1,
      6
     ]
    ],
    "109": [
     [
      138,
      2,
      7
     ],
     [
      140,
      1,
      9
     ],
     [
      141,
      31,
      10
     ],
     [
      172,
      1,
      9
     ],
     [
      173,
      1,
      7
     ],
     [
      174,
      1,
      9
     ],
     [
      175,
      70,
      10
     ],
     [
      245,
      1,
      3
     ]
    ],
    "110": [
     [
      137,
      1,
      5
     ],
     [
      138,
      107,
      10
     ],
     [
      245,
      1,
      2
     ]
    ],
    "111": [
     [
      137,
      108,
      10
     ]
    ],
    "112": [
     [
      137,
      1,
      7
     ],
     [
      138,
      106,
      10
     ],
     [
      244,
      1,
      7
     ]
    ],
    "113": [
     [
      137,
      1,
      7
     ],
     [
      138,
      1,
      9
     ],
     [
      139,
      1,
      6
     ],
     [
      140,
      104,
      10
     ],
     [
      244,
      1,
      6
     ]
    ],
    "114": [
     [
      137,
      1,
      3
     ],
     [
      140,
      1,
      5
     ],
     [
      141,
      2,
      1
     ],
     [
      143,
      1,
      8
     ],
     [
      144,
      18,
      10
     ],
     [
      162,
      1,
      8
     ],
     [
      163,
      1,
      3
     ],
     [
      164,
      1,
      7
     ],
     [
      165,
      79,
      10
     ],
     [
      244,
      1,
      4
     ]
    ],
    "115": [
     [
      136,
      3,
      1
     ],
     [
      140,
      2,
      2
     ],
     [
      142,
      1,
      7
     ],
     [
      143,
      18,
      10
     ],
     [
      161,
      1,
      8
     ],
     [
      164,
      1,
      6
     ],
     [
      165,
      79,
      10
     ]
    ],
    "116": [
     [
      138,
      1,
      2
     ],
     [
      139,
      1,
      6
     ],
     [
      140,
      1,
      8
     ],
     [
      141,
      20,
      10
     ],
     [
      161,
      1,
      9
     ],
     [
      163,
      1,
      4
     ],
     [
      164,
      1,
      9
     ],
     [
      165,
      79,
      10
     ]
    ],
    "117": [
     [
      138,
      1,
      8
     ],
     [
      139,
      23,
      10
     ],
     [
      162,
      2,
      9
     ],
     [
      164,
      79,
      10
     ],
     [
      243,
      1,
      6
     ]
    ],
    "118": [
     [
      139,
      66,
      10
     ],
     [
      205,
      1,
      7
     ],
     [
      206,
      1,
      2
     ],
     [
      207,
      1,
      8
     ],
     [
      208,
      35,
      10
     ],
     [
      243,
      1,
      6
     ]
    ],
    "119": [
     [
      136,
      2,
      3
     ],
     [
      138,
      1,
      6
     ],
     [
      139,
      63,
      10
     ],
     [
      202,
      2,
      1
     ],
     [
      204,
      1,
      5
     ],
     [
      205,
      1,
      4
     ],
     [
      207,
      1,
      5
     ],
     [
      208,
      35,
      10
     ],
     [
      243,
      1,
      3
     ]
    ],
    "120": [
     [
      136,
      1,
      9
     ],
     [
      137,
      65,
      10
     ],
     [
      202,
      1,
      1
     ],
     [
      209,
      1,
      7
     ],
     [
      210,
      33,
      10
     ]
    ],
    "121": [
     [
      136,
      1,
      8
     ],
     [
      137,
      65,
      10
     ],
     [
      202,
      1,
      6
     ],
     [
      203,
      1,
      2
     ],
     [
      204,
      1,
      4
     ],
     [
      210,
      1,
      1
     ],
     [
      211,
      2,
      3
     ],
     [
      213,
      2,
      8
     ],
     [
      215,
      1,
      5
     ],
     [
      216,
      1,
      8
     ],
     [
      217,
      25,
      10
     ],
     [
      242,
      1,
      9
     ]
    ],
    "122": [
     [
      134,
      1,
      4
     ],
     [
      135,
      70,
      10
     ],
     [
      205,
      1,
      4
     ],
     [
      207,
      1,
      3
     ],
     [
      208,
      2,
      6
     ],
     [
      217,
      25,
      10
     ],
     [
      242,
      1,
      7
     ]
    ],
    "123": [
     [
      134,
      1,
      8
     ],
     [
      135,
      70,
      10
     ],
     [
      205,
      1,
      6
     ],
     [
      206,
      1,
      5
     ],
     [
      207,
      1,
      7
     ],
     [
      208,
      1,
      6
     ],
     [
      216,
      1,
      8
     ],
     [
      217,
      25,
      10
     ],
     [
      242,
      1,
      4
     ]
    ],
    "124": [
     [
      135,
      1,
      1
     ],
     [
      136,
      1,
      7
     ],
     [
      137,
      68,
      10
     ],
     [
      205,
      1,
      2
     ],
     [
      208,
      1,
      2
     ],
     [
      209,
      1,
      4
     ],
     [
      210,
      1,
      3
     ],
     [
      211,
      1,
      5
     ],
     [
      212,
      2,
      9
     ],
     [
      214,
      1,
      7
     ],
     [
      215,
      1,
      8
     ],
     [
      216,
      26,
      10
     ],
     [
      242,
      1,
      3
     ]
    ],
    "125": [
     [
      136,
      1,
      4
     ],
     [
      137,
      1,
      7
     ],
     [
      138,
      68,
      10
     ],
     [
      206,
      1,
      8
     ],
     [
      207,
      1,
      2
     ],
     [
      208,
      1,
      6
     ],
     [
      209,
      1,
      10
     ],
     [
      210,
      1,
      5
     ],
     [
      211,
      1,
      4
     ],
     [
      212,
      30,
      10
     ]
    ],
    "126": [
     [
      137,
      1,
      5
     ],
     [
      138,
      68,
      10
     ],
     [
      206,
      1,
      6
     ],
     [
      211,
      1,
      6
     ],
     [
      212,
      2,
      10
     ],
     [
      214,
      1,
      8
     ],
     [
      215,
      1,
      5
     ],
     [
      216,
      2,
      10
     ],
     [
      218,
      1,
      8
     ],
     [
      219,
      1,
      7
     ],
     [
      220,
      21,
      10
     ],
     [
      241,
      1,
      9
     ]
    ],
    "127": [
     [
      137,
      1,
      2
     ],
     [
      138,
      1,
      6
     ],
     [
      139,
      67,
      10
     ],
     [
      206,
      1,
      9
     ],
     [
      207,
      1,
      8
     ],
     [
      208,
      2,
      6
     ],
     [
      210,
      1,
      8
     ],
     [
      211,
      3,
      10
     ],
     [
      214,
      1,
      7
     ],
     [
      215,
      1,
      1
     ],
     [
      217,
      1,
      7
     ],
     [
      220,
      1,
      7
     ],
     [
      221,
      20,
      10
     ],
     [
      241,
      1,
      7
     ]
    ],
    "128": [
     [
      138,
      1,
      3
     ],
     [
      139,
      76,
      10
     ],
     [
      215,
      2,
      8
     ],
     [
      217,
      2,
      9
     ],
     [
      219,
      1,
      5
     ],
     [
      220,
      1,
      9
     ],
     [
      221,
      20,
      10
     ],
     [
      241,
      1,
      4
     ]
    ],
    "129": [
     [
      138,
      1,
      8
     ],
     [
      139,
      75,
      10
     ],
     [
      214,
      1,
      8
     ],
     [
      215,
      1,
      4
     ],
     [
      216,
      2,
      7
     ],
     [
      218,
      23,
      10
     ],
     [
      241,
      1,
      3
     ]
    ],
    "130": [
     [
      134,
      1,
      2
     ],
     [
      138,
      73,
      10
     ],
     [
      211,
      1,
      6
     ],
     [
      213,
      1,
      5
     ],
     [
      214,
      1,
      7
     ],
     [
      217,
      1,
      1
     ],
     [
      218,
      23,
      10
     ]
    ],
    "131": [
     [
      134,
      1,
      7
     ],
     [
      135,
      1,
      5
     ],
     [
      136,
      1,
      2
     ],
     [
      137,
      1,
      6
     ],
     [
      138,
      73,
      10
     ],
     [
      211,
      1,
      7
     ],
     [
      212,
      2,
      4
     ],
     [
      214,
      2,
      10
     ],
     [
      216,
      1,
      6
     ],
     [
      217,
      1,
      8
     ],
     [
      218,
      22,
      10
     ],
     [
      240,
      1,
      8
     ]
    ],
    "132": [
     [
      134,
      1,
      4
     ],
     [
      135,
      1,
      2
     ],
     [
      137,
      1,
      7
     ],
     [
      138,
      73,
      10
     ],
     [
      211,
      1,
      6
     ],
     [
      212,
      1,
      3
     ],
     [
      213,
      1,
      6
     ],
     [
      214,
      26,
      10
     ],
     [
      240,
      1,
      7
     ]
    ],
    "133": [
     [
      137,
      1,
      1
     ],
     [
      138,
      1,
      5
     ],
     [
      139,
      72,
      10
     ],
     [
      211,
      1,
      6
     ],
     [
      212,
      1,
      3
     ],
     [
      214,
      26,
      10
     ],
     [
      240,
      1,
      4
     ]
    ],
    "134": [
     [
      137,
      1,
      1
     ],
     [
      139,
      1,
      8
     ],
     [
      140,
      1,
      9
     ],
     [
      141,
      1,
      10
     ],
     [
      142,
      1,
      2
     ],
     [
      143,
      1,
      1
     ],
     [
      144,
      96,
      10
     ],
     [
      240,
      1,
      2
     ]
    ],
    "135": [
     [
      140,
      1,
      1
     ],
     [
      141,
      1,
      3
     ],
     [
      142,
      1,
      2
     ],
     [
      144,
      1,
      8
     ],
     [
      145,
      95,
      10
     ]
    ],
    "136": [
     [
      144,
      1,
      3
     ],
     [
      145,
      1,
      6
     ],
     [
      146,
      3,
      10
     ],
     [
      149,
      1,
      7
     ],
     [
      150,
      1,
      9
     ],
     [
      151,
      88,
      10
     ],
     [
      239,
      1,
      8
     ]
    ],
    "137": [
     [
      148,
      1,
      1
     ],
     [
      151,
      1,
      4
     ],
     [
      152,
      57,
      10
     ],
     [
      209,
      1,
      5
     ],
     [
      210,
      1,
      8
     ],
     [
      211,
      28,
      10
     ],
     [
      239,
      1,
      7
     ]
    ],
    "138": [
     [
      152,
      1,
      4
     ],
     [
      153,
      55,
      10
     ],
     [
      208,
      1,
      8
     ],
     [
      210,
      2,
      2
     ],
     [
      213,
      1,
      8
     ],
     [
      214,
      25,
      10
     ],
     [
      239,
      1,
      3
     ]
    ],
    "139": [
     [
      153,
      1,
      9
     ],
     [
      154,
      42,
      10
     ],
     [
      196,
      1,
      2
     ],
     [
      197,
      1,
      6
     ],
     [
      198,
      10,
      10
     ],
     [
      208,
      1,
      8
     ],
     [
      209,
      1,
      1
     ],
     [
      213,
      1,
      8
     ],
     [
      214,
      25,
      10
     ],
     [
      239,
      1,
      2
     ]
    ],
    "140": [
     [
      153,
      1,
      4
     ],
     [
      154,
      39,
      10
     ],
     [
      197,
      1,
      6
     ],
     [
      198,
      10,
      10
     ],
     [
      213,
      1,
      4
     ],
     [
      214,
      1,
      9
     ],
     [
      215,
      24,
      10
     ]
    ],
    "141": [
     [
      153,
      1,
      2
     ],
     [
      154,
      1,
      8
     ],
     [
      155,
      39,
      10
     ],
     [
      194,
      1,
      7
     ],
     [
      195,
      2,
      8
     ],
     [
      197,
      11,
      10
     ],
     [
      208,
      1,
      6
     ],
     [
      209,
      2,
      3
     ],
     [
      214,
      24,
      10
     ],
     [
      238,
      1,
      8
     ]
    ],
    "142": [
     [
      154,
      56,
      10
     ],
     [
      210,
      1,
      9
     ],
     [
      211,
      1,
      7
     ],
     [
      212,
      1,
      10
     ],
     [
      213,
      1,
      7
     ],
     [
      214,
      24,
      10
     ],
     [
      238,
      1,
      6
     ]
    ],
    "143": [
     [
      154,
      1,
      1
     ],
     [
      155,
      1,
      6
     ],
     [
      156,
      82,
      10
     ],
     [
      238,
      1,
      3
     ]
    ],
    "144": [
     [
      155,
      1,
      5
     ],
     [
      156,
      1,
      10
     ],
     [
      157,
      2,
      6
     ],
     [
      159,
      2,
      10
     ],
     [
      161,
      1,
      8
     ],
     [
      162,
      76,
      10
     ],
     [
      238,
      1,
      2
     ]
    ],
    "145": [
     [
      156,
      1,
      2
     ],
     [
      157,
      1,
      1
     ],
     [
      159,
      1,
      2
     ],
     [
      160,
      1,
      9
     ],
     [
      162,
      1,
      1
     ],
     [
      163,
      1,
      8
     ],
     [
      164,
      74,
      10
     ]
    ],
    "146": [
     [
      159,
      1,
      2
     ],
     [
      160,
      1,
      7
     ],
     [
      161,
      1,
      2
     ],
     [
      162,
      1,
      1
     ],
     [
      163,
      1,
      8
     ],
     [
      164,
      73,
      10
     ],
     [
      237,
      1,
      7
     ]
    ],
    "147": [
     [
      165,
      1,
      2
     ],
     [
      166,
      1,
      7
     ],
     [
      167,
      1,
      6
     ],
     [
      168,
      1,
      7
     ],
     [
      169,
      1,
      9
     ],
     [
      170,
      64,
      10
     ],
     [
      234,
      1,
      7
     ],
     [
      235,
      1,
      8
     ],
     [
      236,
      1,
      6
     ]
    ],
    "148": [
     [
      169,
      1,
      2
     ],
     [
      170,
      1,
      4
     ],
     [
      171,
      1,
      9
     ],
     [
      172,
      62,
      10
     ],
     [
      235,
      1,
      1
     ]
    ],
    "149": [
     [
      171,
      1,
      1
     ],
     [
      172,
      1,
      6
     ],
     [
      173,
      2,
      10
     ],
     [
      175,
      2,
      8
     ],
     [
      177,
      1,
      7
     ],
     [
      178,
      1,
      2
     ],
     [
      179,
      1,
      4
     ],
     [
      180,
      1,
      9
     ],
     [
      181,
      52,
      10
     ],
     [
      233,
      1,
      9
     ],
     [
      235,
      1,
      1
     ],
     [
      236,
      1,
      4
     ]
    ],
    "150": [
     [
      172,
      1,
      1
     ],
     [
      173,
      2,
      10
     ],
     [
      175,
      1,
      3
     ],
     [
      180,
      57,
      10
     ]
    ],
    "151": [
     [
      173,
      1,
      2
     ],
     [
      174,
      2,
      9
     ],
     [
      176,
      1,
      1
     ],
     [
      180,
      1,
      3
     ],
     [
      181,
      1,
      8
     ],
     [
      182,
      23,
      10
     ],
     [
      205,
      1,
      7
     ],
     [
      207,
      1,
      4
     ],
     [
      208,
      1,
      7
     ],
     [
      209,
      27,
      10
     ],
     [
      236,
      1,
      7
     ]
    ],
    "152": [
     [
      175,
      1,
      8
     ],
     [
      176,
      1,
      3
     ],
     [
      182,
      1,
      6
     ],
     [
      183,
      1,
      9
     ],
     [
      184,
      21,
      10
     ],
     [
      205,
      1,
      8
     ],
     [
      206,
      1,
      2
     ],
     [
      207,
      1,
      1
     ],
     [
      208,
      1,
      7
     ],
     [
      209,
      27,
      10
     ],
     [
      236,
      1,
      6
     ]
    ],
    "153": [
     [
      174,
      1,
      2
     ],
     [
      175,
      1,
      10
     ],
     [
      176,
      1,
      7
     ],
     [
      183,
      1,
      2
     ],
     [
      184,
      1,
      8
     ],
     [
      185,
      51,
      10
     ],
     [
      236,
      1,
      3
     ]
    ],
    "154": [
     [
      174,
      1,
      8
     ],
     [
      175,
      2,
      10
     ],
     [
      177,
      1,
      6
     ],
     [
      181,
      1,
      1
     ],
     [
      182,
      1,
      4
     ],
     [
      183,
      1,
      2
     ],
     [
      185,
      1,
      1
     ],
     [
      187,
      1,
      5
     ],
     [
      188,
      48,
      10
     ]
    ],
    "155": [
     [
      172,
      1,
      1
     ],
     [
      173,
      1,
      2
     ],
     [
      174,
      1,
      8
     ],
     [
      175,
      3,
      10
     ],
     [
      178,
      1,
      7
     ],
     [
      179,
      1,
      3
     ],
     [
      185,
      1,
      1
     ],
     [
      187,
      1,
      4
     ],
     [
      188,
      1,
      3
     ],
     [
      189,
      1,
      8
     ],
     [
      190,
      45,
      10
     ],
     [
      235,
      1,
      9
     ]
    ],
    "156": [
     [
      174,
      1,
      1
     ],
     [
      175,
      1,
      4
     ],
     [
      176,
      1,
      9
     ],
     [
      177,
      4,
      10
     ],
     [
      181,
      1,
      4
     ],
     [
      189,
      1,
      9
     ],
     [
      190,
      45,
      10
     ],
     [
      235,
      1,
      7
     ]
    ],
    "157": [
     [
      176,
      1,
      3
     ],
     [
      177,
      1,
      9
     ],
     [
      178,
      3,
      10
     ],
     [
      181,
      1,
      3
     ],
     [
      183,
      1,
      10
     ],
     [
      184,
      1,
      1
     ],
     [
      189,
      46,
      10
     ],
     [
      235,
      1,
      3
     ]
    ],
    "158": [
     [
      177,
      1,
      2
     ],
     [
      178,
      1,
      7
     ],
     [
      179,
      3,
      8
     ],
     [
      182,
      1,
      9
     ],
     [
      183,
      2,
      10
     ],
     [
      185,
      1,
      7
     ],
     [
      186,
      1,
      6
     ],
     [
      187,
      1,
      10
     ],
     [
      188,
      1,
      8
     ],
     [
      189,
      6,
      10
     ],
     [
      195,
      1,
      8
     ],
     [
      196,
      39,
      10
     ],
     [
      235,
      1,
      3
     ]
    ],
    "159": [
     [
      179,
      1,
      2
     ],
     [
      184,
      1,
      3
     ],
     [
      185,
      9,
      10
     ],
     [
      194,
      1,
      2
     ],
     [
      195,
      2,
      1
     ],
     [
      197,
      1,
      6
     ],
     [
      198,
      37,
      10
     ]
    ],
    "160": [
     [
      185,
      1,
      6
     ],
     [
      186,
      8,
      10
     ],
     [
      194,
      1,
      2
     ],
     [
      195,
      1,
      5
     ],
     [
      196,
      1,
      4
     ],
     [
      197,
      1,
      5
     ],
     [
      198,
      36,
      10
     ],
     [
      234,
      1,
      9
     ]
    ],
    "161": [
     [
      178,
      1,
      1
     ],
     [
      179,
      1,
      6
     ],
     [
      180,
      1,
      2
     ],
     [
      181,
      1,
      1
     ],
     [
      186,
      1,
      7
     ],
     [
      187,
      1,
      10
     ],
     [
      188,
      2,
      3
     ],
     [
      190,
      1,
      4
     ],
     [
      191,
      1,
      7
     ],
     [
      192,
      42,
      10
     ],
     [
      234,
      1,
      6
     ]
    ],
    "162": [
     [
      179,
      1,
      10
     ],
     [
      180,
      1,
      4
     ],
     [
      186,
      1,
      3
     ],
     [
      187,
      1,
      8
     ],
     [
      191,
      1,
      4
     ],
     [
      192,
      1,
      8
     ],
     [
      193,
      41,
      10
     ],
     [
      234,
      1,
      4
     ]
    ],
    "163": [
     [
      156,
      1,
      2
     ],
     [
      165,
      2,
      1
     ],
     [
      167,
      1,
      2
     ],
     [
      168,
      1,
      3
     ],
     [
      169,
      1,
      1
     ],
     [
      177,
      1,
      1
     ],
     [
      178,
      1,
      7
     ],
     [
      179,
      2,
      10
     ],
     [
      181,
      1,
      2
     ],
     [
      185,
      1,
      4
     ],
     [
      186,
      1,
      8
     ],
     [
      187,
      1,
      10
     ],
     [
      188,
      1,
      7
     ],
     [
      192,
      1,
      7
     ],
     [
      193,
      41,
      10
     ],
     [
      234,
      1,
      3
     ]
    ],
    "164": [
     [
      156,
      1,
      1
     ],
     [
      169,
      1,
      5
     ],
     [
      170,
      1,
      10
     ],
     [
      171,
      1,
      7
     ],
     [
      172,
      2,
      8
     ],
     [
      174,
      1,
      6
     ],
     [
      175,
      1,
      2
     ],
     [
      177,
      1,
      3
     ],
     [
      178,
      3,
      10
     ],
     [
      181,
      1,
      5
     ],
     [
      183,
      1,
      3
     ],
     [
      184,
      1,
      8
     ],
     [
      185,
      4,
      10
     ],
     [
      189,
      1,
      2
     ],
     [
      192,
      1,
      7
     ],
     [
      193,
      41,
      10
     ]
    ],
    "165": [
     [
      170,
      1,
      8
     ],
     [
      171,
      4,
      10
     ],
     [
      175,
      1,
      9
     ],
     [
      176,
      1,
      6
     ],
     [
      177,
      1,
      5
     ],
     [
      178,
      5,
      10
     ],
     [
      183,
      1,
      9
     ],
     [
      184,
      6,
      10
     ],
     [
      190,
      1,
      9
     ],
     [
      191,
      1,
      7
     ],
     [
      192,
      41,
      10
     ],
     [
      233,
      1,
      8
     ]
    ],
    "166": [
     [
      166,
      1,
      3
     ],
     [
      170,
      1,
      8
     ],
     [
      171,
      62,
      10
     ],
     [
      233,
      1,
      7
     ]
    ],
    "167": [
     [
      166,
      1,
      1
     ],
     [
      169,
      1,
      1
     ],
     [
      170,
      1,
      9
     ],
     [
      171,
      62,
      10
     ],
     [
      233,
      1,
      4
     ]
    ],
    "168": [
     [
      162,
      1,
      1
     ],
     [
      163,
      1,
      3
     ],
     [
      169,
      1,
      9
     ],
     [
      170,
      63,
      10
     ],
     [
      233,
      1,
      2
     ]
    ],
    "169": [
     [
      162,
      1,
      1
     ],
     [
      163,
      1,
      2
     ],
     [
      164,
      1,
      4
     ],
     [
      169,
      1,
      6
     ],
     [
      170,
      63,
      10
     ]
    ],
    "170": [
     [
      168,
      1,
      2
     ],
     [
      169,
      1,
      7
     ],
     [
      170,
      4,
      10
     ],
     [
      174,
      1,
      9
     ],
     [
      175,
      1,
      6
     ],
     [
      176,
      56,
      10
     ],
     [
      232,
      1,
      8
     ]
    ],
    "171": [
     [
      170,
      1,
      6
     ],
     [
      171,
      3,
      10
     ],
     [
      174,
      1,
      2
     ],
     [
      176,
      1,
      6
     ],
     [
      177,
      55,
      10
     ],
     [
      232,
      1,
      6
     ]
    ],
    "172": [
     [
      170,
      1,
      6
     ],
     [
      171,
      2,
      10
     ],
     [
      173,
      1,
      8
     ],
     [
      177,
      1,
      9
     ],
     [
      178,
      54,
      10
     ],
     [
      232,
      1,
      3
     ]
    ],
    "173": [
     [
      167,
      1,
      2
     ],
     [
      170,
      1,
      3
     ],
     [
      171,
      2,
      10
     ],
     [
      173,
      1,
      2
     ],
     [
      176,
      1,
      1
     ],
     [
      177,
      55,
      10
     ],
     [
      232,
      1,
      2
     ]
    ],
    "174": [
     [
      167,
      1,
      5
     ],
     [
      168,
      1,
      6
     ],
     [
      170,
      1,
      4
     ],
     [
      171,
      1,
      10
     ],
     [
      172,
      1,
      5
     ],
     [
      177,
      1,
      9
     ],
     [
      178,
      54,
      10
     ]
    ],
    "175": [
     [
      168,
      1,
      6
     ],
     [
      172,
      1,
      1
     ],
     [
      175,
      1,
      6
     ],
     [
      176,
      1,
      7
     ],
     [
      177,
      54,
      10
     ],
     [
      231,
      1,
      8
     ]
    ],
    "176": [
     [
      168,
      1,
      3
     ],
     [
      169,
      1,
      2
     ],
     [
      174,
      1,
      1
     ],
     [
      175,
      1,
      9
     ],
     [
      176,
      10,
      10
     ],
     [
      186,
      1,
      7
     ],
     [
      187,
      1,
      6
     ],
     [
      188,
      1,
      8
     ],
     [
      189,
      42,
      10
     ],
     [
      231,
      1,
      5
     ]
    ],
    "177": [
     [
      173,
      1,
      1
     ],
     [
      175,
      7,
      10
     ],
     [
      182,
      1,
      2
     ],
     [
      183,
      1,
      4
     ],
     [
      184,
      1,
      10
     ],
     [
      185,
      1,
      5
     ],
     [
      186,
      1,
      1
     ],
     [
      188,
      1,
      3
     ],
     [
      189,
      42,
      10
     ],
     [
      231,
      1,
      4
     ]
    ],
    "178": [
     [
      173,
      1,
      7
     ],
     [
      174,
      1,
      6
     ],
     [
      175,
      3,
      10
     ],
     [
      178,
      1,
      9
     ],
     [
      180,
      1,
      7
     ],
     [
      181,
      1,
      8
     ],
     [
      183,
      1,
      4
     ],
     [
      184,
      1,
      6
     ],
     [
      185,
      1,
      2
     ],
     [
      188,
      1,
      3
     ],
     [
      189,
      1,
      7
     ],
     [
      190,
      1,
      9
     ],
     [
      191,
      40,
      10
     ]
    ],
    "179": [
     [
      173,
      5,
      10
     ],
     [
      178,
      1,
      9
     ],
     [
      179,
      1,
      4
     ],
     [
      184,
      1,
      1
     ],
     [
      190,
      1,
      1
     ],
     [
      191,
      40,
      10
     ]
    ],
    "180": [
     [
      190,
      1,
      4
     ],
     [
      191,
      39,
      10
     ],
     [
      230,
      1,
      6
     ]
    ],
    "181": [
     [
      190,
      1,
      8
     ],
     [
      191,
      39,
      10
     ],
     [
      230,
      1,
      6
     ]
    ],
    "182": [
     [
      195,
      35,
      10
     ],
     [
      230,
      1,
      3
     ]
    ],
    "183": [
     [
      203,
      27,
      10
     ]
    ],
    "184": [
     [
      210,
      19,
      10
     ],
     [
      229,
      1,
      9
     ]
    ],
    "185": [
     [
      218,
      11,
      10
     ],
     [
      229,
      1,
      7
     ]
    ],
    "186": [
     [
      226,
      3,
      10
     ],
     [
      229,
      1,
      6
     ]
    ]
   }
  },
  "clutter_headroom": 55.39,
  "clutter_at_floor": 0.567,
  "clutter_verdict": "vessels present",
  "detection_rate": 0.75,
  "n_detections": 16,
  "n_reports": 8,
  "n_reports_with_fix": 8,
  "n_matched": 6,
  "n_reports_unsearched": 321,
  "n_reports_marginal": 0,
  "unsearched_by_length": {
   "<25 m": 183,
   "25-50 m": 54,
   "50-100 m": 17,
   "100-200 m": 22,
   ">200 m": 34,
   "unknown": 11
  },
  "k_sigma_match": 3.0,
  "gate_min_snr": 15.0,
  "gate_min_pixels": 6,
  "n_detections_before_gate": 120,
  "ais_window_s": 1800.0,
  "calibration": {
   "detectable_length_m": 25.0,
   "max_chance_match": 0.05,
   "density_per_km2": 0.00099,
   "max_scorable_radius_m": 4053,
   "n_unscorable": 0,
   "n_unscorable_matched": 0,
   "expected_chance_matches": 0.01,
   "strata": {
    ">=25 m": {
     "found": 6,
     "scored": 6,
     "rate": 1.0,
     "ci95": [
      0.6097,
      1.0
     ]
    },
    "<25 m": {
     "found": 0,
     "scored": 2,
     "rate": 0.0,
     "ci95": [
      0.0,
      0.6576
     ]
    },
    "unknown length": {
     "found": 0,
     "scored": 0,
     "rate": null,
     "ci95": [
      null,
      null
     ]
    },
    "all scored": {
     "found": 6,
     "scored": 8,
     "rate": 0.75,
     "ci95": [
      0.4093,
      0.9285
     ]
    }
   },
   "curve_edges_m": [
    0.0,
    15.0,
    25.0,
    50.0,
    100.0
   ],
   "curve": {
    "0-15 m": {
     "found": 0,
     "scored": 2,
     "rate": 0.0,
     "ci95": [
      0.0,
      0.6576
     ]
    },
    "15-25 m": {
     "found": 0,
     "scored": 0,
     "rate": null,
     "ci95": [
      null,
      null
     ]
    },
    "25-50 m": {
     "found": 0,
     "scored": 0,
     "rate": null,
     "ci95": [
      null,
      null
     ]
    },
    "50-100 m": {
     "found": 0,
     "scored": 0,
     "rate": null,
     "ci95": [
      null,
      null
     ]
    },
    ">100 m": {
     "found": 6,
     "scored": 6,
     "rate": 1.0,
     "ci95": [
      0.6097,
      1.0
     ]
    },
    "unknown": {
     "found": 0,
     "scored": 0,
     "rate": null,
     "ci95": [
      null,
      null
     ]
    }
   }
  }
 },
 "features": [
  {
   "type": "Feature",
   "geometry": {
    "type": "Point",
    "coordinates": [
     -75.52808776885657,
     36.7168212294767
    ]
   },
   "properties": {
    "kind": "unmatched",
    "domain": "sea",
    "t_start": "2024-05-04T22:58:43+00:00",
    "t_end": "2024-05-04T22:58:43+00:00",
    "duration_s": 0.0,
    "confidence": 0.7124999999999999,
    "platform_ids": [],
    "evidence": {
     "sensor": "sentinel1-vv-cfar",
     "detector_confidence": 0.95,
     "detection_rate_this_pass": 0.75,
     "reports_considered": 8,
     "reports_with_a_fix": 8,
     "search_radius_m": 197.6,
     "snr": 39.77,
     "length_m_approx": 86.0,
     "pixels": 74,
     "scene": "S1A_IW_GRDH_1SDV_20240504T225843_20240504T225908_053728_068708_1D1B_COG.SAFE"
    }
   }
  },
  {
   "type": "Feature",
   "geometry": {
    "type": "Point",
    "coordinates": [
     -75.51726743884353,
     36.67009800174681
    ]
   },
   "properties": {
    "kind": "unmatched",
    "domain": "sea",
    "t_start": "2024-05-04T22:58:43+00:00",
    "t_end": "2024-05-04T22:58:43+00:00",
    "duration_s": 0.0,
    "confidence": 0.6877500000000001,
    "platform_ids": [],
    "evidence": {
     "sensor": "sentinel1-vv-cfar",
     "detector_confidence": 0.917,
     "detection_rate_this_pass": 0.75,
     "reports_considered": 8,
     "reports_with_a_fix": 8,
     "search_radius_m": 172.1,
     "snr": 18.35,
     "length_m_approx": 72.8,
     "pixels": 53,
     "scene": "S1A_IW_GRDH_1SDV_20240504T225843_20240504T225908_053728_068708_1D1B_COG.SAFE"
    }
   }
  },
  {
   "type": "Feature",
   "geometry": {
    "type": "Point",
    "coordinates": [
     -75.34371543359082,
     36.74824907197943
    ]
   },
   "properties": {
    "kind": "unmatched",
    "domain": "sea",
    "t_start": "2024-05-04T22:58:43+00:00",
    "t_end": "2024-05-04T22:58:43+00:00",
    "duration_s": 0.0,
    "confidence": 0.7124999999999999,
    "platform_ids": [],
    "evidence": {
     "sensor": "sentinel1-vv-cfar",
     "detector_confidence": 0.95,
     "detection_rate_this_pass": 0.75,
     "reports_considered": 8,
     "reports_with_a_fix": 8,
     "search_radius_m": 149.9,
     "snr": 27.43,
     "length_m_approx": 60.8,
     "pixels": 37,
     "scene": "S1A_IW_GRDH_1SDV_20240504T225843_20240504T225908_053728_068708_1D1B_COG.SAFE"
    }
   }
  },
  {
   "type": "Feature",
   "geometry": {
    "type": "Point",
    "coordinates": [
     -75.19572818545275,
     36.672552870263104
    ]
   },
   "properties": {
    "kind": "unmatched",
    "domain": "sea",
    "t_start": "2024-05-04T22:58:43+00:00",
    "t_end": "2024-05-04T22:58:43+00:00",
    "duration_s": 0.0,
    "confidence": 0.7124999999999999,
    "platform_ids": [],
    "evidence": {
     "sensor": "sentinel1-vv-cfar",
     "detector_confidence": 0.95,
     "detection_rate_this_pass": 0.75,
     "reports_considered": 8,
     "reports_with_a_fix": 8,
     "search_radius_m": 170.9,
     "snr": 22.4,
     "length_m_approx": 72.1,
     "pixels": 52,
     "scene": "S1A_IW_GRDH_1SDV_20240504T225843_20240504T225908_053728_068708_1D1B_COG.SAFE"
    }
   }
  },
  {
   "type": "Feature",
   "geometry": {
    "type": "Point",
    "coordinates": [
     -75.34289121788208,
     36.748513815711
    ]
   },
   "properties": {
    "kind": "unmatched",
    "domain": "sea",
    "t_start": "2024-05-04T22:58:43+00:00",
    "t_end": "2024-05-04T22:58:43+00:00",
    "duration_s": 0.0,
    "confidence": 0.6637500000000001,
    "platform_ids": [],
    "evidence": {
     "sensor": "sentinel1-vv-cfar",
     "detector_confidence": 0.885,
     "detection_rate_this_pass": 0.75,
     "reports_considered": 8,
     "reports_with_a_fix": 8,
     "search_radius_m": 97.0,
     "snr": 17.69,
     "length_m_approx": 28.3,
     "pixels": 8,
     "scene": "S1A_IW_GRDH_1SDV_20240504T225843_20240504T225908_053728_068708_1D1B_COG.SAFE"
    }
   }
  },
  {
   "type": "Feature",
   "geometry": {
    "type": "Point",
    "coordinates": [
     -73.8925104044741,
     36.89228761543837
    ]
   },
   "properties": {
    "kind": "unmatched",
    "domain": "sea",
    "t_start": "2024-05-04T22:58:43+00:00",
    "t_end": "2024-05-04T22:58:43+00:00",
    "duration_s": 0.0,
    "confidence": 0.7124999999999999,
    "platform_ids": [],
    "evidence": {
     "sensor": "sentinel1-vv-cfar",
     "detector_confidence": 0.95,
     "detection_rate_this_pass": 0.75,
     "reports_considered": 8,
     "reports_with_a_fix": 8,
     "search_radius_m": 177.4,
     "snr": 36.21,
     "length_m_approx": 75.5,
     "pixels": 57,
     "scene": "S1A_IW_GRDH_1SDV_20240504T225843_20240504T225908_053728_068708_1D1B_COG.SAFE"
    }
   }
  },
  {
   "type": "Feature",
   "geometry": {
    "type": "Point",
    "coordinates": [
     -73.89266459422575,
     36.89323371800392
    ]
   },
   "properties": {
    "kind": "unmatched",
    "domain": "sea",
    "t_start": "2024-05-04T22:58:43+00:00",
    "t_end": "2024-05-04T22:58:43+00:00",
    "duration_s": 0.0,
    "confidence": 0.567,
    "platform_ids": [],
    "evidence": {
     "sensor": "sentinel1-vv-cfar",
     "detector_confidence": 0.756,
     "detection_rate_this_pass": 0.75,
     "reports_considered": 8,
     "reports_with_a_fix": 8,
     "search_radius_m": 103.8,
     "snr": 15.13,
     "length_m_approx": 33.2,
     "pixels": 11,
     "scene": "S1A_IW_GRDH_1SDV_20240504T225843_20240504T225908_053728_068708_1D1B_COG.SAFE"
    }
   }
  },
  {
   "type": "Feature",
   "geometry": {
    "type": "Point",
    "coordinates": [
     -75.2126806378875,
     36.85691750377754
    ]
   },
   "properties": {
    "kind": "unmatched",
    "domain": "sea",
    "t_start": "2024-05-04T22:58:43+00:00",
    "t_end": "2024-05-04T22:58:43+00:00",
    "duration_s": 0.0,
    "confidence": 0.7124999999999999,
    "platform_ids": [],
    "evidence": {
     "sensor": "sentinel1-vv-cfar",
     "detector_confidence": 0.95,
     "detection_rate_this_pass": 0.75,
     "reports_considered": 8,
     "reports_with_a_fix": 8,
     "search_radius_m": 225.4,
     "snr": 56.45,
     "length_m_approx": 100.0,
     "pixels": 100,
     "scene": "S1A_IW_GRDH_1SDV_20240504T225843_20240504T225908_053728_068708_1D1B_COG.SAFE"
    }
   }
  },
  {
   "type": "Feature",
   "geometry": {
    "type": "Point",
    "coordinates": [
     -75.22236875903184,
     36.89761225360814
    ]
   },
   "properties": {
    "kind": "unmatched",
    "domain": "sea",
    "t_start": "2024-05-04T22:58:43+00:00",
    "t_end": "2024-05-04T22:58:43+00:00",
    "duration_s": 0.0,
    "confidence": 0.6577500000000001,
    "platform_ids": [],
    "evidence": {
     "sensor": "sentinel1-vv-cfar",
     "detector_confidence": 0.877,
     "detection_rate_this_pass": 0.75,
     "reports_considered": 8,
     "reports_with_a_fix": 8,
     "search_radius_m": 140.5,
     "snr": 17.55,
     "length_m_approx": 55.7,
     "pixels": 31,
     "scene": "S1A_IW_GRDH_1SDV_20240504T225843_20240504T225908_053728_068708_1D1B_COG.SAFE"
    }
   }
  },
  {
   "type": "Feature",
   "geometry": {
    "type": "Point",
    "coordinates": [
     -73.84999072459588,
     37.049563469883125
    ]
   },
   "properties": {
    "kind": "unmatched",
    "domain": "sea",
    "t_start": "2024-05-04T22:58:43+00:00",
    "t_end": "2024-05-04T22:58:43+00:00",
    "duration_s": 0.0,
    "confidence": 0.7124999999999999,
    "platform_ids": [],
    "evidence": {
     "sensor": "sentinel1-vv-cfar",
     "detector_confidence": 0.95,
     "detection_rate_this_pass": 0.75,
     "reports_considered": 8,
     "reports_with_a_fix": 8,
     "search_radius_m": 187.1,
     "snr": 24.0,
     "length_m_approx": 80.6,
     "pixels": 65,
     "scene": "S1A_IW_GRDH_1SDV_20240504T225843_20240504T225908_053728_068708_1D1B_COG.SAFE"
    }
   }
  }
 ]
}