{
 "type": "FeatureCollection",
 "properties": {
  "scene": "S1A_IW_GRDH_1SDV_20240410T225812_20240410T225841_053378_067942_EBC4_COG.SAFE",
  "acquired": "2024-04-10T22:58:12+00:00",
  "geolocation_rms_m": 2.6,
  "geolocation_holdout_m": 8.2,
  "geolocation_median_m": 9.4,
  "geolocation_p90_m": 9.7,
  "geolocation_worst_m": 14.8,
  "geolocation_uneven": false,
  "geolocation_convergence": 3.56,
  "geolocation_method": "geolocation grid (bilinear)",
  "geolocation_validation": "holdout at 2x spacing",
  "tiles": 130,
  "tiles_skipped": 0,
  "k_sigma": 6.0,
  "land_masked": true,
  "water_fraction": 0.935,
  "land_sea_contrast": 3.46,
  "coast_blind_m": 605.0,
  "searched_km2": 44050.3,
  "refused_km2": 0.0,
  "tiles_without_water": 0,
  "outside_aoi": 400,
  "aoi_sea": [
   -77.2,
   36.0,
   -71.0,
   39.6
  ],
  "footprint": [
   [
    -75.80425,
    34.68102
   ],
   [
    -75.5754,
    34.71697
   ],
   [
    -75.34636,
    34.75251
   ],
   [
    -75.11713,
    34.78763
   ],
   [
    -74.8877,
    34.82229
   ],
   [
    -74.65808,
    34.85654
   ],
   [
    -74.42828,
    34.89037
   ],
   [
    -74.19827,
    34.92373
   ],
   [
    -73.96809,
    34.95668
   ],
   [
    -73.73774,
    34.9892
   ],
   [
    -73.50718,
    35.02126
   ],
   [
    -73.27646,
    35.05289
   ],
   [
    -73.04557,
    35.08411
   ],
   [
    -73.07492,
    35.22957
   ],
   [
    -73.1043,
    35.37503
   ],
   [
    -73.1337,
    35.52049
   ],
   [
    -73.16312,
    35.66594
   ],
   [
    -73.19258,
    35.81138
   ],
   [
    -73.22206,
    35.95682
   ],
   [
    -73.25157,
    36.10226
   ],
   [
    -73.28111,
    36.24769
   ],
   [
    -73.31067,
    36.39311
   ],
   [
    -73.34027,
    36.53853
   ],
   [
    -73.36989,
    36.68394
   ],
   [
    -73.39954,
    36.82935
   ],
   [
    -73.63564,
    36.79848
   ],
   [
    -73.87155,
    36.76715
   ],
   [
    -74.10727,
    36.73538
   ],
   [
    -74.34279,
    36.70311
   ],
   [
    -74.57811,
    36.67039
   ],
   [
    -74.81324,
    36.63722
   ],
   [
    -75.04815,
    36.60356
   ],
   [
    -75.28287,
    36.56945
   ],
   [
    -75.51739,
    36.5349
   ],
   [
    -75.75168,
    36.49985
   ],
   [
    -75.98575,
    36.46436
   ],
   [
    -76.21959,
    36.42844
   ],
   [
    -76.18463,
    36.28286
   ],
   [
    -76.14976,
    36.13727
   ],
   [
    -76.11492,
    35.99168
   ],
   [
    -76.08015,
    35.84608
   ],
   [
    -76.04544,
    35.70047
   ],
   [
    -76.01077,
    35.55486
   ],
   [
    -75.97622,
    35.40924
   ],
   [
    -75.94171,
    35.26361
   ],
   [
    -75.90726,
    35.11797
   ],
   [
    -75.87286,
    34.97233
   ],
   [
    -75.83853,
    34.82667
   ]
  ],
  "searched_grid": {
   "cell_deg": 0.01,
   "lon0": -76.22,
   "lat0": 34.68,
   "levels": 10,
   "rows": {
    "1": [
     [
      49,
      1,
      1
     ],
     [
      50,
      1,
      3
     ]
    ],
    "2": [
     [
      50,
      1,
      3
     ],
     [
      53,
      1,
      3
     ],
     [
      54,
      2,
      7
     ]
    ],
    "3": [
     [
      47,
      1,
      1
     ],
     [
      51,
      1,
      1
     ],
     [
      52,
      1,
      2
     ],
     [
      53,
      1,
      3
     ],
     [
      54,
      1,
      10
     ],
     [
      55,
      1,
      9
     ],
     [
      59,
      1,
      9
     ],
     [
      60,
      1,
      4
     ],
     [
      62,
      1,
      1
     ]
    ],
    "4": [
     [
      40,
      1,
      2
     ],
     [
      41,
      2,
      3
     ],
     [
      47,
      1,
      9
     ],
     [
      48,
      1,
      4
     ],
     [
      52,
      1,
      6
     ],
     [
      53,
      1,
      8
     ],
     [
      54,
      2,
      10
     ],
     [
      56,
      1,
      8
     ],
     [
      57,
      1,
      4
     ],
     [
      58,
      1,
      1
     ],
     [
      60,
      1,
      7
     ],
     [
      61,
      1,
      4
     ],
     [
      62,
      1,
      5
     ],
     [
      64,
      1,
      1
     ],
     [
      65,
      1,
      3
     ],
     [
      66,
      1,
      5
     ],
     [
      67,
      1,
      2
     ],
     [
      68,
      1,
      1
     ],
     [
      69,
      1,
      5
     ]
    ],
    "5": [
     [
      40,
      1,
      6
     ],
     [
      41,
      2,
      10
     ],
     [
      43,
      1,
      8
     ],
     [
      44,
      1,
      5
     ],
     [
      47,
      1,
      4
     ],
     [
      48,
      2,
      10
     ],
     [
      50,
      1,
      5
     ],
     [
      53,
      6,
      10
     ],
     [
      59,
      1,
      9
     ],
     [
      60,
      3,
      10
     ],
     [
      63,
      1,
      6
     ],
     [
      68,
      1,
      1
     ],
     [
      69,
      1,
      2
     ],
     [
      71,
      1,
      2
     ],
     [
      72,
      1,
      10
     ],
     [
      73,
      2,
      7
     ],
     [
      75,
      1,
      6
     ],
     [
      76,
      1,
      5
     ],
     [
      77,
      1,
      2
     ]
    ],
    "6": [
     [
      40,
      1,
      7
     ],
     [
      41,
      4,
      10
     ],
     [
      45,
      1,
      9
     ],
     [
      46,
      1,
      6
     ],
     [
      47,
      1,
      8
     ],
     [
      48,
      2,
      10
     ],
     [
      50,
      1,
      8
     ],
     [
      51,
      1,
      1
     ],
     [
      53,
      1,
      5
     ],
     [
      54,
      9,
      10
     ],
     [
      63,
      1,
      9
     ],
     [
      64,
      1,
      5
     ],
     [
      65,
      1,
      3
     ],
     [
      69,
      1,
      2
     ],
     [
      70,
      1,
      7
     ],
     [
      71,
      1,
      8
     ],
     [
      72,
      7,
      10
     ],
     [
      79,
      1,
      8
     ],
     [
      80,
      1,
      7
     ],
     [
      81,
      1,
      6
     ],
     [
      82,
      2,
      5
     ]
    ],
    "7": [
     [
      40,
      11,
      10
     ],
     [
      51,
      1,
      7
     ],
     [
      53,
      1,
      4
     ],
     [
      54,
      12,
      10
     ],
     [
      66,
      1,
      1
     ],
     [
      71,
      1,
      4
     ],
     [
      72,
      1,
      9
     ],
     [
      73,
      12,
      10
     ],
     [
      85,
      1,
      9
     ],
     [
      86,
      2,
      7
     ],
     [
      88,
      1,
      6
     ],
     [
      89,
      1,
      5
     ],
     [
      90,
      1,
      3
     ]
    ],
    "8": [
     [
      39,
      1,
      4
     ],
     [
      40,
      26,
      10
     ],
     [
      66,
      1,
      1
     ],
     [
      72,
      1,
      8
     ],
     [
      73,
      19,
      10
     ],
     [
      92,
      1,
      8
     ],
     [
      93,
      1,
      7
     ],
     [
      94,
      1,
      6
     ],
     [
      95,
      2,
      5
     ]
    ],
    "9": [
     [
      39,
      1,
      5
     ],
     [
      40,
      26,
      10
     ],
     [
      66,
      1,
      7
     ],
     [
      67,
      1,
      4
     ],
     [
      68,
      1,
      2
     ],
     [
      71,
      1,
      3
     ],
     [
      72,
      1,
      9
     ],
     [
      73,
      25,
      10
     ],
     [
      98,
      1,
      9
     ],
     [
      99,
      3,
      7
     ],
     [
      102,
      1,
      5
     ],
     [
      103,
      1,
      2
     ]
    ],
    "10": [
     [
      39,
      1,
      7
     ],
     [
      40,
      28,
      10
     ],
     [
      68,
      1,
      8
     ],
     [
      72,
      33,
      10
     ],
     [
      105,
      1,
      8
     ],
     [
      106,
      1,
      6
     ],
     [
      107,
      1,
      7
     ],
     [
      108,
      2,
      5
     ]
    ],
    "11": [
     [
      39,
      29,
      10
     ],
     [
      68,
      1,
      9
     ],
     [
      69,
      1,
      5
     ],
     [
      71,
      1,
      4
     ],
     [
      72,
      39,
      10
     ],
     [
      111,
      1,
      9
     ],
     [
      112,
      1,
      8
     ],
     [
      113,
      1,
      7
     ],
     [
      114,
      2,
      5
     ],
     [
      116,
      1,
      4
     ]
    ],
    "12": [
     [
      38,
      1,
      2
     ],
     [
      39,
      31,
      10
     ],
     [
      70,
      1,
      4
     ],
     [
      71,
      1,
      8
     ],
     [
      72,
      46,
      10
     ],
     [
      118,
      1,
      8
     ],
     [
      119,
      2,
      7
     ],
     [
      121,
      2,
      5
     ]
    ],
    "13": [
     [
      38,
      1,
      5
     ],
     [
      39,
      86,
      10
     ],
     [
      125,
      1,
      8
     ],
     [
      126,
      1,
      7
     ],
     [
      127,
      1,
      6
     ],
     [
      128,
      1,
      5
     ],
     [
      129,
      1,
      4
     ]
    ],
    "14": [
     [
      38,
      1,
      7
     ],
     [
      39,
      92,
      10
     ],
     [
      131,
      1,
      9
     ],
     [
      132,
      1,
      7
     ],
     [
      133,
      1,
      4
     ]
    ],
    "15": [
     [
      38,
      1,
      9
     ],
     [
      39,
      94,
      10
     ],
     [
      133,
      1,
      6
     ]
    ],
    "16": [
     [
      37,
      1,
      2
     ],
     [
      38,
      95,
      10
     ],
     [
      133,
      1,
      3
     ]
    ],
    "17": [
     [
      37,
      1,
      4
     ],
     [
      38,
      95,
      10
     ]
    ],
    "18": [
     [
      37,
      1,
      7
     ],
     [
      38,
      94,
      10
     ],
     [
      132,
      1,
      9
     ]
    ],
    "19": [
     [
      37,
      1,
      8
     ],
     [
      38,
      94,
      10
     ],
     [
      132,
      1,
      7
     ]
    ],
    "20": [
     [
      37,
      95,
      10
     ],
     [
      132,
      1,
      5
     ]
    ],
    "21": [
     [
      36,
      1,
      5
     ],
     [
      37,
      97,
      10
     ],
     [
      134,
      1,
      9
     ],
     [
      135,
      1,
      8
     ],
     [
      136,
      1,
      6
     ],
     [
      137,
      2,
      3
     ],
     [
      139,
      1,
      1
     ]
    ],
    "22": [
     [
      36,
      1,
      6
     ],
     [
      37,
      104,
      10
     ],
     [
      141,
      1,
      8
     ],
     [
      142,
      1,
      7
     ],
     [
      143,
      1,
      6
     ],
     [
      144,
      2,
      3
     ]
    ],
    "23": [
     [
      36,
      1,
      7
     ],
     [
      37,
      111,
      10
     ],
     [
      148,
      1,
      7
     ],
     [
      149,
      1,
      6
     ],
     [
      150,
      1,
      5
     ],
     [
      151,
      1,
      3
     ],
     [
      152,
      1,
      2
     ]
    ],
    "24": [
     [
      36,
      118,
      10
     ],
     [
      154,
      1,
      9
     ],
     [
      155,
      1,
      7
     ],
     [
      156,
      1,
      8
     ],
     [
      157,
      2,
      3
     ],
     [
      159,
      1,
      2
     ]
    ],
    "25": [
     [
      35,
      1,
      4
     ],
     [
      36,
      125,
      10
     ],
     [
      161,
      1,
      9
     ],
     [
      162,
      1,
      7
     ],
     [
      163,
      1,
      5
     ],
     [
      164,
      1,
      4
     ],
     [
      165,
      1,
      3
     ],
     [
      166,
      1,
      1
     ]
    ],
    "26": [
     [
      35,
      1,
      5
     ],
     [
      36,
      132,
      10
     ],
     [
      168,
      1,
      8
     ],
     [
      169,
      1,
      6
     ],
     [
      170,
      1,
      5
     ],
     [
      171,
      1,
      4
     ],
     [
      172,
      1,
      3
     ]
    ],
    "27": [
     [
      35,
      1,
      7
     ],
     [
      36,
      139,
      10
     ],
     [
      175,
      2,
      8
     ],
     [
      177,
      1,
      5
     ],
     [
      178,
      2,
      3
     ]
    ],
    "28": [
     [
      35,
      147,
      10
     ],
     [
      182,
      1,
      8
     ],
     [
      183,
      1,
      7
     ],
     [
      184,
      1,
      5
     ],
     [
      185,
      1,
      4
     ],
     [
      186,
      1,
      2
     ]
    ],
    "29": [
     [
      34,
      1,
      4
     ],
     [
      35,
      154,
      10
     ],
     [
      189,
      2,
      7
     ],
     [
      191,
      1,
      5
     ],
     [
      192,
      1,
      3
     ],
     [
      193,
      1,
      2
     ]
    ],
    "30": [
     [
      34,
      1,
      4
     ],
     [
      35,
      161,
      10
     ],
     [
      196,
      1,
      7
     ],
     [
      197,
      1,
      6
     ],
     [
      198,
      1,
      5
     ],
     [
      199,
      1,
      3
     ],
     [
      200,
      1,
      2
     ]
    ],
    "31": [
     [
      34,
      1,
      7
     ],
     [
      35,
      167,
      10
     ],
     [
      202,
      1,
      9
     ],
     [
      203,
      2,
      7
     ],
     [
      205,
      1,
      5
     ],
     [
      206,
      1,
      3
     ],
     [
      207,
      1,
      1
     ]
    ],
    "32": [
     [
      34,
      1,
      9
     ],
     [
      35,
      174,
      10
     ],
     [
      209,
      1,
      9
     ],
     [
      210,
      1,
      7
     ],
     [
      211,
      1,
      6
     ],
     [
      212,
      1,
      5
     ],
     [
      213,
      1,
      4
     ],
     [
      214,
      1,
      2
     ]
    ],
    "33": [
     [
      33,
      1,
      2
     ],
     [
      34,
      183,
      10
     ],
     [
      217,
      1,
      7
     ],
     [
      218,
      1,
      6
     ],
     [
      219,
      1,
      5
     ],
     [
      220,
      1,
      3
     ],
     [
      221,
      1,
      2
     ]
    ],
    "34": [
     [
      33,
      1,
      4
     ],
     [
      34,
      189,
      10
     ],
     [
      223,
      1,
      9
     ],
     [
      224,
      1,
      8
     ],
     [
      225,
      1,
      7
     ],
     [
      226,
      1,
      4
     ],
     [
      227,
      1,
      1
     ]
    ],
    "35": [
     [
      33,
      1,
      7
     ],
     [
      34,
      193,
      10
     ]
    ],
    "36": [
     [
      33,
      1,
      8
     ],
     [
      34,
      192,
      10
     ],
     [
      226,
      1,
      9
     ]
    ],
    "37": [
     [
      33,
      193,
      10
     ],
     [
      226,
      1,
      7
     ]
    ],
    "38": [
     [
      32,
      1,
      5
     ],
     [
      33,
      193,
      10
     ],
     [
      226,
      1,
      3
     ]
    ],
    "39": [
     [
      32,
      1,
      6
     ],
     [
      33,
      193,
      10
     ],
     [
      226,
      1,
      2
     ]
    ],
    "40": [
     [
      32,
      1,
      8
     ],
     [
      33,
      193,
      10
     ],
     [
      226,
      1,
      5
     ],
     [
      227,
      1,
      4
     ],
     [
      228,
      1,
      3
     ]
    ],
    "41": [
     [
      32,
      199,
      10
     ],
     [
      231,
      1,
      8
     ],
     [
      232,
      1,
      6
     ],
     [
      233,
      1,
      5
     ],
     [
      234,
      1,
      4
     ],
     [
      235,
      1,
      3
     ],
     [
      236,
      1,
      1
     ]
    ],
    "42": [
     [
      31,
      1,
      5
     ],
     [
      32,
      206,
      10
     ],
     [
      238,
      1,
      9
     ],
     [
      239,
      1,
      7
     ],
     [
      240,
      1,
      6
     ],
     [
      241,
      2,
      3
     ],
     [
      243,
      1,
      1
     ]
    ],
    "43": [
     [
      31,
      1,
      6
     ],
     [
      32,
      213,
      10
     ],
     [
      245,
      1,
      8
     ],
     [
      246,
      2,
      7
     ],
     [
      248,
      1,
      4
     ],
     [
      249,
      2,
      2
     ]
    ],
    "44": [
     [
      31,
      1,
      3
     ],
     [
      32,
      1,
      7
     ],
     [
      33,
      219,
      10
     ],
     [
      252,
      1,
      9
     ],
     [
      253,
      1,
      7
     ],
     [
      254,
      1,
      6
     ],
     [
      255,
      1,
      5
     ],
     [
      256,
      1,
      4
     ],
     [
      257,
      1,
      2
     ]
    ],
    "45": [
     [
      34,
      1,
      5
     ],
     [
      35,
      225,
      10
     ],
     [
      260,
      2,
      7
     ],
     [
      262,
      1,
      5
     ],
     [
      263,
      2,
      3
     ]
    ],
    "46": [
     [
      30,
      1,
      4
     ],
     [
      31,
      1,
      2
     ],
     [
      36,
      1,
      4
     ],
     [
      37,
      1,
      8
     ],
     [
      38,
      229,
      10
     ],
     [
      267,
      1,
      8
     ],
     [
      268,
      1,
      6
     ],
     [
      269,
      1,
      5
     ],
     [
      270,
      1,
      4
     ],
     [
      271,
      1,
      3
     ],
     [
      272,
      1,
      1
     ]
    ],
    "47": [
     [
      30,
      1,
      4
     ],
     [
      31,
      1,
      10
     ],
     [
      32,
      1,
      9
     ],
     [
      33,
      1,
      4
     ],
     [
      34,
      1,
      1
     ],
     [
      38,
      1,
      2
     ],
     [
      39,
      1,
      6
     ],
     [
      40,
      234,
      10
     ],
     [
      274,
      1,
      9
     ],
     [
      275,
      1,
      7
     ],
     [
      276,
      1,
      6
     ],
     [
      277,
      1,
      4
     ],
     [
      278,
      1,
      3
     ],
     [
      279,
      1,
      2
     ]
    ],
    "48": [
     [
      30,
      1,
      7
     ],
     [
      31,
      4,
      10
     ],
     [
      35,
      1,
      9
     ],
     [
      36,
      1,
      3
     ],
     [
      40,
      1,
      1
     ],
     [
      41,
      1,
      2
     ],
     [
      42,
      1,
      9
     ],
     [
      43,
      5,
      10
     ],
     [
      48,
      1,
      9
     ],
     [
      49,
      1,
      7
     ],
     [
      50,
      1,
      9
     ],
     [
      51,
      230,
      10
     ],
     [
      281,
      1,
      9
     ],
     [
      282,
      1,
      7
     ],
     [
      283,
      1,
      8
     ],
     [
      284,
      1,
      4
     ],
     [
      285,
      1,
      3
     ],
     [
      286,
      1,
      2
     ]
    ],
    "49": [
     [
      30,
      1,
      9
     ],
     [
      31,
      5,
      10
     ],
     [
      36,
      1,
      5
     ],
     [
      38,
      2,
      4
     ],
     [
      44,
      1,
      5
     ],
     [
      45,
      3,
      10
     ],
     [
      50,
      1,
      9
     ],
     [
      51,
      238,
      10
     ],
     [
      289,
      1,
      8
     ],
     [
      290,
      1,
      7
     ],
     [
      291,
      1,
      5
     ],
     [
      292,
      1,
      4
     ],
     [
      293,
      1,
      2
     ],
     [
      294,
      1,
      1
     ]
    ],
    "50": [
     [
      29,
      1,
      2
     ],
     [
      30,
      5,
      10
     ],
     [
      35,
      1,
      3
     ],
     [
      36,
      1,
      1
     ],
     [
      38,
      1,
      6
     ],
     [
      39,
      1,
      10
     ],
     [
      40,
      1,
      8
     ],
     [
      41,
      1,
      5
     ],
     [
      45,
      1,
      1
     ],
     [
      46,
      1,
      3
     ],
     [
      47,
      1,
      4
     ],
     [
      48,
      1,
      3
     ],
     [
      49,
      1,
      5
     ],
     [
      50,
      246,
      10
     ],
     [
      296,
      1,
      8
     ],
     [
      297,
      1,
      7
     ],
     [
      298,
      1,
      5
     ],
     [
      299,
      1,
      4
     ],
     [
      300,
      1,
      3
     ],
     [
      301,
      1,
      1
     ]
    ],
    "51": [
     [
      29,
      1,
      5
     ],
     [
      30,
      5,
      10
     ],
     [
      35,
      1,
      3
     ],
     [
      36,
      1,
      1
     ],
     [
      38,
      1,
      1
     ],
     [
      39,
      1,
      8
     ],
     [
      40,
      2,
      10
     ],
     [
      42,
      1,
      8
     ],
     [
      43,
      1,
      2
     ],
     [
      44,
      1,
      3
     ],
     [
      49,
      1,
      1
     ],
     [
      50,
      1,
      3
     ],
     [
      51,
      1,
      7
     ],
     [
      52,
      252,
      10
     ],
     [
      304,
      2,
      7
     ],
     [
      306,
      1,
      5
     ],
     [
      307,
      2,
      3
     ]
    ],
    "52": [
     [
      29,
      1,
      6
     ],
     [
      30,
      7,
      10
     ],
     [
      37,
      1,
      7
     ],
     [
      38,
      1,
      6
     ],
     [
      39,
      6,
      10
     ],
     [
      45,
      1,
      7
     ],
     [
      46,
      1,
      6
     ],
     [
      47,
      1,
      7
     ],
     [
      48,
      1,
      6
     ],
     [
      49,
      1,
      2
     ],
     [
      53,
      1,
      3
     ],
     [
      54,
      1,
      6
     ],
     [
      55,
      255,
      10
     ]
    ],
    "53": [
     [
      29,
      1,
      9
     ],
     [
      30,
      19,
      10
     ],
     [
      49,
      1,
      3
     ],
     [
      51,
      1,
      1
     ],
     [
      56,
      1,
      2
     ],
     [
      57,
      1,
      6
     ],
     [
      58,
      1,
      8
     ],
     [
      59,
      9,
      10
     ],
     [
      68,
      1,
      8
     ],
     [
      69,
      240,
      10
     ],
     [
      309,
      1,
      9
     ]
    ],
    "54": [
     [
      28,
      1,
      2
     ],
     [
      29,
      20,
      10
     ],
     [
      49,
      1,
      9
     ],
     [
      50,
      1,
      8
     ],
     [
      51,
      1,
      1
     ],
     [
      54,
      1,
      1
     ],
     [
      55,
      1,
      3
     ],
     [
      59,
      2,
      2
     ],
     [
      61,
      1,
      5
     ],
     [
      62,
      1,
      8
     ],
     [
      63,
      2,
      7
     ],
     [
      65,
      1,
      6
     ],
     [
      66,
      1,
      4
     ],
     [
      67,
      1,
      1
     ],
     [
      70,
      1,
      6
     ],
     [
      71,
      238,
      10
     ],
     [
      309,
      1,
      7
     ]
    ],
    "55": [
     [
      28,
      1,
      5
     ],
     [
      29,
      22,
      10
     ],
     [
      51,
      1,
      3
     ],
     [
      52,
      1,
      5
     ],
     [
      53,
      1,
      3
     ],
     [
      54,
      1,
      7
     ],
     [
      55,
      1,
      10
     ],
     [
      56,
      1,
      7
     ],
     [
      57,
      1,
      6
     ],
     [
      70,
      1,
      6
     ],
     [
      71,
      238,
      10
     ],
     [
      309,
      1,
      4
     ]
    ],
    "56": [
     [
      28,
      1,
      6
     ],
     [
      29,
      29,
      10
     ],
     [
      58,
      1,
      7
     ],
     [
      70,
      1,
      5
     ],
     [
      71,
      238,
      10
     ],
     [
      309,
      1,
      3
     ]
    ],
    "57": [
     [
      28,
      1,
      8
     ],
     [
      29,
      30,
      10
     ],
     [
      59,
      1,
      9
     ],
     [
      60,
      1,
      2
     ],
     [
      70,
      1,
      1
     ],
     [
      71,
      238,
      10
     ]
    ],
    "58": [
     [
      28,
      33,
      10
     ],
     [
      61,
      1,
      6
     ],
     [
      64,
      1,
      1
     ],
     [
      71,
      1,
      9
     ],
     [
      72,
      236,
      10
     ],
     [
      308,
      1,
      9
     ]
    ],
    "59": [
     [
      27,
      1,
      5
     ],
     [
      28,
      33,
      10
     ],
     [
      61,
      1,
      9
     ],
     [
      62,
      1,
      6
     ],
     [
      63,
      1,
      7
     ],
     [
      64,
      1,
      10
     ],
     [
      65,
      1,
      9
     ],
     [
      66,
      1,
      7
     ],
     [
      67,
      1,
      4
     ],
     [
      68,
      1,
      2
     ],
     [
      71,
      1,
      7
     ],
     [
      72,
      236,
      10
     ],
     [
      308,
      1,
      6
     ]
    ],
    "60": [
     [
      27,
      1,
      5
     ],
     [
      28,
      41,
      10
     ],
     [
      69,
      1,
      3
     ],
     [
      71,
      1,
      4
     ],
     [
      72,
      236,
      10
     ],
     [
      308,
      1,
      4
     ]
    ],
    "61": [
     [
      27,
      1,
      7
     ],
     [
      28,
      41,
      10
     ],
     [
      69,
      1,
      7
     ],
     [
      71,
      1,
      4
     ],
     [
      72,
      236,
      10
     ],
     [
      308,
      1,
      3
     ]
    ],
    "62": [
     [
      27,
      42,
      10
     ],
     [
      69,
      1,
      7
     ],
     [
      71,
      1,
      1
     ],
     [
      72,
      236,
      10
     ]
    ],
    "63": [
     [
      26,
      1,
      4
     ],
     [
      27,
      42,
      10
     ],
     [
      69,
      1,
      5
     ],
     [
      72,
      1,
      9
     ],
     [
      73,
      234,
      10
     ],
     [
      307,
      1,
      8
     ]
    ],
    "64": [
     [
      26,
      1,
      4
     ],
     [
      27,
      42,
      10
     ],
     [
      69,
      1,
      6
     ],
     [
      72,
      1,
      6
     ],
     [
      73,
      234,
      10
     ],
     [
      307,
      1,
      7
     ]
    ],
    "65": [
     [
      26,
      1,
      7
     ],
     [
      27,
      42,
      10
     ],
     [
      69,
      1,
      5
     ],
     [
      72,
      1,
      4
     ],
     [
      73,
      234,
      10
     ],
     [
      307,
      1,
      4
     ]
    ],
    "66": [
     [
      26,
      43,
      10
     ],
     [
      69,
      1,
      6
     ],
     [
      72,
      1,
      2
     ],
     [
      73,
      234,
      10
     ],
     [
      307,
      1,
      2
     ]
    ],
    "67": [
     [
      25,
      1,
      3
     ],
     [
      26,
      43,
      10
     ],
     [
      69,
      1,
      8
     ],
     [
      73,
      1,
      9
     ],
     [
      74,
      233,
      10
     ]
    ],
    "68": [
     [
      25,
      1,
      5
     ],
     [
      26,
      43,
      10
     ],
     [
      69,
      1,
      9
     ],
     [
      70,
      1,
      1
     ],
     [
      73,
      1,
      5
     ],
     [
      74,
      232,
      10
     ],
     [
      306,
      1,
      8
     ]
    ],
    "69": [
     [
      25,
      1,
      7
     ],
     [
      26,
      45,
      10
     ],
     [
      71,
      1,
      2
     ],
     [
      73,
      1,
      3
     ],
     [
      74,
      232,
      10
     ],
     [
      306,
      1,
      7
     ]
    ],
    "70": [
     [
      25,
      1,
      2
     ],
     [
      26,
      45,
      10
     ],
     [
      71,
      1,
      3
     ],
     [
      74,
      232,
      10
     ],
     [
      306,
      1,
      3
     ]
    ],
    "71": [
     [
      26,
      1,
      8
     ],
     [
      27,
      44,
      10
     ],
     [
      71,
      1,
      6
     ],
     [
      74,
      1,
      9
     ],
     [
      75,
      231,
      10
     ],
     [
      306,
      1,
      2
     ]
    ],
    "72": [
     [
      26,
      1,
      9
     ],
     [
      27,
      44,
      10
     ],
     [
      71,
      1,
      5
     ],
     [
      74,
      1,
      8
     ],
     [
      75,
      231,
      10
     ]
    ],
    "73": [
     [
      26,
      1,
      3
     ],
     [
      27,
      44,
      10
     ],
     [
      71,
      1,
      9
     ],
     [
      74,
      1,
      6
     ],
     [
      75,
      230,
      10
     ],
     [
      305,
      1,
      8
     ]
    ],
    "74": [
     [
      24,
      1,
      1
     ],
     [
      25,
      1,
      3
     ],
     [
      26,
      1,
      8
     ],
     [
      27,
      45,
      10
     ],
     [
      74,
      1,
      7
     ],
     [
      75,
      230,
      10
     ],
     [
      305,
      1,
      6
     ]
    ],
    "75": [
     [
      24,
      47,
      10
     ],
     [
      71,
      1,
      9
     ],
     [
      74,
      1,
      4
     ],
     [
      75,
      230,
      10
     ],
     [
      305,
      1,
      3
     ]
    ],
    "76": [
     [
      23,
      1,
      5
     ],
     [
      24,
      48,
      10
     ],
     [
      72,
      1,
      2
     ],
     [
      74,
      1,
      5
     ],
     [
      75,
      230,
      10
     ],
     [
      305,
      1,
      2
     ]
    ],
    "77": [
     [
      23,
      1,
      5
     ],
     [
      24,
      4,
      10
     ],
     [
      28,
      1,
      4
     ],
     [
      29,
      1,
      9
     ],
     [
      30,
      42,
      10
     ],
     [
      72,
      1,
      4
     ],
     [
      74,
      1,
      4
     ],
     [
      75,
      230,
      10
     ]
    ],
    "78": [
     [
      23,
      1,
      4
     ],
     [
      24,
      3,
      10
     ],
     [
      27,
      1,
      8
     ],
     [
      30,
      1,
      6
     ],
     [
      31,
      41,
      10
     ],
     [
      72,
      1,
      6
     ],
     [
      74,
      1,
      2
     ],
     [
      75,
      229,
      10
     ],
     [
      304,
      1,
      7
     ]
    ],
    "79": [
     [
      23,
      1,
      2
     ],
     [
      24,
      1,
      8
     ],
     [
      25,
      1,
      5
     ],
     [
      26,
      1,
      3
     ],
     [
      29,
      1,
      7
     ],
     [
      30,
      1,
      8
     ],
     [
      31,
      41,
      10
     ],
     [
      72,
      1,
      5
     ],
     [
      74,
      1,
      2
     ],
     [
      75,
      229,
      10
     ],
     [
      304,
      1,
      7
     ]
    ],
    "80": [
     [
      25,
      1,
      2
     ],
     [
      29,
      1,
      8
     ],
     [
      30,
      42,
      10
     ],
     [
      72,
      1,
      8
     ],
     [
      75,
      229,
      10
     ],
     [
      304,
      1,
      4
     ]
    ],
    "81": [
     [
      27,
      1,
      1
     ],
     [
      28,
      1,
      3
     ],
     [
      29,
      43,
      10
     ],
     [
      72,
      1,
      8
     ],
     [
      75,
      1,
      8
     ],
     [
      76,
      228,
      10
     ],
     [
      304,
      1,
      2
     ]
    ],
    "82": [
     [
      25,
      1,
      1
     ],
     [
      26,
      1,
      5
     ],
     [
      27,
      1,
      9
     ],
     [
      28,
      44,
      10
     ],
     [
      72,
      1,
      5
     ],
     [
      75,
      1,
      6
     ],
     [
      76,
      228,
      10
     ]
    ],
    "83": [
     [
      26,
      1,
      1
     ],
     [
      27,
      1,
      8
     ],
     [
      28,
      44,
      10
     ],
     [
      72,
      1,
      4
     ],
     [
      75,
      1,
      2
     ],
     [
      76,
      227,
      10
     ],
     [
      303,
      1,
      8
     ]
    ],
    "84": [
     [
      27,
      1,
      5
     ],
     [
      28,
      44,
      10
     ],
     [
      72,
      1,
      6
     ],
     [
      75,
      1,
      1
     ],
     [
      76,
      227,
      10
     ],
     [
      303,
      1,
      7
     ]
    ],
    "85": [
     [
      30,
      1,
      5
     ],
     [
      31,
      1,
      7
     ],
     [
      32,
      40,
      10
     ],
     [
      72,
      1,
      9
     ],
     [
      73,
      1,
      3
     ],
     [
      76,
      1,
      8
     ],
     [
      77,
      226,
      10
     ],
     [
      303,
      1,
      3
     ]
    ],
    "86": [
     [
      31,
      1,
      1
     ],
     [
      32,
      41,
      10
     ],
     [
      73,
      1,
      5
     ],
     [
      76,
      1,
      4
     ],
     [
      77,
      226,
      10
     ],
     [
      303,
      1,
      2
     ]
    ],
    "87": [
     [
      32,
      41,
      10
     ],
     [
      73,
      1,
      6
     ],
     [
      76,
      1,
      3
     ],
     [
      77,
      226,
      10
     ]
    ],
    "88": [
     [
      32,
      1,
      3
     ],
     [
      33,
      1,
      6
     ],
     [
      34,
      1,
      9
     ],
     [
      35,
      2,
      10
     ],
     [
      37,
      1,
      7
     ],
     [
      38,
      1,
      3
     ],
     [
      39,
      1,
      4
     ],
     [
      40,
      2,
      7
     ],
     [
      42,
      1,
      9
     ],
     [
      43,
      30,
      10
     ],
     [
      73,
      1,
      6
     ],
     [
      76,
      1,
      3
     ],
     [
      77,
      225,
      10
     ],
     [
      302,
      1,
      8
     ]
    ],
    "89": [
     [
      34,
      1,
      4
     ],
     [
      35,
      1,
      9
     ],
     [
      36,
      1,
      7
     ],
     [
      37,
      1,
      8
     ],
     [
      38,
      1,
      1
     ],
     [
      44,
      1,
      2
     ],
     [
      45,
      1,
      9
     ],
     [
      46,
      28,
      10
     ],
     [
      74,
      1,
      1
     ],
     [
      76,
      1,
      3
     ],
     [
      77,
      225,
      10
     ],
     [
      302,
      1,
      6
     ]
    ],
    "90": [
     [
      34,
      1,
      6
     ],
     [
      35,
      1,
      5
     ],
     [
      44,
      1,
      1
     ],
     [
      45,
      1,
      8
     ],
     [
      46,
      28,
      10
     ],
     [
      74,
      1,
      2
     ],
     [
      76,
      1,
      2
     ],
     [
      77,
      225,
      10
     ],
     [
      302,
      1,
      3
     ]
    ],
    "91": [
     [
      33,
      1,
      2
     ],
     [
      34,
      1,
      7
     ],
     [
      35,
      1,
      1
     ],
     [
      44,
      1,
      1
     ],
     [
      45,
      1,
      5
     ],
     [
      46,
      1,
      8
     ],
     [
      47,
      26,
      10
     ],
     [
      73,
      1,
      8
     ],
     [
      76,
      1,
      4
     ],
     [
      77,
      225,
      10
     ],
     [
      302,
      1,
      2
     ]
    ],
    "92": [
     [
      34,
      1,
      2
     ],
     [
      47,
      1,
      2
     ],
     [
      48,
      25,
      10
     ],
     [
      73,
      1,
      5
     ],
     [
      76,
      1,
      6
     ],
     [
      77,
      225,
      10
     ]
    ],
    "93": [
     [
      48,
      1,
      6
     ],
     [
      49,
      24,
      10
     ],
     [
      73,
      1,
      7
     ],
     [
      76,
      1,
      9
     ],
     [
      77,
      224,
      10
     ],
     [
      301,
      1,
      7
     ]
    ],
    "94": [
     [
      49,
      1,
      7
     ],
     [
      50,
      23,
      10
     ],
     [
      73,
      1,
      4
     ],
     [
      76,
      1,
      8
     ],
     [
      77,
      224,
      10
     ],
     [
      301,
      1,
      6
     ]
    ],
    "95": [
     [
      49,
      23,
      10
     ],
     [
      72,
      1,
      9
     ],
     [
      73,
      1,
      1
     ],
     [
      76,
      225,
      10
     ],
     [
      301,
      1,
      3
     ]
    ],
    "96": [
     [
      48,
      1,
      2
     ],
     [
      49,
      23,
      10
     ],
     [
      72,
      1,
      5
     ],
     [
      75,
      1,
      2
     ],
     [
      76,
      225,
      10
     ],
     [
      301,
      1,
      1
     ]
    ],
    "97": [
     [
      18,
      1,
      3
     ],
     [
      19,
      1,
      1
     ],
     [
      46,
      1,
      1
     ],
     [
      47,
      1,
      6
     ],
     [
      48,
      1,
      7
     ],
     [
      49,
      23,
      10
     ],
     [
      72,
      1,
      4
     ],
     [
      75,
      1,
      4
     ],
     [
      76,
      225,
      10
     ]
    ],
    "98": [
     [
      18,
      1,
      6
     ],
     [
      19,
      1,
      8
     ],
     [
      46,
      1,
      8
     ],
     [
      47,
      24,
      10
     ],
     [
      71,
      1,
      8
     ],
     [
      72,
      1,
      1
     ],
     [
      75,
      1,
      7
     ],
     [
      76,
      224,
      10
     ],
     [
      300,
      1,
      7
     ]
    ],
    "99": [
     [
      18,
      1,
      4
     ],
     [
      19,
      1,
      9
     ],
     [
      20,
      1,
      2
     ],
     [
      46,
      1,
      3
     ],
     [
      47,
      1,
      6
     ],
     [
      48,
      1,
      3
     ],
     [
      49,
      1,
      6
     ],
     [
      50,
      20,
      10
     ],
     [
      70,
      1,
      9
     ],
     [
      71,
      1,
      5
     ],
     [
      75,
      1,
      9
     ],
     [
      76,
      224,
      10
     ],
     [
      300,
      1,
      6
     ]
    ],
    "100": [
     [
      19,
      1,
      9
     ],
     [
      20,
      1,
      6
     ],
     [
      45,
      1,
      4
     ],
     [
      46,
      1,
      7
     ],
     [
      47,
      1,
      1
     ],
     [
      50,
      1,
      4
     ],
     [
      51,
      19,
      10
     ],
     [
      70,
      1,
      6
     ],
     [
      74,
      1,
      5
     ],
     [
      75,
      6,
      10
     ],
     [
      81,
      1,
      4
     ],
     [
      83,
      1,
      9
     ],
     [
      84,
      216,
      10
     ],
     [
      300,
      1,
      3
     ]
    ],
    "101": [
     [
      17,
      1,
      3
     ],
     [
      18,
      1,
      4
     ],
     [
      19,
      1,
      10
     ],
     [
      20,
      1,
      9
     ],
     [
      21,
      1,
      1
     ],
     [
      46,
      1,
      5
     ],
     [
      50,
      1,
      1
     ],
     [
      51,
      19,
      10
     ],
     [
      70,
      1,
      8
     ],
     [
      74,
      1,
      6
     ],
     [
      75,
      6,
      10
     ],
     [
      81,
      1,
      4
     ],
     [
      82,
      1,
      1
     ],
     [
      83,
      212,
      10
     ],
     [
      295,
      1,
      7
     ],
     [
      296,
      1,
      8
     ],
     [
      297,
      1,
      9
     ],
     [
      298,
      2,
      10
     ],
     [
      300,
      1,
      1
     ]
    ],
    "102": [
     [
      17,
      1,
      6
     ],
     [
      18,
      3,
      10
     ],
     [
      21,
      1,
      1
     ],
     [
      51,
      19,
      10
     ],
     [
      70,
      1,
      3
     ],
     [
      74,
      219,
      10
     ],
     [
      293,
      1,
      4
     ],
     [
      294,
      1,
      3
     ],
     [
      297,
      1,
      8
     ],
     [
      298,
      2,
      10
     ]
    ],
    "103": [
     [
      17,
      1,
      6
     ],
     [
      18,
      3,
      10
     ],
     [
      21,
      1,
      2
     ],
     [
      50,
      1,
      6
     ],
     [
      51,
      19,
      10
     ],
     [
      70,
      1,
      2
     ],
     [
      73,
      1,
      2
     ],
     [
      74,
      218,
      10
     ],
     [
      292,
      1,
      9
     ],
     [
      297,
      1,
      3
     ],
     [
      298,
      1,
      10
     ],
     [
      299,
      1,
      7
     ]
    ],
    "104": [
     [
      17,
      1,
      1
     ],
     [
      18,
      1,
      4
     ],
     [
      19,
      2,
      10
     ],
     [
      50,
      19,
      10
     ],
     [
      69,
      1,
      9
     ],
     [
      73,
      1,
      8
     ],
     [
      74,
      219,
      10
     ],
     [
      293,
      3,
      8
     ],
     [
      296,
      1,
      7
     ],
     [
      297,
      1,
      9
     ],
     [
      298,
      1,
      10
     ],
     [
      299,
      1,
      4
     ]
    ],
    "105": [
     [
      18,
      1,
      5
     ],
     [
      19,
      2,
      10
     ],
     [
      21,
      1,
      6
     ],
     [
      50,
      19,
      10
     ],
     [
      69,
      1,
      4
     ],
     [
      73,
      226,
      10
     ],
     [
      299,
      1,
      4
     ]
    ],
    "106": [
     [
      17,
      1,
      3
     ],
     [
      18,
      3,
      10
     ],
     [
      21,
      1,
      9
     ],
     [
      22,
      1,
      1
     ],
     [
      49,
      1,
      6
     ],
     [
      50,
      19,
      10
     ],
     [
      69,
      1,
      1
     ],
     [
      72,
      1,
      6
     ],
     [
      73,
      185,
      10
     ],
     [
      258,
      1,
      7
     ],
     [
      259,
      1,
      5
     ],
     [
      260,
      1,
      8
     ],
     [
      261,
      38,
      10
     ]
    ],
    "107": [
     [
      17,
      1,
      7
     ],
     [
      18,
      4,
      10
     ],
     [
      22,
      1,
      1
     ],
     [
      49,
      1,
      7
     ],
     [
      50,
      12,
      10
     ],
     [
      62,
      1,
      4
     ],
     [
      63,
      1,
      9
     ],
     [
      64,
      4,
      10
     ],
     [
      68,
      1,
      7
     ],
     [
      71,
      1,
      2
     ],
     [
      72,
      1,
      8
     ],
     [
      73,
      185,
      10
     ],
     [
      260,
      1,
      1
     ],
     [
      261,
      1,
      8
     ],
     [
      262,
      37,
      10
     ]
    ],
    "108": [
     [
      17,
      1,
      7
     ],
     [
      18,
      4,
      10
     ],
     [
      22,
      1,
      5
     ],
     [
      49,
      1,
      8
     ],
     [
      50,
      11,
      10
     ],
     [
      61,
      1,
      9
     ],
     [
      64,
      1,
      7
     ],
     [
      65,
      1,
      8
     ],
     [
      66,
      2,
      10
     ],
     [
      71,
      1,
      6
     ],
     [
      72,
      185,
      10
     ],
     [
      257,
      1,
      9
     ],
     [
      258,
      1,
      2
     ],
     [
      261,
      1,
      6
     ],
     [
      262,
      36,
      10
     ],
     [
      298,
      1,
      6
     ]
    ],
    "109": [
     [
      17,
      1,
      5
     ],
     [
      18,
      4,
      10
     ],
     [
      22,
      1,
      6
     ],
     [
      48,
      1,
      1
     ],
     [
      49,
      1,
      8
     ],
     [
      50,
      11,
      10
     ],
     [
      61,
      1,
      9
     ],
     [
      62,
      1,
      1
     ],
     [
      67,
      1,
      1
     ],
     [
      70,
      1,
      3
     ],
     [
      71,
      187,
      10
     ],
     [
      258,
      1,
      9
     ],
     [
      261,
      1,
      7
     ],
     [
      262,
      36,
      10
     ],
     [
      298,
      1,
      5
     ]
    ],
    "110": [
     [
      17,
      1,
      6
     ],
     [
      18,
      4,
      10
     ],
     [
      22,
      1,
      7
     ],
     [
      49,
      1,
      9
     ],
     [
      50,
      12,
      10
     ],
     [
      62,
      1,
      7
     ],
     [
      63,
      1,
      6
     ],
     [
      65,
      2,
      1
     ],
     [
      70,
      1,
      7
     ],
     [
      71,
      188,
      10
     ],
     [
      259,
      1,
      2
     ],
     [
      261,
      1,
      5
     ],
     [
      262,
      36,
      10
     ],
     [
      298,
      1,
      3
     ]
    ],
    "111": [
     [
      17,
      1,
      1
     ],
     [
      18,
      4,
      10
     ],
     [
      22,
      1,
      2
     ],
     [
      49,
      1,
      7
     ],
     [
      50,
      11,
      10
     ],
     [
      61,
      1,
      7
     ],
     [
      69,
      1,
      7
     ],
     [
      70,
      189,
      10
     ],
     [
      259,
      1,
      2
     ],
     [
      262,
      1,
      5
     ],
     [
      263,
      1,
      9
     ],
     [
      264,
      34,
      10
     ]
    ],
    "112": [
     [
      17,
      1,
      3
     ],
     [
      18,
      4,
      10
     ],
     [
      49,
      1,
      4
     ],
     [
      50,
      8,
      10
     ],
     [
      58,
      1,
      9
     ],
     [
      59,
      1,
      3
     ],
     [
      60,
      1,
      7
     ],
     [
      61,
      1,
      5
     ],
     [
      62,
      1,
      2
     ],
     [
      68,
      1,
      4
     ],
     [
      69,
      189,
      10
     ],
     [
      258,
      1,
      9
     ],
     [
      259,
      1,
      1
     ],
     [
      263,
      1,
      1
     ],
     [
      264,
      1,
      6
     ],
     [
      265,
      32,
      10
     ],
     [
      297,
      1,
      9
     ]
    ],
    "113": [
     [
      17,
      1,
      8
     ],
     [
      18,
      3,
      10
     ],
     [
      21,
      1,
      8
     ],
     [
      49,
      1,
      3
     ],
     [
      50,
      5,
      10
     ],
     [
      55,
      1,
      9
     ],
     [
      56,
      1,
      3
     ],
     [
      60,
      1,
      2
     ],
     [
      61,
      1,
      8
     ],
     [
      62,
      1,
      1
     ],
     [
      68,
      191,
      10
     ],
     [
      259,
      1,
      1
     ],
     [
      265,
      1,
      4
     ],
     [
      266,
      31,
      10
     ],
     [
      297,
      1,
      7
     ]
    ],
    "114": [
     [
      16,
      1,
      6
     ],
     [
      17,
      5,
      10
     ],
     [
      22,
      1,
      4
     ],
     [
      49,
      1,
      4
     ],
     [
      50,
      4,
      10
     ],
     [
      54,
      1,
      6
     ],
     [
      55,
      1,
      2
     ],
     [
      61,
      1,
      9
     ],
     [
      62,
      1,
      7
     ],
     [
      63,
      1,
      3
     ],
     [
      67,
      1,
      5
     ],
     [
      68,
      190,
      10
     ],
     [
      258,
      1,
      9
     ],
     [
      259,
      1,
      1
     ],
     [
      261,
      1,
      3
     ],
     [
      262,
      1,
      10
     ],
     [
      263,
      1,
      8
     ],
     [
      264,
      1,
      5
     ],
     [
      265,
      1,
      7
     ],
     [
      266,
      31,
      10
     ],
     [
      297,
      1,
      5
     ]
    ],
    "115": [
     [
      17,
      5,
      10
     ],
     [
      22,
      1,
      9
     ],
     [
      23,
      1,
      1
     ],
     [
      49,
      1,
      9
     ],
     [
      50,
      4,
      10
     ],
     [
      54,
      1,
      6
     ],
     [
      61,
      1,
      1
     ],
     [
      62,
      1,
      4
     ],
     [
      63,
      1,
      3
     ],
     [
      67,
      193,
      10
     ],
     [
      260,
      1,
      8
     ],
     [
      261,
      36,
      10
     ],
     [
      297,
      1,
      3
     ]
    ],
    "116": [
     [
      16,
      1,
      3
     ],
     [
      17,
      6,
      10
     ],
     [
      23,
      1,
      2
     ],
     [
      48,
      1,
      6
     ],
     [
      49,
      6,
      10
     ],
     [
      55,
      1,
      4
     ],
     [
      66,
      1,
      3
     ],
     [
      67,
      230,
      10
     ]
    ],
    "117": [
     [
      18,
      1,
      7
     ],
     [
      19,
      2,
      10
     ],
     [
      21,
      1,
      9
     ],
     [
      22,
      1,
      2
     ],
     [
      47,
      1,
      1
     ],
     [
      48,
      1,
      9
     ],
     [
      49,
      6,
      10
     ],
     [
      55,
      1,
      1
     ],
     [
      61,
      1,
      4
     ],
     [
      66,
      1,
      7
     ],
     [
      67,
      229,
      10
     ],
     [
      296,
      1,
      9
     ]
    ],
    "118": [
     [
      18,
      1,
      2
     ],
     [
      19,
      2,
      10
     ],
     [
      21,
      1,
      8
     ],
     [
      22,
      1,
      2
     ],
     [
      48,
      6,
      10
     ],
     [
      54,
      1,
      8
     ],
     [
      55,
      1,
      1
     ],
     [
      60,
      1,
      2
     ],
     [
      61,
      1,
      3
     ],
     [
      65,
      1,
      4
     ],
     [
      66,
      230,
      10
     ],
     [
      296,
      1,
      8
     ]
    ],
    "119": [
     [
      18,
      1,
      6
     ],
     [
      19,
      4,
      10
     ],
     [
      23,
      1,
      1
     ],
     [
      47,
      1,
      1
     ],
     [
      48,
      1,
      9
     ],
     [
      49,
      1,
      8
     ],
     [
      50,
      1,
      7
     ],
     [
      51,
      1,
      9
     ],
     [
      52,
      1,
      10
     ],
     [
      53,
      1,
      7
     ],
     [
      54,
      1,
      2
     ],
     [
      60,
      2,
      1
     ],
     [
      65,
      1,
      9
     ],
     [
      66,
      230,
      10
     ],
     [
      296,
      1,
      8
     ]
    ],
    "120": [
     [
      18,
      1,
      4
     ],
     [
      19,
      4,
      10
     ],
     [
      51,
      2,
      9
     ],
     [
      64,
      1,
      1
     ],
     [
      65,
      231,
      10
     ],
     [
      296,
      1,
      7
     ]
    ],
    "121": [
     [
      19,
      1,
      4
     ],
     [
      20,
      1,
      1
     ],
     [
      22,
      1,
      1
     ],
     [
      46,
      1,
      5
     ],
     [
      47,
      1,
      7
     ],
     [
      48,
      1,
      8
     ],
     [
      49,
      1,
      7
     ],
     [
      50,
      2,
      8
     ],
     [
      52,
      1,
      1
     ],
     [
      64,
      1,
      6
     ],
     [
      65,
      231,
      10
     ],
     [
      296,
      1,
      4
     ]
    ],
    "122": [
     [
      20,
      1,
      2
     ],
     [
      21,
      1,
      5
     ],
     [
      22,
      1,
      6
     ],
     [
      23,
      1,
      9
     ],
     [
      24,
      1,
      5
     ],
     [
      46,
      5,
      10
     ],
     [
      51,
      1,
      3
     ],
     [
      58,
      1,
      4
     ],
     [
      59,
      1,
      5
     ],
     [
      63,
      1,
      3
     ],
     [
      64,
      232,
      10
     ],
     [
      296,
      1,
      2
     ]
    ],
    "123": [
     [
      21,
      1,
      8
     ],
     [
      22,
      3,
      10
     ],
     [
      25,
      1,
      9
     ],
     [
      45,
      1,
      3
     ],
     [
      46,
      3,
      10
     ],
     [
      49,
      1,
      6
     ],
     [
      50,
      1,
      1
     ],
     [
      57,
      1,
      3
     ],
     [
      58,
      1,
      10
     ],
     [
      59,
      1,
      8
     ],
     [
      63,
      1,
      9
     ],
     [
      64,
      232,
      10
     ]
    ],
    "124": [
     [
      21,
      1,
      7
     ],
     [
      22,
      4,
      10
     ],
     [
      26,
      1,
      8
     ],
     [
      27,
      1,
      1
     ],
     [
      44,
      1,
      3
     ],
     [
      45,
      3,
      10
     ],
     [
      48,
      1,
      7
     ],
     [
      56,
      1,
      5
     ],
     [
      57,
      2,
      10
     ],
     [
      59,
      1,
      4
     ],
     [
      62,
      1,
      3
     ],
     [
      63,
      232,
      10
     ],
     [
      295,
      1,
      8
     ]
    ],
    "125": [
     [
      17,
      1,
      4
     ],
     [
      20,
      1,
      2
     ],
     [
      21,
      6,
      10
     ],
     [
      27,
      1,
      9
     ],
     [
      28,
      1,
      5
     ],
     [
      33,
      1,
      1
     ],
     [
      35,
      1,
      1
     ],
     [
      36,
      1,
      3
     ],
     [
      44,
      1,
      4
     ],
     [
      45,
      3,
      10
     ],
     [
      48,
      1,
      5
     ],
     [
      53,
      1,
      1
     ],
     [
      54,
      1,
      3
     ],
     [
      55,
      1,
      7
     ],
     [
      56,
      2,
      10
     ],
     [
      58,
      1,
      7
     ],
     [
      61,
      1,
      1
     ],
     [
      62,
      233,
      10
     ],
     [
      295,
      1,
      6
     ]
    ],
    "126": [
     [
      21,
      1,
      6
     ],
     [
      22,
      5,
      10
     ],
     [
      27,
      1,
      4
     ],
     [
      32,
      1,
      2
     ],
     [
      33,
      1,
      6
     ],
     [
      42,
      1,
      2
     ],
     [
      43,
      1,
      6
     ],
     [
      44,
      5,
      10
     ],
     [
      49,
      1,
      7
     ],
     [
      50,
      1,
      4
     ],
     [
      51,
      1,
      3
     ],
     [
      52,
      1,
      6
     ],
     [
      53,
      4,
      10
     ],
     [
      57,
      1,
      9
     ],
     [
      61,
      1,
      5
     ],
     [
      62,
      233,
      10
     ],
     [
      295,
      1,
      3
     ]
    ],
    "127": [
     [
      21,
      1,
      4
     ],
     [
      22,
      4,
      10
     ],
     [
      26,
      1,
      7
     ],
     [
      42,
      1,
      7
     ],
     [
      43,
      13,
      10
     ],
     [
      56,
      1,
      9
     ],
     [
      57,
      1,
      1
     ],
     [
      60,
      1,
      3
     ],
     [
      61,
      234,
      10
     ],
     [
      295,
      1,
      2
     ]
    ],
    "128": [
     [
      21,
      1,
      9
     ],
     [
      22,
      4,
      10
     ],
     [
      26,
      1,
      8
     ],
     [
      27,
      1,
      1
     ],
     [
      40,
      1,
      1
     ],
     [
      41,
      1,
      6
     ],
     [
      42,
      12,
      10
     ],
     [
      54,
      1,
      8
     ],
     [
      55,
      1,
      2
     ],
     [
      60,
      235,
      10
     ]
    ],
    "129": [
     [
      19,
      1,
      1
     ],
     [
      20,
      1,
      8
     ],
     [
      21,
      7,
      10
     ],
     [
      28,
      1,
      9
     ],
     [
      29,
      1,
      3
     ],
     [
      30,
      1,
      2
     ],
     [
      31,
      1,
      1
     ],
     [
      38,
      1,
      3
     ],
     [
      39,
      1,
      7
     ],
     [
      40,
      14,
      10
     ],
     [
      54,
      1,
      5
     ],
     [
      59,
      1,
      3
     ],
     [
      60,
      234,
      10
     ],
     [
      294,
      1,
      7
     ]
    ],
    "130": [
     [
      18,
      1,
      6
     ],
     [
      19,
      15,
      10
     ],
     [
      34,
      1,
      9
     ],
     [
      35,
      2,
      8
     ],
     [
      37,
      1,
      9
     ],
     [
      38,
      13,
      10
     ],
     [
      51,
      2,
      7
     ],
     [
      53,
      1,
      8
     ],
     [
      58,
      1,
      1
     ],
     [
      59,
      1,
      8
     ],
     [
      60,
      234,
      10
     ],
     [
      294,
      1,
      7
     ]
    ],
    "131": [
     [
      10,
      1,
      1
     ],
     [
      11,
      1,
      2
     ],
     [
      12,
      1,
      3
     ],
     [
      13,
      1,
      4
     ],
     [
      14,
      2,
      2
     ],
     [
      16,
      1,
      5
     ],
     [
      17,
      1,
      8
     ],
     [
      18,
      30,
      10
     ],
     [
      48,
      1,
      8
     ],
     [
      49,
      1,
      5
     ],
     [
      50,
      1,
      3
     ],
     [
      58,
      1,
      4
     ],
     [
      59,
      235,
      10
     ],
     [
      294,
      1,
      4
     ]
    ],
    "132": [
     [
      10,
      1,
      4
     ],
     [
      11,
      1,
      8
     ],
     [
      12,
      1,
      10
     ],
     [
      13,
      1,
      9
     ],
     [
      14,
      1,
      7
     ],
     [
      15,
      1,
      1
     ],
     [
      17,
      1,
      9
     ],
     [
      18,
      30,
      10
     ],
     [
      48,
      1,
      4
     ],
     [
      58,
      1,
      9
     ],
     [
      59,
      235,
      10
     ],
     [
      294,
      1,
      2
     ]
    ],
    "133": [
     [
      18,
      1,
      9
     ],
     [
      19,
      29,
      10
     ],
     [
      48,
      1,
      2
     ],
     [
      57,
      1,
      6
     ],
     [
      58,
      236,
      10
     ]
    ],
    "134": [
     [
      13,
      2,
      1
     ],
     [
      16,
      1,
      7
     ],
     [
      17,
      31,
      10
     ],
     [
      48,
      1,
      5
     ],
     [
      56,
      1,
      2
     ],
     [
      57,
      236,
      10
     ],
     [
      293,
      1,
      7
     ]
    ],
    "135": [
     [
      13,
      1,
      2
     ],
     [
      14,
      2,
      8
     ],
     [
      16,
      31,
      10
     ],
     [
      47,
      1,
      8
     ],
     [
      48,
      1,
      2
     ],
     [
      49,
      1,
      4
     ],
     [
      50,
      1,
      2
     ],
     [
      56,
      1,
      6
     ],
     [
      57,
      236,
      10
     ],
     [
      293,
      1,
      7
     ]
    ],
    "136": [
     [
      9,
      1,
      1
     ],
     [
      14,
      1,
      4
     ],
     [
      15,
      32,
      10
     ],
     [
      47,
      1,
      4
     ],
     [
      55,
      1,
      5
     ],
     [
      56,
      237,
      10
     ],
     [
      293,
      1,
      3
     ]
    ],
    "137": [
     [
      9,
      1,
      8
     ],
     [
      10,
      2,
      6
     ],
     [
      12,
      1,
      9
     ],
     [
      13,
      1,
      7
     ],
     [
      14,
      33,
      10
     ],
     [
      47,
      1,
      1
     ],
     [
      54,
      1,
      2
     ],
     [
      55,
      238,
      10
     ],
     [
      293,
      1,
      2
     ]
    ],
    "138": [
     [
      9,
      31,
      10
     ],
     [
      40,
      1,
      9
     ],
     [
      41,
      2,
      5
     ],
     [
      43,
      1,
      8
     ],
     [
      44,
      3,
      10
     ],
     [
      47,
      1,
      1
     ],
     [
      53,
      1,
      1
     ],
     [
      54,
      1,
      8
     ],
     [
      55,
      238,
      10
     ]
    ],
    "139": [
     [
      8,
      1,
      4
     ],
     [
      9,
      30,
      10
     ],
     [
      39,
      1,
      6
     ],
     [
      40,
      1,
      1
     ],
     [
      43,
      1,
      4
     ],
     [
      44,
      3,
      10
     ],
     [
      53,
      1,
      3
     ],
     [
      54,
      238,
      10
     ],
     [
      292,
      1,
      8
     ]
    ],
    "140": [
     [
      8,
      1,
      7
     ],
     [
      9,
      28,
      10
     ],
     [
      37,
      1,
      8
     ],
     [
      38,
      1,
      2
     ],
     [
      43,
      1,
      5
     ],
     [
      44,
      1,
      10
     ],
     [
      45,
      1,
      4
     ],
     [
      46,
      1,
      3
     ],
     [
      53,
      239,
      10
     ],
     [
      292,
      1,
      6
     ]
    ],
    "141": [
     [
      8,
      1,
      8
     ],
     [
      9,
      27,
      10
     ],
     [
      36,
      1,
      6
     ],
     [
      37,
      1,
      1
     ],
     [
      43,
      1,
      9
     ],
     [
      44,
      1,
      10
     ],
     [
      45,
      1,
      8
     ],
     [
      46,
      1,
      3
     ],
     [
      52,
      1,
      7
     ],
     [
      53,
      239,
      10
     ],
     [
      292,
      1,
      3
     ]
    ],
    "142": [
     [
      8,
      27,
      10
     ],
     [
      35,
      1,
      7
     ],
     [
      42,
      1,
      2
     ],
     [
      43,
      3,
      10
     ],
     [
      46,
      1,
      3
     ],
     [
      51,
      1,
      2
     ],
     [
      52,
      240,
      10
     ],
     [
      292,
      1,
      2
     ]
    ],
    "143": [
     [
      7,
      1,
      4
     ],
     [
      8,
      27,
      10
     ],
     [
      35,
      1,
      1
     ],
     [
      42,
      1,
      1
     ],
     [
      43,
      3,
      10
     ],
     [
      46,
      1,
      1
     ],
     [
      51,
      1,
      9
     ],
     [
      52,
      240,
      10
     ]
    ],
    "144": [
     [
      7,
      1,
      2
     ],
     [
      8,
      1,
      3
     ],
     [
      9,
      1,
      5
     ],
     [
      10,
      2,
      7
     ],
     [
      12,
      22,
      10
     ],
     [
      34,
      1,
      6
     ],
     [
      42,
      1,
      6
     ],
     [
      43,
      2,
      10
     ],
     [
      45,
      1,
      9
     ],
     [
      50,
      1,
      4
     ],
     [
      51,
      240,
      10
     ],
     [
      291,
      1,
      7
     ]
    ],
    "145": [
     [
      14,
      1,
      3
     ],
     [
      15,
      2,
      8
     ],
     [
      17,
      17,
      10
     ],
     [
      34,
      1,
      5
     ],
     [
      41,
      1,
      1
     ],
     [
      42,
      4,
      10
     ],
     [
      46,
      1,
      4
     ],
     [
      50,
      1,
      8
     ],
     [
      51,
      240,
      10
     ],
     [
      291,
      1,
      6
     ]
    ],
    "146": [
     [
      16,
      1,
      3
     ],
     [
      17,
      17,
      10
     ],
     [
      34,
      1,
      7
     ],
     [
      41,
      1,
      9
     ],
     [
      42,
      4,
      10
     ],
     [
      46,
      1,
      4
     ],
     [
      49,
      1,
      4
     ],
     [
      50,
      241,
      10
     ],
     [
      291,
      1,
      4
     ]
    ],
    "147": [
     [
      16,
      1,
      4
     ],
     [
      17,
      10,
      10
     ],
     [
      27,
      1,
      8
     ],
     [
      28,
      2,
      6
     ],
     [
      30,
      1,
      7
     ],
     [
      31,
      1,
      8
     ],
     [
      32,
      2,
      10
     ],
     [
      34,
      1,
      6
     ],
     [
      40,
      1,
      4
     ],
     [
      41,
      4,
      10
     ],
     [
      45,
      1,
      9
     ],
     [
      49,
      1,
      9
     ],
     [
      50,
      241,
      10
     ],
     [
      291,
      1,
      1
     ]
    ],
    "148": [
     [
      16,
      1,
      8
     ],
     [
      17,
      6,
      10
     ],
     [
      23,
      1,
      8
     ],
     [
      24,
      1,
      5
     ],
     [
      25,
      2,
      2
     ],
     [
      31,
      1,
      6
     ],
     [
      32,
      2,
      10
     ],
     [
      34,
      1,
      1
     ],
     [
      40,
      1,
      4
     ],
     [
      41,
      4,
      10
     ],
     [
      45,
      1,
      6
     ],
     [
      48,
      1,
      4
     ],
     [
      49,
      242,
      10
     ]
    ],
    "149": [
     [
      15,
      1,
      3
     ],
     [
      16,
      4,
      10
     ],
     [
      20,
      1,
      4
     ],
     [
      21,
      1,
      2
     ],
     [
      31,
      1,
      8
     ],
     [
      32,
      1,
      10
     ],
     [
      33,
      1,
      7
     ],
     [
      39,
      1,
      6
     ],
     [
      40,
      1,
      9
     ],
     [
      41,
      4,
      10
     ],
     [
      45,
      1,
      4
     ],
     [
      48,
      1,
      7
     ],
     [
      49,
      241,
      10
     ],
     [
      290,
      1,
      7
     ]
    ],
    "150": [
     [
      15,
      1,
      8
     ],
     [
      16,
      3,
      10
     ],
     [
      19,
      1,
      1
     ],
     [
      28,
      1,
      2
     ],
     [
      29,
      1,
      7
     ],
     [
      30,
      2,
      10
     ],
     [
      32,
      1,
      5
     ],
     [
      33,
      1,
      1
     ],
     [
      38,
      1,
      1
     ],
     [
      39,
      1,
      2
     ],
     [
      40,
      5,
      10
     ],
     [
      45,
      1,
      2
     ],
     [
      47,
      1,
      3
     ],
     [
      48,
      242,
      10
     ],
     [
      290,
      1,
      7
     ]
    ],
    "151": [
     [
      15,
      3,
      10
     ],
     [
      18,
      1,
      6
     ],
     [
      27,
      1,
      1
     ],
     [
      28,
      1,
      8
     ],
     [
      29,
      2,
      10
     ],
     [
      31,
      1,
      3
     ],
     [
      39,
      1,
      1
     ],
     [
      40,
      4,
      10
     ],
     [
      44,
      1,
      8
     ],
     [
      47,
      1,
      7
     ],
     [
      48,
      242,
      10
     ],
     [
      290,
      1,
      3
     ]
    ],
    "152": [
     [
      14,
      1,
      7
     ],
     [
      15,
      1,
      10
     ],
     [
      16,
      1,
      9
     ],
     [
      17,
      1,
      3
     ],
     [
      27,
      1,
      2
     ],
     [
      28,
      2,
      10
     ],
     [
      30,
      1,
      4
     ],
     [
      39,
      1,
      6
     ],
     [
      40,
      4,
      10
     ],
     [
      44,
      1,
      4
     ],
     [
      47,
      243,
      10
     ],
     [
      290,
      1,
      1
     ]
    ],
    "153": [
     [
      11,
      1,
      3
     ],
     [
      12,
      1,
      7
     ],
     [
      13,
      3,
      10
     ],
     [
      16,
      1,
      6
     ],
     [
      28,
      2,
      10
     ],
     [
      38,
      1,
      4
     ],
     [
      39,
      3,
      10
     ],
     [
      42,
      1,
      6
     ],
     [
      46,
      1,
      7
     ],
     [
      47,
      243,
      10
     ]
    ],
    "154": [
     [
      10,
      1,
      5
     ],
     [
      11,
      3,
      10
     ],
     [
      14,
      2,
      8
     ],
     [
      16,
      1,
      2
     ],
     [
      28,
      1,
      10
     ],
     [
      29,
      1,
      7
     ],
     [
      37,
      1,
      5
     ],
     [
      38,
      1,
      7
     ],
     [
      39,
      2,
      10
     ],
     [
      41,
      1,
      8
     ],
     [
      46,
      243,
      10
     ],
     [
      289,
      1,
      7
     ]
    ],
    "155": [
     [
      10,
      1,
      8
     ],
     [
      11,
      2,
      10
     ],
     [
      13,
      1,
      2
     ],
     [
      27,
      1,
      3
     ],
     [
      28,
      1,
      9
     ],
     [
      29,
      1,
      6
     ],
     [
      36,
      1,
      5
     ],
     [
      37,
      3,
      10
     ],
     [
      45,
      1,
      4
     ],
     [
      46,
      243,
      10
     ],
     [
      289,
      1,
      4
     ]
    ],
    "156": [
     [
      9,
      1,
      6
     ],
     [
      10,
      1,
      10
     ],
     [
      11,
      1,
      8
     ],
     [
      12,
      1,
      4
     ],
     [
      27,
      1,
      3
     ],
     [
      36,
      1,
      2
     ],
     [
      37,
      1,
      9
     ],
     [
      38,
      1,
      10
     ],
     [
      39,
      1,
      5
     ],
     [
      44,
      1,
      1
     ],
     [
      45,
      1,
      7
     ],
     [
      46,
      243,
      10
     ],
     [
      289,
      1,
      3
     ]
    ],
    "157": [
     [
      8,
      1,
      1
     ],
     [
      9,
      2,
      9
     ],
     [
      11,
      1,
      2
     ],
     [
      37,
      1,
      7
     ],
     [
      38,
      1,
      9
     ],
     [
      44,
      1,
      3
     ],
     [
      45,
      244,
      10
     ],
     [
      289,
      1,
      1
     ]
    ],
    "158": [
     [
      7,
      1,
      3
     ],
     [
      8,
      1,
      8
     ],
     [
      9,
      1,
      10
     ],
     [
      10,
      1,
      4
     ],
     [
      36,
      1,
      2
     ],
     [
      37,
      1,
      4
     ],
     [
      38,
      1,
      3
     ],
     [
      44,
      1,
      6
     ],
     [
      45,
      244,
      10
     ]
    ],
    "159": [
     [
      3,
      1,
      2
     ],
     [
      4,
      1,
      3
     ],
     [
      5,
      4,
      10
     ],
     [
      9,
      1,
      1
     ],
     [
      43,
      1,
      2
     ],
     [
      44,
      244,
      10
     ],
     [
      288,
      1,
      6
     ]
    ],
    "160": [
     [
      3,
      1,
      4
     ],
     [
      4,
      1,
      8
     ],
     [
      5,
      1,
      3
     ],
     [
      43,
      1,
      4
     ],
     [
      44,
      244,
      10
     ],
     [
      288,
      1,
      5
     ]
    ],
    "161": [
     [
      3,
      1,
      3
     ],
     [
      4,
      1,
      2
     ],
     [
      34,
      1,
      7
     ],
     [
      35,
      1,
      10
     ],
     [
      43,
      1,
      8
     ],
     [
      44,
      244,
      10
     ],
     [
      288,
      1,
      3
     ]
    ],
    "162": [
     [
      33,
      1,
      4
     ],
     [
      34,
      1,
      10
     ],
     [
      35,
      1,
      9
     ],
     [
      42,
      1,
      3
     ],
     [
      43,
      245,
      10
     ]
    ],
    "163": [
     [
      33,
      1,
      6
     ],
     [
      34,
      2,
      10
     ],
     [
      36,
      1,
      4
     ],
     [
      42,
      1,
      4
     ],
     [
      43,
      244,
      10
     ],
     [
      287,
      1,
      9
     ]
    ],
    "164": [
     [
      32,
      1,
      1
     ],
     [
      33,
      1,
      8
     ],
     [
      34,
      2,
      10
     ],
     [
      42,
      1,
      9
     ],
     [
      43,
      244,
      10
     ],
     [
      287,
      1,
      7
     ]
    ],
    "165": [
     [
      32,
      1,
      4
     ],
     [
      33,
      3,
      10
     ],
     [
      36,
      1,
      2
     ],
     [
      37,
      1,
      3
     ],
     [
      38,
      1,
      1
     ],
     [
      41,
      1,
      3
     ],
     [
      42,
      245,
      10
     ],
     [
      287,
      1,
      5
     ]
    ],
    "166": [
     [
      31,
      1,
      2
     ],
     [
      32,
      6,
      10
     ],
     [
      38,
      1,
      6
     ],
     [
      41,
      1,
      6
     ],
     [
      42,
      245,
      10
     ],
     [
      287,
      1,
      3
     ]
    ],
    "167": [
     [
      31,
      1,
      8
     ],
     [
      32,
      6,
      10
     ],
     [
      41,
      1,
      8
     ],
     [
      42,
      245,
      10
     ]
    ],
    "168": [
     [
      30,
      1,
      3
     ],
     [
      31,
      6,
      10
     ],
     [
      37,
      1,
      6
     ],
     [
      41,
      245,
      10
     ],
     [
      286,
      1,
      9
     ]
    ],
    "169": [
     [
      31,
      5,
      10
     ],
     [
      36,
      1,
      4
     ],
     [
      40,
      1,
      5
     ],
     [
      41,
      245,
      10
     ],
     [
      286,
      1,
      7
     ]
    ],
    "170": [
     [
      31,
      5,
      10
     ],
     [
      36,
      1,
      7
     ],
     [
      40,
      1,
      9
     ],
     [
      41,
      245,
      10
     ],
     [
      286,
      1,
      3
     ]
    ],
    "171": [
     [
      30,
      1,
      2
     ],
     [
      31,
      5,
      10
     ],
     [
      36,
      1,
      8
     ],
     [
      39,
      1,
      1
     ],
     [
      40,
      246,
      10
     ],
     [
      286,
      1,
      3
     ]
    ],
    "172": [
     [
      24,
      1,
      4
     ],
     [
      25,
      1,
      5
     ],
     [
      26,
      1,
      2
     ],
     [
      30,
      1,
      1
     ],
     [
      31,
      5,
      10
     ],
     [
      36,
      1,
      5
     ],
     [
      39,
      1,
      3
     ],
     [
      40,
      246,
      10
     ]
    ],
    "173": [
     [
      23,
      1,
      3
     ],
     [
      24,
      1,
      2
     ],
     [
      26,
      1,
      1
     ],
     [
      30,
      1,
      4
     ],
     [
      31,
      4,
      10
     ],
     [
      35,
      1,
      9
     ],
     [
      36,
      1,
      4
     ],
     [
      39,
      1,
      6
     ],
     [
      40,
      245,
      10
     ],
     [
      285,
      1,
      9
     ]
    ],
    "174": [
     [
      26,
      1,
      6
     ],
     [
      30,
      1,
      4
     ],
     [
      31,
      2,
      10
     ],
     [
      33,
      1,
      8
     ],
     [
      34,
      1,
      9
     ],
     [
      35,
      1,
      2
     ],
     [
      39,
      1,
      9
     ],
     [
      40,
      245,
      10
     ],
     [
      285,
      1,
      6
     ]
    ],
    "175": [
     [
      25,
      1,
      1
     ],
     [
      26,
      1,
      9
     ],
     [
      27,
      1,
      4
     ],
     [
      28,
      2,
      5
     ],
     [
      30,
      2,
      10
     ],
     [
      32,
      1,
      6
     ],
     [
      39,
      246,
      10
     ],
     [
      285,
      1,
      4
     ]
    ],
    "176": [
     [
      22,
      1,
      3
     ],
     [
      23,
      2,
      7
     ],
     [
      25,
      1,
      8
     ],
     [
      26,
      6,
      10
     ],
     [
      32,
      1,
      2
     ],
     [
      38,
      1,
      3
     ],
     [
      39,
      246,
      10
     ],
     [
      285,
      1,
      3
     ]
    ],
    "177": [
     [
      21,
      1,
      8
     ],
     [
      22,
      9,
      10
     ],
     [
      31,
      1,
      9
     ],
     [
      38,
      1,
      4
     ],
     [
      39,
      246,
      10
     ]
    ],
    "178": [
     [
      21,
      10,
      10
     ],
     [
      31,
      1,
      4
     ],
     [
      38,
      1,
      8
     ],
     [
      39,
      245,
      10
     ],
     [
      284,
      1,
      8
     ]
    ],
    "179": [
     [
      27,
      4,
      10
     ],
     [
      37,
      1,
      3
     ],
     [
      38,
      246,
      10
     ],
     [
      284,
      1,
      7
     ]
    ],
    "180": [
     [
      37,
      1,
      7
     ],
     [
      38,
      246,
      10
     ],
     [
      284,
      1,
      4
     ]
    ],
    "181": [
     [
      40,
      244,
      10
     ],
     [
      284,
      1,
      2
     ]
    ],
    "182": [
     [
      47,
      237,
      10
     ]
    ],
    "183": [
     [
      53,
      230,
      10
     ],
     [
      283,
      1,
      8
     ]
    ],
    "184": [
     [
      60,
      223,
      10
     ],
     [
      283,
      1,
      6
     ]
    ],
    "185": [
     [
      67,
      216,
      10
     ],
     [
      283,
      1,
      3
     ]
    ],
    "186": [
     [
      74,
      209,
      10
     ],
     [
      283,
      1,
      2
     ]
    ],
    "187": [
     [
      80,
      203,
      10
     ]
    ],
    "188": [
     [
      87,
      195,
      10
     ],
     [
      282,
      1,
      8
     ]
    ],
    "189": [
     [
      94,
      188,
      10
     ],
     [
      282,
      1,
      6
     ]
    ],
    "190": [
     [
      101,
      181,
      10
     ],
     [
      282,
      1,
      4
     ]
    ],
    "191": [
     [
      108,
      174,
      10
     ],
     [
      282,
      1,
      1
     ]
    ],
    "192": [
     [
      114,
      168,
      10
     ]
    ],
    "193": [
     [
      121,
      160,
      10
     ],
     [
      281,
      1,
      7
     ]
    ],
    "194": [
     [
      128,
      153,
      10
     ],
     [
      281,
      1,
      6
     ]
    ],
    "195": [
     [
      136,
      145,
      10
     ],
     [
      281,
      1,
      3
     ]
    ],
    "196": [
     [
      143,
      138,
      10
     ],
     [
      281,
      1,
      1
     ]
    ],
    "197": [
     [
      150,
      131,
      10
     ]
    ],
    "198": [
     [
      157,
      123,
      10
     ],
     [
      280,
      1,
      7
     ]
    ],
    "199": [
     [
      164,
      116,
      10
     ],
     [
      280,
      1,
      5
     ]
    ],
    "200": [
     [
      171,
      109,
      10
     ],
     [
      280,
      1,
      3
     ]
    ],
    "201": [
     [
      178,
      102,
      10
     ],
     [
      280,
      1,
      1
     ]
    ],
    "202": [
     [
      185,
      95,
      10
     ]
    ],
    "203": [
     [
      193,
      86,
      10
     ],
     [
      279,
      1,
      7
     ]
    ],
    "204": [
     [
      200,
      79,
      10
     ],
     [
      279,
      1,
      5
     ]
    ],
    "205": [
     [
      207,
      72,
      10
     ],
     [
      279,
      1,
      4
     ]
    ],
    "206": [
     [
      215,
      64,
      10
     ]
    ],
    "207": [
     [
      222,
      57,
      10
     ]
    ],
    "208": [
     [
      229,
      49,
      10
     ],
     [
      278,
      1,
      6
     ]
    ],
    "209": [
     [
      237,
      41,
      10
     ],
     [
      278,
      1,
      6
     ]
    ],
    "210": [
     [
      244,
      34,
      10
     ],
     [
      278,
      1,
      3
     ]
    ],
    "211": [
     [
      252,
      26,
      10
     ]
    ],
    "212": [
     [
      259,
      18,
      10
     ],
     [
      277,
      1,
      9
     ]
    ],
    "213": [
     [
      267,
      10,
      10
     ],
     [
      277,
      1,
      7
     ]
    ],
    "214": [
     [
      275,
      2,
      10
     ],
     [
      277,
      1,
      5
     ]
    ]
   }
  },
  "clutter_headroom": 39.21,
  "clutter_at_floor": 0.447,
  "clutter_verdict": "vessels present",
  "detection_rate": 0.5455,
  "n_detections": 16,
  "n_reports": 11,
  "n_reports_with_fix": 11,
  "n_matched": 6,
  "n_reports_unsearched": 4,
  "n_reports_marginal": 0,
  "unsearched_by_length": {
   "<25 m": 4,
   "25-50 m": 0,
   "50-100 m": 0,
   "100-200 m": 0,
   ">200 m": 0,
   "unknown": 0
  },
  "k_sigma_match": 3.0,
  "gate_min_snr": 15.0,
  "gate_min_pixels": 6,
  "n_detections_before_gate": 132,
  "ais_window_s": 1800.0,
  "calibration": {
   "detectable_length_m": 25.0,
   "max_chance_match": 0.05,
   "density_per_km2": 0.00036,
   "max_scorable_radius_m": 6705,
   "n_unscorable": 0,
   "n_unscorable_matched": 0,
   "expected_chance_matches": 0.01,
   "strata": {
    ">=25 m": {
     "found": 5,
     "scored": 6,
     "rate": 0.8333,
     "ci95": [
      0.4365,
      0.9699
     ]
    },
    "<25 m": {
     "found": 0,
     "scored": 4,
     "rate": 0.0,
     "ci95": [
      0.0,
      0.4899
     ]
    },
    "unknown length": {
     "found": 1,
     "scored": 1,
     "rate": 1.0,
     "ci95": [
      0.2065,
      1.0
     ]
    },
    "all scored": {
     "found": 6,
     "scored": 11,
     "rate": 0.5455,
     "ci95": [
      0.2801,
      0.7873
     ]
    }
   },
   "curve_edges_m": [
    0.0,
    15.0,
    25.0,
    50.0,
    100.0
   ],
   "curve": {
    "0-15 m": {
     "found": 0,
     "scored": 3,
     "rate": 0.0,
     "ci95": [
      0.0,
      0.5615
     ]
    },
    "15-25 m": {
     "found": 0,
     "scored": 1,
     "rate": 0.0,
     "ci95": [
      0.0,
      0.7935
     ]
    },
    "25-50 m": {
     "found": 0,
     "scored": 0,
     "rate": null,
     "ci95": [
      null,
      null
     ]
    },
    "50-100 m": {
     "found": 0,
     "scored": 0,
     "rate": null,
     "ci95": [
      null,
      null
     ]
    },
    ">100 m": {
     "found": 5,
     "scored": 6,
     "rate": 0.8333,
     "ci95": [
      0.4365,
      0.9699
     ]
    },
    "unknown": {
     "found": 1,
     "scored": 1,
     "rate": 1.0,
     "ci95": [
      0.2065,
      1.0
     ]
    }
   }
  }
 },
 "features": [
  {
   "type": "Feature",
   "geometry": {
    "type": "Point",
    "coordinates": [
     -74.98228017469566,
     36.06497092076194
    ]
   },
   "properties": {
    "kind": "unmatched",
    "domain": "sea",
    "t_start": "2024-04-10T22:58:12+00:00",
    "t_end": "2024-04-10T22:58:12+00:00",
    "duration_s": 0.0,
    "confidence": 0.5181818181818181,
    "platform_ids": [],
    "evidence": {
     "sensor": "sentinel1-vv-cfar",
     "detector_confidence": 0.95,
     "detection_rate_this_pass": 0.545,
     "reports_considered": 11,
     "reports_with_a_fix": 11,
     "search_radius_m": 132.0,
     "snr": 46.64,
     "length_m_approx": 51.0,
     "pixels": 26,
     "scene": "S1A_IW_GRDH_1SDV_20240410T225812_20240410T225841_053378_067942_EBC4_COG.SAFE"
    }
   }
  },
  {
   "type": "Feature",
   "geometry": {
    "type": "Point",
    "coordinates": [
     -75.05420868939248,
     36.03891912088862
    ]
   },
   "properties": {
    "kind": "unmatched",
    "domain": "sea",
    "t_start": "2024-04-10T22:58:12+00:00",
    "t_end": "2024-04-10T22:58:12+00:00",
    "duration_s": 0.0,
    "confidence": 0.5181818181818181,
    "platform_ids": [],
    "evidence": {
     "sensor": "sentinel1-vv-cfar",
     "detector_confidence": 0.95,
     "detection_rate_this_pass": 0.545,
     "reports_considered": 11,
     "reports_with_a_fix": 11,
     "search_radius_m": 157.0,
     "snr": 25.83,
     "length_m_approx": 64.8,
     "pixels": 42,
     "scene": "S1A_IW_GRDH_1SDV_20240410T225812_20240410T225841_053378_067942_EBC4_COG.SAFE"
    }
   }
  },
  {
   "type": "Feature",
   "geometry": {
    "type": "Point",
    "coordinates": [
     -75.77533070002994,
     36.08527443848829
    ]
   },
   "properties": {
    "kind": "unmatched",
    "domain": "sea",
    "t_start": "2024-04-10T22:58:12+00:00",
    "t_end": "2024-04-10T22:58:12+00:00",
    "duration_s": 0.0,
    "confidence": 0.4472727272727272,
    "platform_ids": [],
    "evidence": {
     "sensor": "sentinel1-vv-cfar",
     "detector_confidence": 0.82,
     "detection_rate_this_pass": 0.545,
     "reports_considered": 11,
     "reports_with_a_fix": 11,
     "search_radius_m": 120.4,
     "snr": 16.4,
     "length_m_approx": 43.6,
     "pixels": 19,
     "scene": "S1A_IW_GRDH_1SDV_20240410T225812_20240410T225841_053378_067942_EBC4_COG.SAFE"
    }
   }
  },
  {
   "type": "Feature",
   "geometry": {
    "type": "Point",
    "coordinates": [
     -75.24944753426806,
     36.22666565633571
    ]
   },
   "properties": {
    "kind": "unmatched",
    "domain": "sea",
    "t_start": "2024-04-10T22:58:12+00:00",
    "t_end": "2024-04-10T22:58:12+00:00",
    "duration_s": 0.0,
    "confidence": 0.5181818181818181,
    "platform_ids": [],
    "evidence": {
     "sensor": "sentinel1-vv-cfar",
     "detector_confidence": 0.95,
     "detection_rate_this_pass": 0.545,
     "reports_considered": 11,
     "reports_with_a_fix": 11,
     "search_radius_m": 137.3,
     "snr": 60.64,
     "length_m_approx": 53.9,
     "pixels": 29,
     "scene": "S1A_IW_GRDH_1SDV_20240410T225812_20240410T225841_053378_067942_EBC4_COG.SAFE"
    }
   }
  },
  {
   "type": "Feature",
   "geometry": {
    "type": "Point",
    "coordinates": [
     -75.19624961957409,
     36.27056483933703
    ]
   },
   "properties": {
    "kind": "unmatched",
    "domain": "sea",
    "t_start": "2024-04-10T22:58:12+00:00",
    "t_end": "2024-04-10T22:58:12+00:00",
    "duration_s": 0.0,
    "confidence": 0.5181818181818181,
    "platform_ids": [],
    "evidence": {
     "sensor": "sentinel1-vv-cfar",
     "detector_confidence": 0.95,
     "detection_rate_this_pass": 0.545,
     "reports_considered": 11,
     "reports_with_a_fix": 11,
     "search_radius_m": 358.0,
     "snr": 176.93,
     "length_m_approx": 164.9,
     "pixels": 272,
     "scene": "S1A_IW_GRDH_1SDV_20240410T225812_20240410T225841_053378_067942_EBC4_COG.SAFE"
    }
   }
  },
  {
   "type": "Feature",
   "geometry": {
    "type": "Point",
    "coordinates": [
     -75.93499220520333,
     36.23347728392459
    ]
   },
   "properties": {
    "kind": "unmatched",
    "domain": "sea",
    "t_start": "2024-04-10T22:58:12+00:00",
    "t_end": "2024-04-10T22:58:12+00:00",
    "duration_s": 0.0,
    "confidence": 0.5181818181818181,
    "platform_ids": [],
    "evidence": {
     "sensor": "sentinel1-vv-cfar",
     "detector_confidence": 0.95,
     "detection_rate_this_pass": 0.545,
     "reports_considered": 11,
     "reports_with_a_fix": 11,
     "search_radius_m": 171.3,
     "snr": 50.42,
     "length_m_approx": 72.1,
     "pixels": 52,
     "scene": "S1A_IW_GRDH_1SDV_20240410T225812_20240410T225841_053378_067942_EBC4_COG.SAFE"
    }
   }
  },
  {
   "type": "Feature",
   "geometry": {
    "type": "Point",
    "coordinates": [
     -75.79481293386046,
     36.21451226160205
    ]
   },
   "properties": {
    "kind": "unmatched",
    "domain": "sea",
    "t_start": "2024-04-10T22:58:12+00:00",
    "t_end": "2024-04-10T22:58:12+00:00",
    "duration_s": 0.0,
    "confidence": 0.4330909090909091,
    "platform_ids": [],
    "evidence": {
     "sensor": "sentinel1-vv-cfar",
     "detector_confidence": 0.794,
     "detection_rate_this_pass": 0.545,
     "reports_considered": 11,
     "reports_with_a_fix": 11,
     "search_radius_m": 104.3,
     "snr": 15.87,
     "length_m_approx": 33.2,
     "pixels": 11,
     "scene": "S1A_IW_GRDH_1SDV_20240410T225812_20240410T225841_053378_067942_EBC4_COG.SAFE"
    }
   }
  },
  {
   "type": "Feature",
   "geometry": {
    "type": "Point",
    "coordinates": [
     -75.86949058575159,
     36.405105334614866
    ]
   },
   "properties": {
    "kind": "unmatched",
    "domain": "sea",
    "t_start": "2024-04-10T22:58:12+00:00",
    "t_end": "2024-04-10T22:58:12+00:00",
    "duration_s": 0.0,
    "confidence": 0.5181818181818181,
    "platform_ids": [],
    "evidence": {
     "sensor": "sentinel1-vv-cfar",
     "detector_confidence": 0.95,
     "detection_rate_this_pass": 0.545,
     "reports_considered": 11,
     "reports_with_a_fix": 11,
     "search_radius_m": 182.4,
     "snr": 30.24,
     "length_m_approx": 78.1,
     "pixels": 61,
     "scene": "S1A_IW_GRDH_1SDV_20240410T225812_20240410T225841_053378_067942_EBC4_COG.SAFE"
    }
   }
  },
  {
   "type": "Feature",
   "geometry": {
    "type": "Point",
    "coordinates": [
     -75.86938133175974,
     36.40592083357393
    ]
   },
   "properties": {
    "kind": "unmatched",
    "domain": "sea",
    "t_start": "2024-04-10T22:58:12+00:00",
    "t_end": "2024-04-10T22:58:12+00:00",
    "duration_s": 0.0,
    "confidence": 0.4270909090909091,
    "platform_ids": [],
    "evidence": {
     "sensor": "sentinel1-vv-cfar",
     "detector_confidence": 0.783,
     "detection_rate_this_pass": 0.545,
     "reports_considered": 11,
     "reports_with_a_fix": 11,
     "search_radius_m": 117.8,
     "snr": 15.65,
     "length_m_approx": 42.4,
     "pixels": 18,
     "scene": "S1A_IW_GRDH_1SDV_20240410T225812_20240410T225841_053378_067942_EBC4_COG.SAFE"
    }
   }
  },
  {
   "type": "Feature",
   "geometry": {
    "type": "Point",
    "coordinates": [
     -74.69455791313095,
     36.62341457195434
    ]
   },
   "properties": {
    "kind": "unmatched",
    "domain": "sea",
    "t_start": "2024-04-10T22:58:12+00:00",
    "t_end": "2024-04-10T22:58:12+00:00",
    "duration_s": 0.0,
    "confidence": 0.5007272727272727,
    "platform_ids": [],
    "evidence": {
     "sensor": "sentinel1-vv-cfar",
     "detector_confidence": 0.918,
     "detection_rate_this_pass": 0.545,
     "reports_considered": 11,
     "reports_with_a_fix": 11,
     "search_radius_m": 107.6,
     "snr": 18.36,
     "length_m_approx": 36.1,
     "pixels": 13,
     "scene": "S1A_IW_GRDH_1SDV_20240410T225812_20240410T225841_053378_067942_EBC4_COG.SAFE"
    }
   }
  }
 ]
}