{
 "type": "FeatureCollection",
 "properties": {
  "scene": "S1A_IW_GRDH_1SDV_20240528T225814_20240528T225843_054078_069350_0BF8_COG.SAFE",
  "acquired": "2024-05-28T22:58:14+00:00",
  "geolocation_rms_m": 2.6,
  "geolocation_holdout_m": 8.2,
  "geolocation_median_m": 9.4,
  "geolocation_p90_m": 9.7,
  "geolocation_worst_m": 14.8,
  "geolocation_uneven": false,
  "geolocation_convergence": 3.56,
  "geolocation_method": "geolocation grid (bilinear)",
  "geolocation_validation": "holdout at 2x spacing",
  "tiles": 130,
  "tiles_skipped": 0,
  "k_sigma": 6.0,
  "land_masked": true,
  "water_fraction": 0.281,
  "land_sea_contrast": 2.49,
  "coast_blind_m": 605.0,
  "searched_km2": 13244.8,
  "refused_km2": 0.0,
  "tiles_without_water": 69,
  "outside_aoi": 26,
  "aoi_sea": [
   -77.2,
   36.0,
   -71.0,
   39.6
  ],
  "footprint": [
   [
    -75.80785,
    34.68093
   ],
   [
    -75.57899,
    34.71687
   ],
   [
    -75.34994,
    34.7524
   ],
   [
    -75.1207,
    34.78752
   ],
   [
    -74.89126,
    34.82218
   ],
   [
    -74.66163,
    34.85642
   ],
   [
    -74.43181,
    34.89024
   ],
   [
    -74.2018,
    34.92359
   ],
   [
    -73.97161,
    34.95653
   ],
   [
    -73.74124,
    34.98905
   ],
   [
    -73.51068,
    35.02109
   ],
   [
    -73.27995,
    35.05272
   ],
   [
    -73.04905,
    35.08393
   ],
   [
    -73.07839,
    35.22941
   ],
   [
    -73.10776,
    35.37489
   ],
   [
    -73.13716,
    35.52036
   ],
   [
    -73.16658,
    35.66582
   ],
   [
    -73.19603,
    35.81129
   ],
   [
    -73.2255,
    35.95674
   ],
   [
    -73.25501,
    36.10219
   ],
   [
    -73.28455,
    36.24764
   ],
   [
    -73.31411,
    36.39308
   ],
   [
    -73.3437,
    36.53851
   ],
   [
    -73.37331,
    36.68394
   ],
   [
    -73.40296,
    36.82936
   ],
   [
    -73.63906,
    36.7985
   ],
   [
    -73.87499,
    36.76718
   ],
   [
    -74.11072,
    36.73542
   ],
   [
    -74.34625,
    36.70315
   ],
   [
    -74.58158,
    36.67044
   ],
   [
    -74.81672,
    36.63728
   ],
   [
    -75.05165,
    36.60362
   ],
   [
    -75.28638,
    36.56952
   ],
   [
    -75.5209,
    36.53497
   ],
   [
    -75.7552,
    36.49993
   ],
   [
    -75.98929,
    36.46446
   ],
   [
    -76.22314,
    36.42854
   ],
   [
    -76.18818,
    36.28295
   ],
   [
    -76.15332,
    36.13734
   ],
   [
    -76.11848,
    35.99173
   ],
   [
    -76.08372,
    35.84612
   ],
   [
    -76.04901,
    35.70049
   ],
   [
    -76.01435,
    35.55487
   ],
   [
    -75.9798,
    35.40923
   ],
   [
    -75.94529,
    35.26358
   ],
   [
    -75.91085,
    35.11793
   ],
   [
    -75.87646,
    34.97227
   ],
   [
    -75.84213,
    34.8266
   ]
  ],
  "searched_grid": {
   "cell_deg": 0.01,
   "lon0": -75.9,
   "lat0": 35.33,
   "levels": 10,
   "rows": {
    "19": [
     [
      85,
      1,
      2
     ]
    ],
    "20": [
     [
      50,
      1,
      4
     ],
     [
      51,
      1,
      3
     ],
     [
      83,
      1,
      4
     ],
     [
      84,
      1,
      9
     ],
     [
      85,
      1,
      10
     ],
     [
      86,
      1,
      8
     ],
     [
      87,
      1,
      1
     ],
     [
      94,
      1,
      2
     ]
    ],
    "21": [
     [
      50,
      1,
      4
     ],
     [
      51,
      1,
      7
     ],
     [
      77,
      1,
      7
     ],
     [
      78,
      1,
      9
     ],
     [
      79,
      1,
      8
     ],
     [
      80,
      2,
      9
     ],
     [
      82,
      5,
      10
     ],
     [
      87,
      2,
      7
     ],
     [
      89,
      1,
      4
     ],
     [
      90,
      2,
      7
     ],
     [
      92,
      1,
      6
     ],
     [
      94,
      1,
      1
     ],
     [
      95,
      1,
      10
     ],
     [
      96,
      1,
      4
     ]
    ],
    "22": [
     [
      51,
      1,
      2
     ],
     [
      77,
      1,
      2
     ],
     [
      78,
      1,
      10
     ],
     [
      79,
      2,
      9
     ],
     [
      81,
      1,
      10
     ],
     [
      82,
      1,
      6
     ],
     [
      83,
      1,
      8
     ],
     [
      84,
      9,
      10
     ],
     [
      93,
      1,
      5
     ],
     [
      94,
      1,
      6
     ],
     [
      95,
      2,
      10
     ],
     [
      97,
      1,
      2
     ]
    ],
    "23": [
     [
      72,
      1,
      1
     ],
     [
      78,
      1,
      1
     ],
     [
      83,
      1,
      3
     ],
     [
      84,
      4,
      10
     ],
     [
      88,
      1,
      5
     ],
     [
      89,
      1,
      1
     ],
     [
      90,
      1,
      2
     ],
     [
      91,
      2,
      1
     ],
     [
      94,
      1,
      3
     ],
     [
      95,
      2,
      4
     ],
     [
      99,
      1,
      9
     ],
     [
      100,
      1,
      8
     ],
     [
      101,
      1,
      7
     ],
     [
      102,
      1,
      5
     ],
     [
      103,
      1,
      4
     ]
    ],
    "24": [
     [
      69,
      1,
      1
     ],
     [
      70,
      1,
      5
     ],
     [
      71,
      1,
      7
     ],
     [
      72,
      1,
      9
     ],
     [
      73,
      1,
      8
     ],
     [
      83,
      3,
      8
     ],
     [
      86,
      1,
      3
     ],
     [
      100,
      4,
      10
     ],
     [
      104,
      1,
      8
     ],
     [
      105,
      1,
      3
     ]
    ],
    "25": [
     [
      70,
      1,
      6
     ],
     [
      71,
      2,
      10
     ],
     [
      73,
      1,
      9
     ],
     [
      74,
      2,
      7
     ],
     [
      76,
      1,
      9
     ],
     [
      77,
      1,
      6
     ],
     [
      78,
      2,
      3
     ],
     [
      80,
      1,
      2
     ],
     [
      81,
      1,
      3
     ],
     [
      82,
      1,
      6
     ],
     [
      83,
      1,
      9
     ],
     [
      95,
      1,
      3
     ],
     [
      96,
      1,
      1
     ],
     [
      97,
      1,
      9
     ],
     [
      98,
      1,
      7
     ],
     [
      99,
      1,
      8
     ],
     [
      100,
      3,
      10
     ],
     [
      103,
      1,
      7
     ],
     [
      104,
      1,
      2
     ],
     [
      105,
      1,
      4
     ],
     [
      109,
      1,
      6
     ]
    ],
    "26": [
     [
      71,
      1,
      1
     ],
     [
      72,
      1,
      4
     ],
     [
      73,
      1,
      3
     ],
     [
      74,
      1,
      6
     ],
     [
      75,
      3,
      10
     ],
     [
      78,
      1,
      8
     ],
     [
      79,
      2,
      6
     ],
     [
      81,
      1,
      4
     ],
     [
      82,
      1,
      2
     ],
     [
      92,
      1,
      1
     ],
     [
      93,
      1,
      5
     ],
     [
      96,
      1,
      2
     ],
     [
      97,
      1,
      8
     ],
     [
      98,
      5,
      10
     ],
     [
      103,
      1,
      5
     ]
    ],
    "27": [
     [
      75,
      2,
      1
     ],
     [
      77,
      1,
      2
     ],
     [
      97,
      1,
      8
     ],
     [
      98,
      5,
      10
     ],
     [
      103,
      1,
      6
     ]
    ],
    "28": [
     [
      96,
      1,
      3
     ],
     [
      97,
      1,
      7
     ],
     [
      98,
      1,
      5
     ],
     [
      99,
      1,
      9
     ],
     [
      100,
      1,
      6
     ],
     [
      101,
      1,
      4
     ],
     [
      102,
      1,
      7
     ],
     [
      103,
      1,
      3
     ]
    ],
    "29": [
     [
      99,
      1,
      2
     ],
     [
      103,
      1,
      4
     ],
     [
      104,
      1,
      3
     ],
     [
      113,
      1,
      1
     ],
     [
      115,
      1,
      2
     ],
     [
      117,
      2,
      3
     ]
    ],
    "30": [
     [
      103,
      1,
      5
     ],
     [
      104,
      1,
      10
     ],
     [
      105,
      1,
      8
     ],
     [
      106,
      1,
      4
     ],
     [
      107,
      1,
      3
     ],
     [
      108,
      1,
      1
     ],
     [
      109,
      1,
      3
     ],
     [
      110,
      1,
      1
     ],
     [
      111,
      1,
      8
     ],
     [
      112,
      1,
      7
     ],
     [
      113,
      5,
      10
     ],
     [
      118,
      1,
      9
     ],
     [
      119,
      1,
      2
     ]
    ],
    "31": [
     [
      101,
      2,
      2
     ],
     [
      103,
      1,
      6
     ],
     [
      104,
      14,
      10
     ],
     [
      118,
      1,
      7
     ],
     [
      119,
      1,
      4
     ],
     [
      138,
      1,
      2
     ],
     [
      139,
      1,
      1
     ]
    ],
    "32": [
     [
      101,
      1,
      7
     ],
     [
      102,
      15,
      10
     ],
     [
      117,
      1,
      8
     ],
     [
      136,
      1,
      1
     ],
     [
      137,
      1,
      3
     ],
     [
      138,
      1,
      10
     ],
     [
      139,
      1,
      7
     ]
    ],
    "33": [
     [
      101,
      1,
      8
     ],
     [
      102,
      12,
      10
     ],
     [
      114,
      1,
      9
     ],
     [
      115,
      1,
      3
     ],
     [
      116,
      1,
      2
     ],
     [
      140,
      1,
      1
     ]
    ],
    "34": [
     [
      49,
      1,
      1
     ],
     [
      98,
      1,
      1
     ],
     [
      100,
      1,
      5
     ],
     [
      101,
      6,
      10
     ],
     [
      107,
      1,
      6
     ],
     [
      108,
      1,
      8
     ],
     [
      109,
      1,
      3
     ],
     [
      110,
      1,
      1
     ],
     [
      112,
      1,
      1
     ]
    ],
    "35": [
     [
      94,
      1,
      1
     ],
     [
      95,
      1,
      2
     ],
     [
      96,
      1,
      4
     ],
     [
      97,
      1,
      6
     ],
     [
      98,
      9,
      10
     ]
    ],
    "36": [
     [
      89,
      1,
      1
     ],
     [
      90,
      1,
      4
     ],
     [
      91,
      1,
      3
     ],
     [
      92,
      1,
      2
     ],
     [
      93,
      1,
      9
     ],
     [
      94,
      11,
      10
     ],
     [
      105,
      1,
      7
     ],
     [
      106,
      1,
      5
     ]
    ],
    "37": [
     [
      89,
      1,
      4
     ],
     [
      90,
      10,
      10
     ],
     [
      100,
      1,
      5
     ],
     [
      101,
      1,
      7
     ],
     [
      102,
      2,
      4
     ],
     [
      104,
      1,
      2
     ],
     [
      143,
      1,
      2
     ]
    ],
    "38": [
     [
      89,
      7,
      10
     ],
     [
      96,
      2,
      9
     ],
     [
      98,
      1,
      6
     ],
     [
      99,
      1,
      2
     ],
     [
      141,
      1,
      8
     ],
     [
      142,
      1,
      7
     ],
     [
      143,
      1,
      10
     ],
     [
      144,
      1,
      3
     ]
    ],
    "39": [
     [
      88,
      1,
      2
     ],
     [
      89,
      3,
      10
     ],
     [
      92,
      3,
      7
     ],
     [
      95,
      1,
      5
     ],
     [
      96,
      1,
      1
     ],
     [
      141,
      1,
      3
     ],
     [
      142,
      2,
      8
     ],
     [
      144,
      1,
      2
     ]
    ],
    "40": [
     [
      65,
      2,
      1
     ],
     [
      80,
      1,
      3
     ],
     [
      83,
      1,
      2
     ],
     [
      84,
      1,
      4
     ],
     [
      85,
      1,
      2
     ],
     [
      88,
      1,
      3
     ],
     [
      89,
      2,
      10
     ],
     [
      91,
      1,
      1
     ],
     [
      141,
      1,
      2
     ],
     [
      142,
      2,
      6
     ],
     [
      144,
      1,
      2
     ]
    ],
    "41": [
     [
      81,
      1,
      1
     ],
     [
      84,
      1,
      2
     ],
     [
      85,
      1,
      4
     ],
     [
      86,
      1,
      1
     ],
     [
      88,
      1,
      7
     ],
     [
      89,
      1,
      10
     ],
     [
      90,
      1,
      9
     ],
     [
      91,
      1,
      1
     ],
     [
      140,
      1,
      9
     ],
     [
      141,
      1,
      2
     ],
     [
      252,
      1,
      1
     ]
    ],
    "42": [
     [
      77,
      2,
      8
     ],
     [
      79,
      2,
      3
     ],
     [
      81,
      1,
      1
     ],
     [
      88,
      1,
      10
     ],
     [
      89,
      1,
      8
     ],
     [
      90,
      1,
      3
     ],
     [
      138,
      1,
      4
     ],
     [
      140,
      1,
      6
     ],
     [
      141,
      1,
      4
     ],
     [
      143,
      1,
      8
     ],
     [
      144,
      1,
      9
     ],
     [
      145,
      1,
      6
     ]
    ],
    "43": [
     [
      77,
      2,
      1
     ],
     [
      81,
      1,
      4
     ],
     [
      87,
      1,
      3
     ],
     [
      88,
      1,
      7
     ],
     [
      89,
      1,
      9
     ],
     [
      90,
      1,
      1
     ]
    ],
    "44": [
     [
      17,
      2,
      4
     ],
     [
      19,
      1,
      3
     ],
     [
      21,
      1,
      3
     ],
     [
      22,
      1,
      1
     ],
     [
      87,
      1,
      1
     ]
    ],
    "45": [
     [
      17,
      1,
      9
     ],
     [
      18,
      3,
      10
     ],
     [
      21,
      1,
      8
     ],
     [
      22,
      1,
      6
     ],
     [
      23,
      1,
      7
     ],
     [
      24,
      1,
      5
     ],
     [
      25,
      1,
      4
     ],
     [
      138,
      1,
      1
     ],
     [
      139,
      1,
      3
     ],
     [
      140,
      1,
      1
     ],
     [
      142,
      2,
      3
     ]
    ],
    "46": [
     [
      17,
      1,
      7
     ],
     [
      18,
      3,
      10
     ],
     [
      21,
      1,
      7
     ],
     [
      25,
      1,
      9
     ],
     [
      26,
      1,
      6
     ],
     [
      27,
      1,
      5
     ],
     [
      88,
      1,
      4
     ],
     [
      89,
      1,
      6
     ],
     [
      90,
      1,
      3
     ],
     [
      91,
      1,
      1
     ],
     [
      96,
      2,
      1
     ],
     [
      98,
      2,
      4
     ],
     [
      100,
      1,
      7
     ],
     [
      101,
      1,
      4
     ],
     [
      123,
      1,
      4
     ],
     [
      124,
      1,
      6
     ],
     [
      125,
      1,
      1
     ],
     [
      132,
      1,
      7
     ],
     [
      133,
      1,
      9
     ],
     [
      134,
      1,
      7
     ],
     [
      135,
      1,
      5
     ],
     [
      136,
      1,
      10
     ],
     [
      137,
      1,
      4
     ],
     [
      138,
      1,
      1
     ],
     [
      140,
      1,
      6
     ],
     [
      141,
      5,
      10
     ],
     [
      146,
      1,
      8
     ],
     [
      147,
      1,
      10
     ],
     [
      148,
      2,
      8
     ],
     [
      150,
      1,
      6
     ],
     [
      151,
      1,
      3
     ]
    ],
    "47": [
     [
      17,
      1,
      4
     ],
     [
      18,
      3,
      10
     ],
     [
      21,
      1,
      6
     ],
     [
      23,
      1,
      1
     ],
     [
      24,
      1,
      6
     ],
     [
      25,
      1,
      10
     ],
     [
      26,
      1,
      9
     ],
     [
      27,
      1,
      3
     ],
     [
      88,
      1,
      8
     ],
     [
      89,
      1,
      5
     ],
     [
      90,
      3,
      10
     ],
     [
      93,
      1,
      7
     ],
     [
      94,
      1,
      6
     ],
     [
      95,
      5,
      10
     ],
     [
      100,
      1,
      7
     ],
     [
      101,
      1,
      2
     ],
     [
      102,
      1,
      1
     ],
     [
      132,
      1,
      9
     ],
     [
      133,
      5,
      10
     ],
     [
      138,
      1,
      6
     ],
     [
      139,
      1,
      4
     ],
     [
      140,
      1,
      9
     ],
     [
      141,
      10,
      10
     ],
     [
      151,
      1,
      9
     ],
     [
      152,
      1,
      2
     ]
    ],
    "48": [
     [
      17,
      1,
      2
     ],
     [
      18,
      4,
      10
     ],
     [
      22,
      1,
      2
     ],
     [
      23,
      1,
      1
     ],
     [
      24,
      1,
      3
     ],
     [
      26,
      1,
      1
     ],
     [
      90,
      1,
      3
     ],
     [
      91,
      1,
      10
     ],
     [
      92,
      1,
      9
     ],
     [
      93,
      1,
      3
     ],
     [
      96,
      2,
      2
     ],
     [
      98,
      2,
      3
     ],
     [
      120,
      1,
      2
     ],
     [
      121,
      1,
      1
     ],
     [
      129,
      2,
      1
     ],
     [
      132,
      1,
      7
     ],
     [
      133,
      18,
      10
     ],
     [
      151,
      1,
      6
     ]
    ],
    "49": [
     [
      18,
      4,
      10
     ],
     [
      22,
      1,
      1
     ],
     [
      35,
      1,
      2
     ],
     [
      91,
      1,
      8
     ],
     [
      92,
      1,
      7
     ],
     [
      93,
      1,
      1
     ],
     [
      118,
      2,
      9
     ],
     [
      120,
      1,
      10
     ],
     [
      121,
      1,
      3
     ],
     [
      126,
      1,
      1
     ],
     [
      129,
      1,
      4
     ],
     [
      130,
      1,
      9
     ],
     [
      131,
      1,
      7
     ],
     [
      132,
      1,
      8
     ],
     [
      133,
      19,
      10
     ]
    ],
    "50": [
     [
      17,
      1,
      2
     ],
     [
      18,
      1,
      9
     ],
     [
      19,
      2,
      10
     ],
     [
      21,
      1,
      9
     ],
     [
      22,
      1,
      2
     ],
     [
      35,
      1,
      10
     ],
     [
      36,
      1,
      7
     ],
     [
      37,
      1,
      1
     ],
     [
      93,
      1,
      1
     ],
     [
      106,
      1,
      2
     ],
     [
      107,
      1,
      3
     ],
     [
      108,
      1,
      1
     ],
     [
      115,
      1,
      2
     ],
     [
      116,
      1,
      3
     ],
     [
      117,
      1,
      4
     ],
     [
      118,
      4,
      10
     ],
     [
      122,
      1,
      5
     ],
     [
      123,
      1,
      2
     ],
     [
      126,
      1,
      5
     ],
     [
      127,
      1,
      7
     ],
     [
      128,
      1,
      5
     ],
     [
      129,
      1,
      8
     ],
     [
      130,
      2,
      10
     ],
     [
      132,
      1,
      2
     ],
     [
      133,
      1,
      4
     ],
     [
      134,
      8,
      10
     ],
     [
      142,
      1,
      4
     ],
     [
      145,
      1,
      2
     ],
     [
      147,
      1,
      4
     ],
     [
      148,
      1,
      9
     ],
     [
      149,
      2,
      10
     ],
     [
      151,
      1,
      7
     ]
    ],
    "51": [
     [
      19,
      1,
      4
     ],
     [
      20,
      1,
      10
     ],
     [
      21,
      1,
      6
     ],
     [
      22,
      1,
      5
     ],
     [
      34,
      1,
      2
     ],
     [
      35,
      3,
      10
     ],
     [
      38,
      1,
      7
     ],
     [
      107,
      1,
      8
     ],
     [
      108,
      1,
      10
     ],
     [
      109,
      1,
      8
     ],
     [
      110,
      1,
      3
     ],
     [
      112,
      1,
      1
     ],
     [
      113,
      1,
      7
     ],
     [
      114,
      3,
      10
     ],
     [
      117,
      1,
      5
     ],
     [
      118,
      1,
      7
     ],
     [
      119,
      1,
      9
     ],
     [
      120,
      1,
      10
     ],
     [
      121,
      1,
      7
     ],
     [
      122,
      1,
      4
     ],
     [
      123,
      1,
      3
     ],
     [
      126,
      1,
      2
     ],
     [
      127,
      1,
      3
     ],
     [
      128,
      1,
      4
     ],
     [
      129,
      1,
      9
     ],
     [
      130,
      1,
      10
     ],
     [
      131,
      1,
      8
     ],
     [
      132,
      1,
      4
     ],
     [
      133,
      1,
      2
     ],
     [
      134,
      8,
      10
     ],
     [
      142,
      1,
      4
     ],
     [
      145,
      1,
      3
     ],
     [
      146,
      1,
      1
     ],
     [
      148,
      1,
      6
     ],
     [
      149,
      3,
      10
     ],
     [
      152,
      1,
      7
     ],
     [
      153,
      1,
      9
     ],
     [
      154,
      1,
      5
     ],
     [
      155,
      1,
      4
     ],
     [
      156,
      1,
      6
     ],
     [
      157,
      1,
      4
     ]
    ],
    "52": [
     [
      19,
      1,
      4
     ],
     [
      20,
      1,
      2
     ],
     [
      34,
      1,
      7
     ],
     [
      35,
      1,
      10
     ],
     [
      36,
      1,
      8
     ],
     [
      106,
      1,
      1
     ],
     [
      107,
      3,
      10
     ],
     [
      110,
      1,
      6
     ],
     [
      111,
      1,
      3
     ],
     [
      112,
      1,
      2
     ],
     [
      113,
      2,
      3
     ],
     [
      115,
      1,
      5
     ],
     [
      116,
      1,
      2
     ],
     [
      129,
      8,
      10
     ],
     [
      137,
      1,
      7
     ],
     [
      138,
      1,
      1
     ],
     [
      140,
      1,
      1
     ],
     [
      142,
      2,
      10
     ],
     [
      144,
      1,
      8
     ],
     [
      145,
      12,
      10
     ],
     [
      157,
      1,
      7
     ],
     [
      158,
      1,
      2
     ]
    ],
    "53": [
     [
      19,
      1,
      2
     ],
     [
      33,
      1,
      2
     ],
     [
      34,
      2,
      10
     ],
     [
      36,
      1,
      9
     ],
     [
      40,
      1,
      4
     ],
     [
      41,
      1,
      2
     ],
     [
      42,
      1,
      1
     ],
     [
      106,
      1,
      9
     ],
     [
      107,
      2,
      10
     ],
     [
      109,
      1,
      4
     ],
     [
      122,
      1,
      5
     ],
     [
      123,
      1,
      10
     ],
     [
      124,
      1,
      6
     ],
     [
      128,
      1,
      3
     ],
     [
      129,
      8,
      10
     ],
     [
      137,
      1,
      7
     ],
     [
      138,
      2,
      4
     ],
     [
      140,
      2,
      6
     ],
     [
      142,
      16,
      10
     ],
     [
      158,
      1,
      9
     ],
     [
      159,
      1,
      2
     ]
    ],
    "54": [
     [
      33,
      1,
      6
     ],
     [
      34,
      2,
      10
     ],
     [
      36,
      1,
      5
     ],
     [
      40,
      1,
      5
     ],
     [
      41,
      3,
      10
     ],
     [
      44,
      1,
      4
     ],
     [
      102,
      1,
      3
     ],
     [
      103,
      1,
      1
     ],
     [
      104,
      1,
      5
     ],
     [
      105,
      1,
      7
     ],
     [
      106,
      2,
      10
     ],
     [
      108,
      1,
      7
     ],
     [
      118,
      1,
      2
     ],
     [
      119,
      1,
      3
     ],
     [
      120,
      1,
      4
     ],
     [
      121,
      1,
      8
     ],
     [
      122,
      3,
      10
     ],
     [
      125,
      1,
      8
     ],
     [
      126,
      2,
      7
     ],
     [
      128,
      1,
      9
     ],
     [
      129,
      30,
      10
     ],
     [
      159,
      1,
      6
     ],
     [
      160,
      1,
      2
     ],
     [
      161,
      1,
      4
     ]
    ],
    "55": [
     [
      33,
      1,
      8
     ],
     [
      34,
      2,
      10
     ],
     [
      41,
      1,
      6
     ],
     [
      42,
      2,
      10
     ],
     [
      101,
      1,
      5
     ],
     [
      102,
      1,
      3
     ],
     [
      103,
      1,
      1
     ],
     [
      105,
      1,
      3
     ],
     [
      106,
      1,
      8
     ],
     [
      107,
      2,
      10
     ],
     [
      109,
      1,
      6
     ],
     [
      110,
      1,
      4
     ],
     [
      111,
      1,
      3
     ],
     [
      115,
      2,
      3
     ],
     [
      117,
      1,
      8
     ],
     [
      118,
      44,
      10
     ],
     [
      162,
      1,
      7
     ],
     [
      163,
      1,
      6
     ],
     [
      164,
      1,
      7
     ],
     [
      165,
      1,
      1
     ]
    ],
    "56": [
     [
      34,
      1,
      1
     ],
     [
      35,
      1,
      8
     ],
     [
      36,
      1,
      9
     ],
     [
      37,
      1,
      2
     ],
     [
      43,
      1,
      1
     ],
     [
      90,
      1,
      2
     ],
     [
      91,
      1,
      4
     ],
     [
      92,
      1,
      5
     ],
     [
      93,
      1,
      7
     ],
     [
      94,
      1,
      3
     ],
     [
      100,
      1,
      3
     ],
     [
      101,
      1,
      10
     ],
     [
      102,
      1,
      6
     ],
     [
      105,
      1,
      2
     ],
     [
      106,
      1,
      5
     ],
     [
      107,
      5,
      10
     ],
     [
      112,
      1,
      9
     ],
     [
      113,
      2,
      7
     ],
     [
      115,
      50,
      10
     ],
     [
      165,
      1,
      5
     ],
     [
      166,
      1,
      2
     ]
    ],
    "57": [
     [
      31,
      2,
      2
     ],
     [
      36,
      1,
      8
     ],
     [
      37,
      1,
      9
     ],
     [
      38,
      1,
      5
     ],
     [
      39,
      1,
      3
     ],
     [
      43,
      1,
      2
     ],
     [
      44,
      1,
      3
     ],
     [
      46,
      1,
      1
     ],
     [
      53,
      1,
      3
     ],
     [
      54,
      1,
      6
     ],
     [
      55,
      1,
      3
     ],
     [
      56,
      1,
      2
     ],
     [
      58,
      1,
      3
     ],
     [
      64,
      1,
      1
     ],
     [
      67,
      1,
      4
     ],
     [
      68,
      1,
      7
     ],
     [
      69,
      1,
      4
     ],
     [
      75,
      1,
      2
     ],
     [
      76,
      1,
      8
     ],
     [
      77,
      2,
      7
     ],
     [
      79,
      1,
      1
     ],
     [
      89,
      1,
      6
     ],
     [
      90,
      6,
      10
     ],
     [
      96,
      1,
      6
     ],
     [
      99,
      1,
      4
     ],
     [
      100,
      1,
      8
     ],
     [
      101,
      2,
      10
     ],
     [
      103,
      1,
      9
     ],
     [
      104,
      1,
      6
     ],
     [
      105,
      1,
      8
     ],
     [
      106,
      27,
      10
     ],
     [
      133,
      2,
      6
     ],
     [
      135,
      1,
      10
     ],
     [
      136,
      1,
      9
     ],
     [
      137,
      1,
      4
     ],
     [
      138,
      1,
      5
     ],
     [
      139,
      1,
      9
     ],
     [
      140,
      26,
      10
     ],
     [
      166,
      1,
      6
     ]
    ],
    "58": [
     [
      31,
      1,
      7
     ],
     [
      32,
      1,
      5
     ],
     [
      36,
      1,
      9
     ],
     [
      37,
      4,
      10
     ],
     [
      41,
      1,
      8
     ],
     [
      42,
      5,
      10
     ],
     [
      47,
      1,
      9
     ],
     [
      48,
      1,
      2
     ],
     [
      50,
      1,
      2
     ],
     [
      51,
      1,
      3
     ],
     [
      52,
      1,
      5
     ],
     [
      53,
      1,
      9
     ],
     [
      54,
      5,
      10
     ],
     [
      59,
      1,
      7
     ],
     [
      60,
      1,
      3
     ],
     [
      61,
      1,
      5
     ],
     [
      62,
      1,
      8
     ],
     [
      63,
      1,
      4
     ],
     [
      64,
      1,
      10
     ],
     [
      65,
      1,
      7
     ],
     [
      66,
      3,
      10
     ],
     [
      69,
      1,
      3
     ],
     [
      76,
      1,
      2
     ],
     [
      77,
      1,
      9
     ],
     [
      78,
      1,
      7
     ],
     [
      79,
      1,
      9
     ],
     [
      80,
      1,
      10
     ],
     [
      81,
      1,
      8
     ],
     [
      82,
      1,
      10
     ],
     [
      83,
      1,
      7
     ],
     [
      84,
      1,
      5
     ],
     [
      85,
      1,
      2
     ],
     [
      87,
      1,
      2
     ],
     [
      88,
      1,
      1
     ],
     [
      91,
      1,
      8
     ],
     [
      92,
      4,
      10
     ],
     [
      96,
      1,
      9
     ],
     [
      99,
      1,
      8
     ],
     [
      100,
      33,
      10
     ],
     [
      133,
      1,
      2
     ],
     [
      135,
      1,
      3
     ],
     [
      139,
      1,
      8
     ],
     [
      140,
      26,
      10
     ],
     [
      166,
      1,
      9
     ],
     [
      167,
      2,
      6
     ],
     [
      169,
      1,
      4
     ],
     [
      170,
      1,
      2
     ]
    ],
    "59": [
     [
      31,
      1,
      5
     ],
     [
      32,
      1,
      8
     ],
     [
      35,
      1,
      8
     ],
     [
      36,
      7,
      10
     ],
     [
      43,
      1,
      3
     ],
     [
      45,
      1,
      1
     ],
     [
      46,
      13,
      10
     ],
     [
      59,
      1,
      7
     ],
     [
      60,
      1,
      2
     ],
     [
      61,
      1,
      8
     ],
     [
      62,
      6,
      10
     ],
     [
      68,
      1,
      8
     ],
     [
      69,
      1,
      1
     ],
     [
      79,
      1,
      6
     ],
     [
      80,
      7,
      10
     ],
     [
      87,
      1,
      6
     ],
     [
      88,
      1,
      2
     ],
     [
      89,
      1,
      1
     ],
     [
      90,
      1,
      3
     ],
     [
      91,
      6,
      10
     ],
     [
      97,
      1,
      6
     ],
     [
      99,
      1,
      3
     ],
     [
      100,
      35,
      10
     ],
     [
      135,
      1,
      7
     ],
     [
      136,
      1,
      4
     ],
     [
      137,
      2,
      7
     ],
     [
      139,
      32,
      10
     ],
     [
      171,
      1,
      6
     ],
     [
      172,
      1,
      4
     ]
    ],
    "60": [
     [
      23,
      1,
      1
     ],
     [
      30,
      1,
      1
     ],
     [
      31,
      1,
      8
     ],
     [
      32,
      1,
      10
     ],
     [
      33,
      1,
      7
     ],
     [
      34,
      1,
      6
     ],
     [
      35,
      8,
      10
     ],
     [
      43,
      1,
      8
     ],
     [
      44,
      1,
      5
     ],
     [
      45,
      1,
      6
     ],
     [
      46,
      13,
      10
     ],
     [
      59,
      1,
      1
     ],
     [
      61,
      1,
      7
     ],
     [
      62,
      2,
      10
     ],
     [
      64,
      1,
      5
     ],
     [
      65,
      1,
      7
     ],
     [
      66,
      2,
      10
     ],
     [
      68,
      1,
      8
     ],
     [
      69,
      1,
      1
     ],
     [
      80,
      7,
      10
     ],
     [
      87,
      1,
      3
     ],
     [
      89,
      1,
      6
     ],
     [
      90,
      7,
      10
     ],
     [
      97,
      1,
      7
     ],
     [
      99,
      1,
      6
     ],
     [
      100,
      29,
      10
     ],
     [
      129,
      4,
      6
     ],
     [
      133,
      1,
      7
     ],
     [
      134,
      1,
      8
     ],
     [
      135,
      38,
      10
     ]
    ],
    "61": [
     [
      25,
      1,
      1
     ],
     [
      29,
      1,
      4
     ],
     [
      30,
      1,
      9
     ],
     [
      31,
      28,
      10
     ],
     [
      59,
      1,
      4
     ],
     [
      61,
      1,
      10
     ],
     [
      62,
      1,
      4
     ],
     [
      63,
      1,
      3
     ],
     [
      66,
      1,
      6
     ],
     [
      67,
      1,
      10
     ],
     [
      68,
      1,
      8
     ],
     [
      79,
      1,
      3
     ],
     [
      80,
      5,
      10
     ],
     [
      85,
      2,
      9
     ],
     [
      87,
      1,
      2
     ],
     [
      88,
      1,
      5
     ],
     [
      89,
      1,
      10
     ],
     [
      90,
      2,
      8
     ],
     [
      92,
      5,
      10
     ],
     [
      97,
      1,
      3
     ],
     [
      99,
      1,
      6
     ],
     [
      100,
      28,
      10
     ],
     [
      128,
      1,
      8
     ],
     [
      129,
      1,
      2
     ],
     [
      134,
      1,
      1
     ],
     [
      135,
      39,
      10
     ],
     [
      178,
      1,
      3
     ],
     [
      179,
      1,
      2
     ]
    ],
    "62": [
     [
      29,
      33,
      10
     ],
     [
      62,
      1,
      6
     ],
     [
      63,
      1,
      2
     ],
     [
      66,
      1,
      2
     ],
     [
      67,
      2,
      8
     ],
     [
      69,
      1,
      4
     ],
     [
      79,
      1,
      6
     ],
     [
      80,
      4,
      10
     ],
     [
      84,
      1,
      3
     ],
     [
      88,
      1,
      8
     ],
     [
      89,
      1,
      10
     ],
     [
      92,
      1,
      9
     ],
     [
      93,
      4,
      10
     ],
     [
      97,
      1,
      7
     ],
     [
      98,
      1,
      1
     ],
     [
      100,
      1,
      4
     ],
     [
      101,
      15,
      10
     ],
     [
      116,
      1,
      8
     ],
     [
      117,
      2,
      4
     ],
     [
      119,
      1,
      6
     ],
     [
      120,
      7,
      10
     ],
     [
      127,
      1,
      9
     ],
     [
      135,
      1,
      6
     ],
     [
      136,
      38,
      10
     ],
     [
      174,
      2,
      3
     ],
     [
      176,
      1,
      5
     ],
     [
      177,
      1,
      8
     ],
     [
      178,
      1,
      10
     ],
     [
      179,
      1,
      9
     ],
     [
      184,
      1,
      2
     ],
     [
      185,
      1,
      6
     ],
     [
      186,
      1,
      7
     ],
     [
      187,
      1,
      6
     ],
     [
      188,
      2,
      2
     ],
     [
      192,
      1,
      3
     ]
    ],
    "63": [
     [
      28,
      1,
      6
     ],
     [
      29,
      34,
      10
     ],
     [
      63,
      1,
      9
     ],
     [
      64,
      1,
      4
     ],
     [
      69,
      2,
      2
     ],
     [
      79,
      1,
      3
     ],
     [
      80,
      1,
      8
     ],
     [
      81,
      3,
      10
     ],
     [
      84,
      1,
      6
     ],
     [
      85,
      1,
      4
     ],
     [
      86,
      2,
      6
     ],
     [
      88,
      2,
      10
     ],
     [
      90,
      1,
      2
     ],
     [
      92,
      1,
      3
     ],
     [
      93,
      5,
      10
     ],
     [
      98,
      1,
      1
     ],
     [
      100,
      1,
      4
     ],
     [
      101,
      12,
      10
     ],
     [
      113,
      1,
      7
     ],
     [
      114,
      1,
      1
     ],
     [
      115,
      1,
      2
     ],
     [
      119,
      1,
      4
     ],
     [
      120,
      7,
      10
     ],
     [
      127,
      1,
      5
     ],
     [
      135,
      1,
      4
     ],
     [
      136,
      44,
      10
     ],
     [
      180,
      1,
      8
     ],
     [
      181,
      1,
      1
     ],
     [
      182,
      1,
      3
     ],
     [
      183,
      1,
      7
     ],
     [
      184,
      5,
      10
     ],
     [
      189,
      1,
      8
     ],
     [
      190,
      1,
      3
     ],
     [
      191,
      2,
      10
     ],
     [
      193,
      1,
      3
     ],
     [
      197,
      1,
      3
     ]
    ],
    "64": [
     [
      27,
      1,
      1
     ],
     [
      28,
      1,
      9
     ],
     [
      29,
      36,
      10
     ],
     [
      65,
      1,
      7
     ],
     [
      80,
      1,
      1
     ],
     [
      81,
      1,
      8
     ],
     [
      82,
      2,
      10
     ],
     [
      84,
      1,
      9
     ],
     [
      85,
      1,
      2
     ],
     [
      86,
      1,
      4
     ],
     [
      87,
      1,
      8
     ],
     [
      88,
      2,
      10
     ],
     [
      90,
      1,
      5
     ],
     [
      92,
      1,
      3
     ],
     [
      93,
      6,
      10
     ],
     [
      99,
      1,
      9
     ],
     [
      100,
      13,
      10
     ],
     [
      113,
      1,
      8
     ],
     [
      114,
      1,
      5
     ],
     [
      115,
      1,
      3
     ],
     [
      116,
      1,
      2
     ],
     [
      117,
      1,
      4
     ],
     [
      118,
      1,
      8
     ],
     [
      119,
      1,
      9
     ],
     [
      120,
      6,
      10
     ],
     [
      126,
      1,
      3
     ],
     [
      135,
      1,
      9
     ],
     [
      136,
      57,
      10
     ],
     [
      193,
      1,
      3
     ],
     [
      198,
      1,
      5
     ],
     [
      199,
      1,
      4
     ],
     [
      206,
      2,
      1
     ]
    ],
    "65": [
     [
      27,
      1,
      7
     ],
     [
      28,
      28,
      10
     ],
     [
      56,
      1,
      9
     ],
     [
      57,
      7,
      10
     ],
     [
      64,
      1,
      5
     ],
     [
      72,
      1,
      2
     ],
     [
      81,
      1,
      3
     ],
     [
      82,
      1,
      9
     ],
     [
      83,
      1,
      10
     ],
     [
      84,
      1,
      7
     ],
     [
      88,
      2,
      10
     ],
     [
      90,
      1,
      5
     ],
     [
      92,
      1,
      5
     ],
     [
      93,
      5,
      10
     ],
     [
      98,
      1,
      7
     ],
     [
      99,
      1,
      6
     ],
     [
      100,
      1,
      9
     ],
     [
      101,
      21,
      10
     ],
     [
      122,
      2,
      6
     ],
     [
      124,
      1,
      3
     ],
     [
      134,
      1,
      2
     ],
     [
      135,
      57,
      10
     ],
     [
      192,
      1,
      3
     ],
     [
      201,
      1,
      1
     ],
     [
      202,
      1,
      6
     ],
     [
      203,
      1,
      2
     ],
     [
      204,
      2,
      3
     ],
     [
      206,
      1,
      2
     ],
     [
      208,
      1,
      1
     ]
    ],
    "66": [
     [
      26,
      1,
      2
     ],
     [
      27,
      29,
      10
     ],
     [
      56,
      1,
      3
     ],
     [
      58,
      1,
      4
     ],
     [
      59,
      3,
      10
     ],
     [
      62,
      1,
      7
     ],
     [
      63,
      1,
      3
     ],
     [
      64,
      1,
      2
     ],
     [
      65,
      1,
      3
     ],
     [
      66,
      1,
      5
     ],
     [
      67,
      1,
      1
     ],
     [
      84,
      1,
      6
     ],
     [
      85,
      1,
      2
     ],
     [
      87,
      1,
      5
     ],
     [
      88,
      3,
      10
     ],
     [
      91,
      1,
      7
     ],
     [
      92,
      1,
      9
     ],
     [
      93,
      5,
      10
     ],
     [
      98,
      1,
      1
     ],
     [
      100,
      1,
      7
     ],
     [
      101,
      20,
      10
     ],
     [
      121,
      1,
      9
     ],
     [
      134,
      1,
      4
     ],
     [
      135,
      58,
      10
     ],
     [
      193,
      1,
      8
     ],
     [
      194,
      1,
      7
     ],
     [
      196,
      1,
      1
     ],
     [
      197,
      1,
      3
     ],
     [
      198,
      1,
      2
     ],
     [
      199,
      1,
      3
     ],
     [
      208,
      1,
      7
     ]
    ],
    "67": [
     [
      26,
      1,
      7
     ],
     [
      27,
      29,
      10
     ],
     [
      59,
      3,
      10
     ],
     [
      62,
      1,
      9
     ],
     [
      63,
      1,
      4
     ],
     [
      65,
      1,
      2
     ],
     [
      66,
      3,
      10
     ],
     [
      69,
      1,
      6
     ],
     [
      71,
      1,
      1
     ],
     [
      77,
      1,
      1
     ],
     [
      84,
      1,
      4
     ],
     [
      85,
      13,
      10
     ],
     [
      98,
      1,
      7
     ],
     [
      99,
      1,
      8
     ],
     [
      100,
      1,
      9
     ],
     [
      101,
      20,
      10
     ],
     [
      121,
      1,
      4
     ],
     [
      127,
      1,
      1
     ],
     [
      132,
      1,
      1
     ],
     [
      133,
      1,
      5
     ],
     [
      134,
      1,
      9
     ],
     [
      135,
      60,
      10
     ],
     [
      195,
      1,
      7
     ],
     [
      196,
      1,
      9
     ],
     [
      197,
      3,
      10
     ],
     [
      200,
      1,
      7
     ],
     [
      204,
      1,
      7
     ],
     [
      205,
      1,
      5
     ],
     [
      207,
      1,
      2
     ],
     [
      208,
      1,
      10
     ]
    ],
    "68": [
     [
      26,
      1,
      4
     ],
     [
      27,
      10,
      10
     ],
     [
      37,
      1,
      8
     ],
     [
      38,
      1,
      4
     ],
     [
      39,
      19,
      10
     ],
     [
      58,
      1,
      8
     ],
     [
      59,
      5,
      10
     ],
     [
      64,
      1,
      7
     ],
     [
      65,
      1,
      8
     ],
     [
      66,
      4,
      10
     ],
     [
      70,
      1,
      7
     ],
     [
      71,
      1,
      6
     ],
     [
      76,
      1,
      2
     ],
     [
      77,
      1,
      10
     ],
     [
      78,
      1,
      9
     ],
     [
      79,
      1,
      4
     ],
     [
      84,
      1,
      1
     ],
     [
      85,
      18,
      10
     ],
     [
      103,
      1,
      9
     ],
     [
      104,
      1,
      7
     ],
     [
      105,
      1,
      9
     ],
     [
      106,
      15,
      10
     ],
     [
      121,
      1,
      4
     ],
     [
      129,
      1,
      1
     ],
     [
      132,
      1,
      3
     ],
     [
      133,
      68,
      10
     ],
     [
      201,
      1,
      2
     ],
     [
      203,
      1,
      3
     ],
     [
      204,
      2,
      10
     ],
     [
      206,
      1,
      7
     ],
     [
      207,
      2,
      8
     ],
     [
      211,
      1,
      1
     ]
    ],
    "69": [
     [
      26,
      1,
      1
     ],
     [
      27,
      1,
      6
     ],
     [
      28,
      9,
      10
     ],
     [
      37,
      1,
      7
     ],
     [
      39,
      1,
      1
     ],
     [
      40,
      31,
      10
     ],
     [
      71,
      1,
      8
     ],
     [
      77,
      1,
      9
     ],
     [
      78,
      2,
      10
     ],
     [
      80,
      1,
      5
     ],
     [
      85,
      1,
      9
     ],
     [
      86,
      16,
      10
     ],
     [
      102,
      1,
      8
     ],
     [
      103,
      1,
      3
     ],
     [
      105,
      1,
      7
     ],
     [
      106,
      15,
      10
     ],
     [
      121,
      1,
      3
     ],
     [
      128,
      1,
      1
     ],
     [
      129,
      2,
      2
     ],
     [
      132,
      1,
      3
     ],
     [
      133,
      68,
      10
     ],
     [
      201,
      1,
      8
     ],
     [
      202,
      1,
      6
     ],
     [
      203,
      1,
      7
     ],
     [
      204,
      1,
      1
     ],
     [
      205,
      1,
      8
     ],
     [
      206,
      2,
      10
     ],
     [
      208,
      1,
      9
     ],
     [
      209,
      1,
      4
     ],
     [
      213,
      1,
      1
     ]
    ],
    "70": [
     [
      27,
      1,
      1
     ],
     [
      28,
      8,
      10
     ],
     [
      36,
      1,
      8
     ],
     [
      37,
      1,
      1
     ],
     [
      39,
      1,
      2
     ],
     [
      40,
      26,
      10
     ],
     [
      66,
      1,
      9
     ],
     [
      67,
      1,
      5
     ],
     [
      68,
      1,
      4
     ],
     [
      69,
      1,
      3
     ],
     [
      70,
      1,
      9
     ],
     [
      71,
      1,
      10
     ],
     [
      72,
      1,
      4
     ],
     [
      77,
      1,
      1
     ],
     [
      78,
      1,
      2
     ],
     [
      79,
      1,
      1
     ],
     [
      80,
      1,
      2
     ],
     [
      82,
      1,
      4
     ],
     [
      83,
      1,
      6
     ],
     [
      84,
      1,
      4
     ],
     [
      85,
      17,
      10
     ],
     [
      102,
      1,
      3
     ],
     [
      104,
      1,
      4
     ],
     [
      105,
      1,
      9
     ],
     [
      106,
      15,
      10
     ],
     [
      121,
      1,
      9
     ],
     [
      122,
      1,
      6
     ],
     [
      123,
      1,
      4
     ],
     [
      132,
      1,
      6
     ],
     [
      133,
      70,
      10
     ],
     [
      203,
      1,
      8
     ],
     [
      205,
      1,
      5
     ],
     [
      206,
      3,
      10
     ],
     [
      209,
      1,
      4
     ],
     [
      210,
      2,
      1
     ],
     [
      212,
      1,
      3
     ]
    ],
    "71": [
     [
      27,
      1,
      5
     ],
     [
      28,
      8,
      10
     ],
     [
      36,
      1,
      3
     ],
     [
      39,
      1,
      1
     ],
     [
      40,
      1,
      8
     ],
     [
      41,
      21,
      10
     ],
     [
      62,
      1,
      8
     ],
     [
      63,
      3,
      10
     ],
     [
      66,
      1,
      3
     ],
     [
      70,
      1,
      3
     ],
     [
      71,
      2,
      9
     ],
     [
      81,
      1,
      4
     ],
     [
      82,
      21,
      10
     ],
     [
      103,
      1,
      7
     ],
     [
      104,
      19,
      10
     ],
     [
      123,
      1,
      5
     ],
     [
      132,
      1,
      6
     ],
     [
      133,
      71,
      10
     ],
     [
      204,
      1,
      7
     ],
     [
      205,
      1,
      8
     ],
     [
      206,
      3,
      10
     ],
     [
      209,
      1,
      2
     ],
     [
      213,
      1,
      1
     ]
    ],
    "72": [
     [
      27,
      1,
      9
     ],
     [
      28,
      8,
      10
     ],
     [
      36,
      1,
      6
     ],
     [
      37,
      1,
      1
     ],
     [
      40,
      21,
      10
     ],
     [
      61,
      1,
      8
     ],
     [
      64,
      1,
      9
     ],
     [
      65,
      1,
      10
     ],
     [
      66,
      1,
      1
     ],
     [
      71,
      1,
      4
     ],
     [
      72,
      2,
      7
     ],
     [
      81,
      1,
      8
     ],
     [
      82,
      42,
      10
     ],
     [
      124,
      1,
      9
     ],
     [
      125,
      1,
      4
     ],
     [
      132,
      1,
      9
     ],
     [
      133,
      75,
      10
     ],
     [
      208,
      1,
      6
     ],
     [
      209,
      1,
      3
     ],
     [
      210,
      1,
      2
     ],
     [
      211,
      1,
      1
     ],
     [
      215,
      2,
      1
     ]
    ],
    "73": [
     [
      27,
      1,
      3
     ],
     [
      28,
      5,
      10
     ],
     [
      33,
      1,
      5
     ],
     [
      34,
      1,
      6
     ],
     [
      35,
      1,
      4
     ],
     [
      36,
      1,
      7
     ],
     [
      37,
      1,
      10
     ],
     [
      38,
      1,
      8
     ],
     [
      39,
      1,
      7
     ],
     [
      40,
      20,
      10
     ],
     [
      60,
      1,
      7
     ],
     [
      61,
      2,
      3
     ],
     [
      64,
      1,
      10
     ],
     [
      65,
      1,
      9
     ],
     [
      66,
      1,
      2
     ],
     [
      77,
      1,
      3
     ],
     [
      78,
      2,
      4
     ],
     [
      80,
      1,
      6
     ],
     [
      81,
      43,
      10
     ],
     [
      130,
      1,
      1
     ],
     [
      131,
      1,
      5
     ],
     [
      132,
      76,
      10
     ],
     [
      208,
      2,
      2
     ],
     [
      210,
      1,
      3
     ],
     [
      212,
      1,
      2
     ],
     [
      215,
      1,
      1
     ],
     [
      216,
      1,
      4
     ],
     [
      218,
      1,
      3
     ],
     [
      219,
      1,
      2
     ]
    ],
    "74": [
     [
      28,
      1,
      9
     ],
     [
      29,
      3,
      10
     ],
     [
      32,
      1,
      3
     ],
     [
      38,
      1,
      6
     ],
     [
      39,
      20,
      10
     ],
     [
      59,
      1,
      5
     ],
     [
      62,
      1,
      6
     ],
     [
      63,
      1,
      10
     ],
     [
      64,
      1,
      9
     ],
     [
      65,
      1,
      4
     ],
     [
      75,
      1,
      5
     ],
     [
      76,
      1,
      8
     ],
     [
      77,
      46,
      10
     ],
     [
      123,
      1,
      7
     ],
     [
      130,
      1,
      5
     ],
     [
      131,
      79,
      10
     ],
     [
      210,
      1,
      2
     ],
     [
      212,
      1,
      9
     ],
     [
      213,
      1,
      5
     ],
     [
      214,
      1,
      3
     ],
     [
      215,
      1,
      4
     ],
     [
      220,
      1,
      1
     ]
    ],
    "75": [
     [
      29,
      1,
      1
     ],
     [
      31,
      1,
      9
     ],
     [
      39,
      1,
      9
     ],
     [
      40,
      19,
      10
     ],
     [
      59,
      1,
      6
     ],
     [
      60,
      1,
      4
     ],
     [
      61,
      1,
      5
     ],
     [
      62,
      1,
      6
     ],
     [
      63,
      1,
      10
     ],
     [
      64,
      1,
      2
     ],
     [
      67,
      1,
      4
     ],
     [
      68,
      1,
      6
     ],
     [
      75,
      1,
      6
     ],
     [
      76,
      47,
      10
     ],
     [
      123,
      1,
      6
     ],
     [
      126,
      1,
      3
     ],
     [
      127,
      2,
      8
     ],
     [
      129,
      1,
      7
     ],
     [
      130,
      81,
      10
     ],
     [
      211,
      1,
      9
     ],
     [
      212,
      2,
      10
     ],
     [
      214,
      1,
      1
     ],
     [
      218,
      1,
      2
     ]
    ],
    "76": [
     [
      39,
      1,
      9
     ],
     [
      40,
      23,
      10
     ],
     [
      63,
      1,
      8
     ],
     [
      64,
      1,
      1
     ],
     [
      68,
      1,
      3
     ],
     [
      75,
      1,
      2
     ],
     [
      76,
      1,
      9
     ],
     [
      77,
      48,
      10
     ],
     [
      125,
      1,
      8
     ],
     [
      126,
      1,
      10
     ],
     [
      127,
      1,
      8
     ],
     [
      128,
      1,
      3
     ],
     [
      129,
      1,
      8
     ],
     [
      130,
      84,
      10
     ],
     [
      214,
      1,
      4
     ],
     [
      215,
      1,
      3
     ],
     [
      216,
      1,
      2
     ]
    ],
    "77": [
     [
      39,
      1,
      4
     ],
     [
      40,
      3,
      10
     ],
     [
      43,
      1,
      8
     ],
     [
      44,
      1,
      4
     ],
     [
      45,
      1,
      2
     ],
     [
      46,
      1,
      5
     ],
     [
      47,
      1,
      9
     ],
     [
      48,
      11,
      10
     ],
     [
      59,
      2,
      5
     ],
     [
      61,
      1,
      9
     ],
     [
      62,
      3,
      10
     ],
     [
      65,
      1,
      7
     ],
     [
      66,
      1,
      6
     ],
     [
      67,
      1,
      2
     ],
     [
      72,
      1,
      1
     ],
     [
      76,
      1,
      1
     ],
     [
      77,
      1,
      8
     ],
     [
      78,
      49,
      10
     ],
     [
      127,
      1,
      9
     ],
     [
      128,
      1,
      2
     ],
     [
      130,
      1,
      7
     ],
     [
      131,
      83,
      10
     ],
     [
      216,
      1,
      2
     ],
     [
      217,
      2,
      4
     ],
     [
      219,
      1,
      1
     ]
    ],
    "78": [
     [
      39,
      1,
      1
     ],
     [
      40,
      2,
      10
     ],
     [
      42,
      1,
      6
     ],
     [
      43,
      1,
      2
     ],
     [
      48,
      1,
      9
     ],
     [
      49,
      10,
      10
     ],
     [
      59,
      1,
      2
     ],
     [
      61,
      1,
      7
     ],
     [
      62,
      3,
      10
     ],
     [
      65,
      1,
      9
     ],
     [
      66,
      1,
      4
     ],
     [
      67,
      1,
      5
     ],
     [
      68,
      1,
      10
     ],
     [
      69,
      1,
      5
     ],
     [
      76,
      1,
      3
     ],
     [
      77,
      3,
      10
     ],
     [
      80,
      1,
      7
     ],
     [
      81,
      1,
      1
     ],
     [
      83,
      1,
      2
     ],
     [
      84,
      1,
      8
     ],
     [
      85,
      43,
      10
     ],
     [
      128,
      1,
      9
     ],
     [
      129,
      1,
      8
     ],
     [
      130,
      1,
      9
     ],
     [
      131,
      83,
      10
     ],
     [
      214,
      1,
      7
     ],
     [
      215,
      1,
      3
     ],
     [
      217,
      1,
      6
     ],
     [
      218,
      1,
      10
     ],
     [
      219,
      1,
      3
     ]
    ],
    "79": [
     [
      41,
      1,
      9
     ],
     [
      42,
      1,
      2
     ],
     [
      48,
      1,
      2
     ],
     [
      49,
      1,
      3
     ],
     [
      50,
      1,
      2
     ],
     [
      51,
      9,
      10
     ],
     [
      60,
      1,
      7
     ],
     [
      61,
      1,
      9
     ],
     [
      62,
      3,
      10
     ],
     [
      65,
      1,
      7
     ],
     [
      68,
      1,
      7
     ],
     [
      69,
      1,
      10
     ],
     [
      70,
      1,
      7
     ],
     [
      71,
      1,
      4
     ],
     [
      76,
      1,
      2
     ],
     [
      77,
      1,
      5
     ],
     [
      78,
      1,
      10
     ],
     [
      79,
      1,
      3
     ],
     [
      80,
      1,
      1
     ],
     [
      83,
      1,
      1
     ],
     [
      84,
      132,
      10
     ],
     [
      216,
      1,
      6
     ],
     [
      217,
      1,
      8
     ],
     [
      218,
      1,
      10
     ],
     [
      219,
      1,
      8
     ],
     [
      220,
      1,
      4
     ],
     [
      221,
      1,
      3
     ],
     [
      222,
      1,
      2
     ],
     [
      223,
      1,
      5
     ],
     [
      225,
      1,
      2
     ]
    ],
    "80": [
     [
      51,
      1,
      3
     ],
     [
      52,
      1,
      5
     ],
     [
      53,
      1,
      9
     ],
     [
      54,
      12,
      10
     ],
     [
      66,
      1,
      7
     ],
     [
      67,
      1,
      3
     ],
     [
      68,
      1,
      8
     ],
     [
      69,
      2,
      10
     ],
     [
      71,
      1,
      8
     ],
     [
      78,
      3,
      3
     ],
     [
      81,
      1,
      4
     ],
     [
      82,
      2,
      7
     ],
     [
      84,
      53,
      10
     ],
     [
      137,
      1,
      4
     ],
     [
      138,
      1,
      2
     ],
     [
      139,
      1,
      4
     ],
     [
      140,
      78,
      10
     ],
     [
      218,
      1,
      9
     ],
     [
      219,
      1,
      7
     ],
     [
      220,
      1,
      8
     ],
     [
      221,
      2,
      10
     ],
     [
      223,
      1,
      9
     ]
    ],
    "81": [
     [
      53,
      1,
      4
     ],
     [
      54,
      1,
      3
     ],
     [
      55,
      1,
      5
     ],
     [
      56,
      1,
      8
     ],
     [
      57,
      1,
      3
     ],
     [
      59,
      1,
      8
     ],
     [
      60,
      12,
      10
     ],
     [
      72,
      1,
      7
     ],
     [
      79,
      1,
      6
     ],
     [
      80,
      1,
      9
     ],
     [
      81,
      1,
      5
     ],
     [
      82,
      1,
      3
     ],
     [
      83,
      1,
      7
     ],
     [
      84,
      52,
      10
     ],
     [
      136,
      1,
      7
     ],
     [
      139,
      1,
      4
     ],
     [
      140,
      78,
      10
     ],
     [
      218,
      1,
      6
     ],
     [
      221,
      1,
      9
     ],
     [
      222,
      1,
      10
     ],
     [
      223,
      1,
      9
     ],
     [
      224,
      1,
      4
     ],
     [
      225,
      1,
      1
     ],
     [
      226,
      1,
      8
     ],
     [
      227,
      1,
      2
     ]
    ],
    "82": [
     [
      59,
      1,
      6
     ],
     [
      60,
      12,
      10
     ],
     [
      72,
      1,
      9
     ],
     [
      73,
      1,
      2
     ],
     [
      83,
      1,
      7
     ],
     [
      84,
      52,
      10
     ],
     [
      136,
      1,
      8
     ],
     [
      139,
      1,
      9
     ],
     [
      140,
      79,
      10
     ],
     [
      219,
      1,
      9
     ],
     [
      220,
      1,
      7
     ],
     [
      221,
      3,
      10
     ],
     [
      224,
      1,
      9
     ],
     [
      225,
      1,
      4
     ],
     [
      226,
      1,
      2
     ]
    ],
    "83": [
     [
      54,
      1,
      5
     ],
     [
      55,
      1,
      9
     ],
     [
      58,
      1,
      2
     ],
     [
      59,
      1,
      7
     ],
     [
      60,
      10,
      10
     ],
     [
      70,
      1,
      8
     ],
     [
      71,
      1,
      2
     ],
     [
      75,
      1,
      3
     ],
     [
      76,
      1,
      2
     ],
     [
      83,
      1,
      9
     ],
     [
      84,
      53,
      10
     ],
     [
      137,
      1,
      5
     ],
     [
      138,
      1,
      6
     ],
     [
      139,
      86,
      10
     ],
     [
      225,
      1,
      7
     ],
     [
      226,
      1,
      1
     ]
    ],
    "84": [
     [
      52,
      1,
      5
     ],
     [
      53,
      1,
      2
     ],
     [
      54,
      1,
      8
     ],
     [
      55,
      1,
      7
     ],
     [
      60,
      1,
      2
     ],
     [
      61,
      6,
      10
     ],
     [
      67,
      1,
      7
     ],
     [
      68,
      1,
      4
     ],
     [
      69,
      1,
      1
     ],
     [
      74,
      2,
      2
     ],
     [
      76,
      1,
      1
     ],
     [
      80,
      1,
      1
     ],
     [
      81,
      1,
      7
     ],
     [
      82,
      69,
      10
     ],
     [
      151,
      1,
      8
     ],
     [
      152,
      1,
      5
     ],
     [
      153,
      1,
      9
     ],
     [
      154,
      72,
      10
     ],
     [
      226,
      1,
      4
     ]
    ],
    "85": [
     [
      52,
      1,
      2
     ],
     [
      53,
      1,
      7
     ],
     [
      54,
      1,
      8
     ],
     [
      55,
      1,
      10
     ],
     [
      56,
      1,
      4
     ],
     [
      61,
      1,
      7
     ],
     [
      62,
      2,
      10
     ],
     [
      64,
      1,
      6
     ],
     [
      66,
      1,
      2
     ],
     [
      67,
      1,
      1
     ],
     [
      70,
      1,
      1
     ],
     [
      72,
      1,
      1
     ],
     [
      78,
      1,
      1
     ],
     [
      79,
      72,
      10
     ],
     [
      151,
      1,
      6
     ],
     [
      154,
      1,
      8
     ],
     [
      155,
      71,
      10
     ],
     [
      226,
      1,
      6
     ]
    ],
    "86": [
     [
      54,
      1,
      3
     ],
     [
      55,
      1,
      5
     ],
     [
      62,
      1,
      8
     ],
     [
      63,
      1,
      10
     ],
     [
      64,
      1,
      8
     ],
     [
      65,
      1,
      4
     ],
     [
      70,
      1,
      5
     ],
     [
      71,
      2,
      10
     ],
     [
      73,
      1,
      5
     ],
     [
      74,
      2,
      4
     ],
     [
      76,
      2,
      7
     ],
     [
      78,
      1,
      4
     ],
     [
      79,
      1,
      8
     ],
     [
      80,
      72,
      10
     ],
     [
      152,
      1,
      7
     ],
     [
      154,
      1,
      1
     ],
     [
      155,
      1,
      2
     ],
     [
      156,
      1,
      7
     ],
     [
      157,
      69,
      10
     ],
     [
      226,
      1,
      2
     ]
    ],
    "87": [
     [
      62,
      1,
      9
     ],
     [
      63,
      4,
      10
     ],
     [
      67,
      1,
      9
     ],
     [
      68,
      2,
      7
     ],
     [
      70,
      1,
      9
     ],
     [
      71,
      6,
      10
     ],
     [
      77,
      1,
      4
     ],
     [
      80,
      1,
      6
     ],
     [
      81,
      72,
      10
     ],
     [
      153,
      1,
      6
     ],
     [
      156,
      1,
      1
     ],
     [
      157,
      69,
      10
     ],
     [
      226,
      1,
      5
     ],
     [
      227,
      1,
      4
     ]
    ],
    "88": [
     [
      63,
      14,
      10
     ],
     [
      77,
      1,
      8
     ],
     [
      79,
      1,
      2
     ],
     [
      80,
      1,
      9
     ],
     [
      81,
      72,
      10
     ],
     [
      153,
      1,
      8
     ],
     [
      156,
      1,
      1
     ],
     [
      157,
      1,
      9
     ],
     [
      158,
      67,
      10
     ],
     [
      225,
      1,
      8
     ],
     [
      226,
      1,
      2
     ]
    ],
    "89": [
     [
      63,
      91,
      10
     ],
     [
      154,
      1,
      8
     ],
     [
      155,
      1,
      1
     ],
     [
      158,
      67,
      10
     ],
     [
      225,
      1,
      7
     ],
     [
      226,
      1,
      1
     ],
     [
      227,
      1,
      4
     ],
     [
      228,
      1,
      6
     ],
     [
      229,
      1,
      4
     ]
    ],
    "90": [
     [
      62,
      1,
      3
     ],
     [
      63,
      93,
      10
     ],
     [
      156,
      1,
      8
     ],
     [
      157,
      1,
      5
     ],
     [
      158,
      70,
      10
     ],
     [
      228,
      1,
      5
     ]
    ],
    "91": [
     [
      61,
      1,
      2
     ],
     [
      62,
      1,
      9
     ],
     [
      63,
      17,
      10
     ],
     [
      80,
      1,
      6
     ],
     [
      81,
      2,
      2
     ],
     [
      83,
      144,
      10
     ],
     [
      227,
      1,
      8
     ],
     [
      230,
      1,
      1
     ],
     [
      232,
      1,
      1
     ]
    ],
    "92": [
     [
      60,
      1,
      2
     ],
     [
      61,
      1,
      9
     ],
     [
      62,
      18,
      10
     ],
     [
      80,
      1,
      1
     ],
     [
      81,
      1,
      4
     ],
     [
      82,
      1,
      2
     ],
     [
      83,
      143,
      10
     ],
     [
      226,
      2,
      6
     ],
     [
      228,
      1,
      3
     ],
     [
      230,
      1,
      4
     ],
     [
      231,
      2,
      9
     ],
     [
      233,
      1,
      7
     ],
     [
      234,
      1,
      2
     ]
    ],
    "93": [
     [
      60,
      1,
      7
     ],
     [
      61,
      164,
      10
     ],
     [
      225,
      1,
      9
     ],
     [
      228,
      1,
      3
     ],
     [
      229,
      1,
      7
     ],
     [
      230,
      1,
      9
     ],
     [
      231,
      2,
      10
     ],
     [
      233,
      1,
      4
     ]
    ],
    "94": [
     [
      59,
      1,
      3
     ],
     [
      60,
      4,
      10
     ],
     [
      64,
      2,
      8
     ],
     [
      66,
      1,
      7
     ],
     [
      67,
      160,
      10
     ],
     [
      227,
      1,
      8
     ],
     [
      228,
      5,
      10
     ],
     [
      233,
      1,
      2
     ]
    ],
    "95": [
     [
      57,
      1,
      2
     ],
     [
      58,
      1,
      3
     ],
     [
      59,
      1,
      5
     ],
     [
      60,
      2,
      10
     ],
     [
      62,
      1,
      6
     ],
     [
      63,
      1,
      3
     ],
     [
      64,
      1,
      1
     ],
     [
      67,
      1,
      2
     ],
     [
      68,
      2,
      8
     ],
     [
      70,
      1,
      10
     ],
     [
      71,
      1,
      9
     ],
     [
      72,
      2,
      2
     ],
     [
      74,
      1,
      6
     ],
     [
      75,
      157,
      10
     ],
     [
      232,
      1,
      5
     ],
     [
      233,
      1,
      1
     ],
     [
      235,
      1,
      2
     ]
    ],
    "96": [
     [
      60,
      1,
      3
     ],
     [
      61,
      1,
      2
     ],
     [
      69,
      1,
      1
     ],
     [
      70,
      1,
      5
     ],
     [
      71,
      1,
      1
     ],
     [
      75,
      1,
      5
     ],
     [
      76,
      155,
      10
     ],
     [
      233,
      1,
      7
     ],
     [
      236,
      1,
      1
     ]
    ],
    "97": [
     [
      73,
      1,
      1
     ],
     [
      74,
      1,
      5
     ],
     [
      75,
      1,
      8
     ],
     [
      76,
      154,
      10
     ],
     [
      230,
      1,
      9
     ],
     [
      231,
      1,
      4
     ],
     [
      232,
      1,
      6
     ],
     [
      233,
      1,
      3
     ],
     [
      236,
      1,
      4
     ]
    ],
    "98": [
     [
      73,
      1,
      3
     ],
     [
      74,
      1,
      6
     ],
     [
      75,
      1,
      8
     ],
     [
      76,
      155,
      10
     ],
     [
      231,
      1,
      8
     ],
     [
      232,
      1,
      3
     ],
     [
      233,
      1,
      1
     ],
     [
      236,
      1,
      2
     ]
    ],
    "99": [
     [
      70,
      1,
      2
     ],
     [
      71,
      1,
      1
     ],
     [
      75,
      1,
      1
     ],
     [
      76,
      1,
      5
     ],
     [
      77,
      154,
      10
     ],
     [
      231,
      1,
      6
     ],
     [
      234,
      1,
      1
     ],
     [
      235,
      1,
      4
     ],
     [
      236,
      1,
      2
     ]
    ],
    "100": [
     [
      70,
      1,
      6
     ],
     [
      71,
      1,
      10
     ],
     [
      72,
      1,
      3
     ],
     [
      76,
      1,
      3
     ],
     [
      77,
      155,
      10
     ],
     [
      232,
      1,
      4
     ],
     [
      234,
      1,
      2
     ],
     [
      235,
      1,
      3
     ],
     [
      236,
      1,
      2
     ]
    ],
    "101": [
     [
      67,
      1,
      2
     ],
     [
      68,
      1,
      3
     ],
     [
      69,
      1,
      4
     ],
     [
      70,
      2,
      10
     ],
     [
      72,
      1,
      8
     ],
     [
      73,
      2,
      6
     ],
     [
      75,
      157,
      10
     ],
     [
      232,
      1,
      5
     ]
    ],
    "102": [
     [
      68,
      1,
      5
     ],
     [
      69,
      163,
      10
     ],
     [
      232,
      1,
      8
     ]
    ],
    "103": [
     [
      68,
      1,
      6
     ],
     [
      69,
      163,
      10
     ],
     [
      232,
      1,
      9
     ],
     [
      233,
      1,
      1
     ]
    ],
    "104": [
     [
      67,
      1,
      3
     ],
     [
      68,
      166,
      10
     ],
     [
      236,
      1,
      3
     ]
    ],
    "105": [
     [
      66,
      1,
      1
     ],
     [
      67,
      1,
      3
     ],
     [
      68,
      166,
      10
     ],
     [
      234,
      1,
      3
     ],
     [
      235,
      1,
      1
     ],
     [
      236,
      1,
      7
     ],
     [
      237,
      1,
      4
     ],
     [
      238,
      2,
      1
     ],
     [
      240,
      1,
      2
     ]
    ],
    "106": [
     [
      66,
      1,
      1
     ],
     [
      67,
      1,
      9
     ],
     [
      68,
      165,
      10
     ],
     [
      233,
      1,
      2
     ],
     [
      234,
      1,
      3
     ],
     [
      235,
      1,
      4
     ],
     [
      236,
      1,
      5
     ],
     [
      237,
      1,
      2
     ],
     [
      238,
      1,
      1
     ]
    ],
    "107": [
     [
      68,
      1,
      6
     ],
     [
      69,
      1,
      8
     ],
     [
      70,
      162,
      10
     ],
     [
      232,
      1,
      9
     ],
     [
      233,
      1,
      8
     ],
     [
      234,
      1,
      2
     ]
    ],
    "108": [
     [
      69,
      1,
      4
     ],
     [
      70,
      164,
      10
     ],
     [
      234,
      1,
      7
     ],
     [
      235,
      1,
      3
     ]
    ],
    "109": [
     [
      69,
      166,
      10
     ],
     [
      235,
      1,
      6
     ]
    ],
    "110": [
     [
      69,
      1,
      7
     ],
     [
      70,
      165,
      10
     ],
     [
      235,
      1,
      8
     ],
     [
      236,
      1,
      3
     ],
     [
      237,
      1,
      5
     ],
     [
      238,
      1,
      4
     ]
    ],
    "111": [
     [
      70,
      1,
      5
     ],
     [
      71,
      167,
      10
     ],
     [
      238,
      1,
      1
     ]
    ],
    "112": [
     [
      70,
      1,
      2
     ],
     [
      71,
      44,
      10
     ],
     [
      115,
      1,
      6
     ],
     [
      116,
      1,
      3
     ],
     [
      117,
      1,
      8
     ],
     [
      118,
      119,
      10
     ],
     [
      237,
      1,
      9
     ]
    ],
    "113": [
     [
      69,
      1,
      8
     ],
     [
      70,
      1,
      9
     ],
     [
      71,
      43,
      10
     ],
     [
      114,
      1,
      8
     ],
     [
      117,
      1,
      1
     ],
     [
      118,
      120,
      10
     ],
     [
      238,
      1,
      2
     ],
     [
      240,
      1,
      4
     ],
     [
      241,
      1,
      1
     ]
    ],
    "114": [
     [
      66,
      1,
      4
     ],
     [
      67,
      1,
      2
     ],
     [
      69,
      2,
      7
     ],
     [
      71,
      2,
      6
     ],
     [
      73,
      41,
      10
     ],
     [
      114,
      1,
      9
     ],
     [
      115,
      1,
      3
     ],
     [
      117,
      1,
      4
     ],
     [
      118,
      120,
      10
     ],
     [
      238,
      1,
      9
     ],
     [
      239,
      1,
      6
     ],
     [
      240,
      1,
      5
     ]
    ],
    "115": [
     [
      66,
      1,
      2
     ],
     [
      67,
      1,
      1
     ],
     [
      73,
      167,
      10
     ],
     [
      240,
      1,
      2
     ]
    ],
    "116": [
     [
      70,
      1,
      1
     ],
     [
      71,
      1,
      5
     ],
     [
      72,
      1,
      8
     ],
     [
      73,
      167,
      10
     ],
     [
      240,
      1,
      7
     ]
    ],
    "117": [
     [
      69,
      1,
      5
     ],
     [
      70,
      170,
      10
     ],
     [
      240,
      1,
      5
     ]
    ],
    "118": [
     [
      57,
      1,
      1
     ],
     [
      68,
      1,
      5
     ],
     [
      69,
      169,
      10
     ],
     [
      238,
      1,
      4
     ],
     [
      239,
      1,
      6
     ],
     [
      240,
      1,
      4
     ]
    ],
    "119": [
     [
      58,
      1,
      6
     ],
     [
      68,
      1,
      2
     ],
     [
      69,
      168,
      10
     ],
     [
      237,
      1,
      9
     ]
    ],
    "120": [
     [
      57,
      1,
      3
     ],
     [
      58,
      2,
      1
     ],
     [
      67,
      1,
      3
     ],
     [
      68,
      1,
      8
     ],
     [
      69,
      170,
      10
     ]
    ],
    "121": [
     [
      64,
      1,
      1
     ],
     [
      65,
      1,
      10
     ],
     [
      66,
      1,
      7
     ],
     [
      67,
      1,
      9
     ],
     [
      68,
      171,
      10
     ],
     [
      239,
      1,
      3
     ]
    ],
    "122": [
     [
      63,
      1,
      6
     ],
     [
      64,
      1,
      10
     ],
     [
      65,
      1,
      8
     ],
     [
      66,
      1,
      7
     ],
     [
      67,
      1,
      9
     ],
     [
      68,
      171,
      10
     ],
     [
      239,
      1,
      8
     ],
     [
      240,
      1,
      2
     ]
    ],
    "123": [
     [
      63,
      1,
      1
     ],
     [
      64,
      1,
      8
     ],
     [
      67,
      1,
      2
     ],
     [
      68,
      55,
      10
     ],
     [
      123,
      2,
      4
     ],
     [
      125,
      1,
      8
     ],
     [
      126,
      115,
      10
     ],
     [
      241,
      1,
      4
     ]
    ],
    "124": [
     [
      64,
      1,
      8
     ],
     [
      67,
      1,
      3
     ],
     [
      68,
      55,
      10
     ],
     [
      124,
      1,
      1
     ],
     [
      125,
      117,
      10
     ],
     [
      242,
      1,
      7
     ],
     [
      243,
      1,
      2
     ]
    ],
    "125": [
     [
      68,
      54,
      10
     ],
     [
      122,
      1,
      9
     ],
     [
      123,
      2,
      8
     ],
     [
      125,
      117,
      10
     ]
    ],
    "126": [
     [
      75,
      167,
      10
     ],
     [
      242,
      1,
      2
     ]
    ],
    "127": [
     [
      82,
      160,
      10
     ],
     [
      242,
      1,
      5
     ]
    ],
    "128": [
     [
      89,
      154,
      10
     ],
     [
      243,
      1,
      3
     ]
    ],
    "129": [
     [
      96,
      148,
      10
     ],
     [
      244,
      1,
      6
     ]
    ],
    "130": [
     [
      103,
      141,
      10
     ],
     [
      244,
      1,
      4
     ]
    ],
    "131": [
     [
      110,
      134,
      10
     ],
     [
      244,
      1,
      2
     ]
    ],
    "132": [
     [
      117,
      127,
      10
     ],
     [
      244,
      1,
      6
     ]
    ],
    "133": [
     [
      124,
      120,
      10
     ],
     [
      244,
      1,
      7
     ]
    ],
    "134": [
     [
      131,
      113,
      10
     ],
     [
      244,
      1,
      9
     ]
    ],
    "135": [
     [
      139,
      105,
      10
     ],
     [
      244,
      1,
      8
     ],
     [
      245,
      1,
      4
     ]
    ],
    "136": [
     [
      146,
      99,
      10
     ],
     [
      245,
      1,
      6
     ]
    ],
    "137": [
     [
      153,
      92,
      10
     ],
     [
      245,
      1,
      9
     ],
     [
      246,
      1,
      2
     ]
    ],
    "138": [
     [
      160,
      86,
      10
     ],
     [
      246,
      1,
      3
     ]
    ],
    "139": [
     [
      168,
      78,
      10
     ],
     [
      246,
      1,
      8
     ]
    ],
    "140": [
     [
      175,
      71,
      10
     ],
     [
      246,
      1,
      4
     ]
    ],
    "141": [
     [
      182,
      63,
      10
     ],
     [
      245,
      1,
      8
     ]
    ],
    "142": [
     [
      190,
      55,
      10
     ],
     [
      245,
      1,
      6
     ],
     [
      246,
      1,
      1
     ]
    ],
    "143": [
     [
      197,
      49,
      10
     ],
     [
      246,
      1,
      3
     ]
    ],
    "144": [
     [
      204,
      42,
      10
     ],
     [
      246,
      1,
      1
     ]
    ],
    "145": [
     [
      212,
      34,
      10
     ]
    ],
    "146": [
     [
      220,
      25,
      10
     ],
     [
      245,
      1,
      7
     ]
    ],
    "147": [
     [
      227,
      18,
      10
     ],
     [
      245,
      1,
      4
     ]
    ],
    "148": [
     [
      235,
      10,
      10
     ],
     [
      245,
      1,
      4
     ]
    ],
    "149": [
     [
      242,
      3,
      10
     ]
    ]
   }
  },
  "clutter_headroom": 19.78,
  "clutter_at_floor": 0.448,
  "clutter_verdict": "vessels present",
  "detection_rate": 1.0,
  "n_detections": 19,
  "n_reports": 1,
  "n_reports_with_fix": 1,
  "n_matched": 1,
  "n_reports_unsearched": 17,
  "n_reports_marginal": 0,
  "unsearched_by_length": {
   "<25 m": 12,
   "25-50 m": 0,
   "50-100 m": 0,
   "100-200 m": 1,
   ">200 m": 1,
   "unknown": 3
  },
  "k_sigma_match": 3.0,
  "gate_min_snr": 15.0,
  "gate_min_pixels": 6,
  "n_detections_before_gate": 232,
  "ais_window_s": 1800.0,
  "calibration": {
   "detectable_length_m": 25.0,
   "max_chance_match": 0.05,
   "density_per_km2": 0.00143,
   "max_scorable_radius_m": 3374,
   "n_unscorable": 0,
   "n_unscorable_matched": 0,
   "expected_chance_matches": 0.0,
   "strata": {
    ">=25 m": {
     "found": 1,
     "scored": 1,
     "rate": 1.0,
     "ci95": [
      0.2065,
      1.0
     ]
    },
    "<25 m": {
     "found": 0,
     "scored": 0,
     "rate": null,
     "ci95": [
      null,
      null
     ]
    },
    "unknown length": {
     "found": 0,
     "scored": 0,
     "rate": null,
     "ci95": [
      null,
      null
     ]
    },
    "all scored": {
     "found": 1,
     "scored": 1,
     "rate": 1.0,
     "ci95": [
      0.2065,
      1.0
     ]
    }
   },
   "curve_edges_m": [
    0.0,
    15.0,
    25.0,
    50.0,
    100.0
   ],
   "curve": {
    "0-15 m": {
     "found": 0,
     "scored": 0,
     "rate": null,
     "ci95": [
      null,
      null
     ]
    },
    "15-25 m": {
     "found": 0,
     "scored": 0,
     "rate": null,
     "ci95": [
      null,
      null
     ]
    },
    "25-50 m": {
     "found": 1,
     "scored": 1,
     "rate": 1.0,
     "ci95": [
      0.2065,
      1.0
     ]
    },
    "50-100 m": {
     "found": 0,
     "scored": 0,
     "rate": null,
     "ci95": [
      null,
      null
     ]
    },
    ">100 m": {
     "found": 0,
     "scored": 0,
     "rate": null,
     "ci95": [
      null,
      null
     ]
    },
    "unknown": {
     "found": 0,
     "scored": 0,
     "rate": null,
     "ci95": [
      null,
      null
     ]
    }
   }
  }
 },
 "features": [
  {
   "type": "Feature",
   "geometry": {
    "type": "Point",
    "coordinates": [
     -74.0274193983762,
     36.011826332368535
    ]
   },
   "properties": {
    "kind": "unmatched",
    "domain": "sea",
    "t_start": "2024-05-28T22:58:14+00:00",
    "t_end": "2024-05-28T22:58:14+00:00",
    "duration_s": 0.0,
    "confidence": 0.95,
    "platform_ids": [],
    "evidence": {
     "sensor": "sentinel1-vv-cfar",
     "detector_confidence": 0.95,
     "detection_rate_this_pass": 1.0,
     "reports_considered": 1,
     "reports_with_a_fix": 1,
     "search_radius_m": 141.9,
     "snr": 19.42,
     "length_m_approx": 56.6,
     "pixels": 32,
     "scene": "S1A_IW_GRDH_1SDV_20240528T225814_20240528T225843_054078_069350_0BF8_COG.SAFE"
    }
   }
  },
  {
   "type": "Feature",
   "geometry": {
    "type": "Point",
    "coordinates": [
     -74.98218190525506,
     36.06481761527618
    ]
   },
   "properties": {
    "kind": "unmatched",
    "domain": "sea",
    "t_start": "2024-05-28T22:58:14+00:00",
    "t_end": "2024-05-28T22:58:14+00:00",
    "duration_s": 0.0,
    "confidence": 0.95,
    "platform_ids": [],
    "evidence": {
     "sensor": "sentinel1-vv-cfar",
     "detector_confidence": 0.95,
     "detection_rate_this_pass": 1.0,
     "reports_considered": 1,
     "reports_with_a_fix": 1,
     "search_radius_m": 177.0,
     "snr": 82.99,
     "length_m_approx": 75.5,
     "pixels": 57,
     "scene": "S1A_IW_GRDH_1SDV_20240528T225814_20240528T225843_054078_069350_0BF8_COG.SAFE"
    }
   }
  },
  {
   "type": "Feature",
   "geometry": {
    "type": "Point",
    "coordinates": [
     -75.24934353257946,
     36.22670309049928
    ]
   },
   "properties": {
    "kind": "unmatched",
    "domain": "sea",
    "t_start": "2024-05-28T22:58:14+00:00",
    "t_end": "2024-05-28T22:58:14+00:00",
    "duration_s": 0.0,
    "confidence": 0.95,
    "platform_ids": [],
    "evidence": {
     "sensor": "sentinel1-vv-cfar",
     "detector_confidence": 0.95,
     "detection_rate_this_pass": 1.0,
     "reports_considered": 1,
     "reports_with_a_fix": 1,
     "search_radius_m": 196.5,
     "snr": 118.7,
     "length_m_approx": 85.4,
     "pixels": 73,
     "scene": "S1A_IW_GRDH_1SDV_20240528T225814_20240528T225843_054078_069350_0BF8_COG.SAFE"
    }
   }
  },
  {
   "type": "Feature",
   "geometry": {
    "type": "Point",
    "coordinates": [
     -74.8203324439411,
     36.17508397028456
    ]
   },
   "properties": {
    "kind": "unmatched",
    "domain": "sea",
    "t_start": "2024-05-28T22:58:14+00:00",
    "t_end": "2024-05-28T22:58:14+00:00",
    "duration_s": 0.0,
    "confidence": 0.95,
    "platform_ids": [],
    "evidence": {
     "sensor": "sentinel1-vv-cfar",
     "detector_confidence": 0.95,
     "detection_rate_this_pass": 1.0,
     "reports_considered": 1,
     "reports_with_a_fix": 1,
     "search_radius_m": 101.2,
     "snr": 23.15,
     "length_m_approx": 31.6,
     "pixels": 10,
     "scene": "S1A_IW_GRDH_1SDV_20240528T225814_20240528T225843_054078_069350_0BF8_COG.SAFE"
    }
   }
  },
  {
   "type": "Feature",
   "geometry": {
    "type": "Point",
    "coordinates": [
     -74.70666160945424,
     36.345071002350686
    ]
   },
   "properties": {
    "kind": "unmatched",
    "domain": "sea",
    "t_start": "2024-05-28T22:58:14+00:00",
    "t_end": "2024-05-28T22:58:14+00:00",
    "duration_s": 0.0,
    "confidence": 0.95,
    "platform_ids": [],
    "evidence": {
     "sensor": "sentinel1-vv-cfar",
     "detector_confidence": 0.95,
     "detection_rate_this_pass": 1.0,
     "reports_considered": 1,
     "reports_with_a_fix": 1,
     "search_radius_m": 183.6,
     "snr": 25.2,
     "length_m_approx": 78.7,
     "pixels": 62,
     "scene": "S1A_IW_GRDH_1SDV_20240528T225814_20240528T225843_054078_069350_0BF8_COG.SAFE"
    }
   }
  },
  {
   "type": "Feature",
   "geometry": {
    "type": "Point",
    "coordinates": [
     -74.3955461529248,
     36.37429213284623
    ]
   },
   "properties": {
    "kind": "unmatched",
    "domain": "sea",
    "t_start": "2024-05-28T22:58:14+00:00",
    "t_end": "2024-05-28T22:58:14+00:00",
    "duration_s": 0.0,
    "confidence": 0.95,
    "platform_ids": [],
    "evidence": {
     "sensor": "sentinel1-vv-cfar",
     "detector_confidence": 0.95,
     "detection_rate_this_pass": 1.0,
     "reports_considered": 1,
     "reports_with_a_fix": 1,
     "search_radius_m": 128.5,
     "snr": 20.59,
     "length_m_approx": 49.0,
     "pixels": 24,
     "scene": "S1A_IW_GRDH_1SDV_20240528T225814_20240528T225843_054078_069350_0BF8_COG.SAFE"
    }
   }
  },
  {
   "type": "Feature",
   "geometry": {
    "type": "Point",
    "coordinates": [
     -74.11152325744538,
     36.450553388792635
    ]
   },
   "properties": {
    "kind": "unmatched",
    "domain": "sea",
    "t_start": "2024-05-28T22:58:14+00:00",
    "t_end": "2024-05-28T22:58:14+00:00",
    "duration_s": 0.0,
    "confidence": 0.798,
    "platform_ids": [],
    "evidence": {
     "sensor": "sentinel1-vv-cfar",
     "detector_confidence": 0.798,
     "detection_rate_this_pass": 1.0,
     "reports_considered": 1,
     "reports_with_a_fix": 1,
     "search_radius_m": 169.4,
     "snr": 15.95,
     "length_m_approx": 71.4,
     "pixels": 51,
     "scene": "S1A_IW_GRDH_1SDV_20240528T225814_20240528T225843_054078_069350_0BF8_COG.SAFE"
    }
   }
  },
  {
   "type": "Feature",
   "geometry": {
    "type": "Point",
    "coordinates": [
     -74.72584853521394,
     36.42765557773082
    ]
   },
   "properties": {
    "kind": "unmatched",
    "domain": "sea",
    "t_start": "2024-05-28T22:58:14+00:00",
    "t_end": "2024-05-28T22:58:14+00:00",
    "duration_s": 0.0,
    "confidence": 0.95,
    "platform_ids": [],
    "evidence": {
     "sensor": "sentinel1-vv-cfar",
     "detector_confidence": 0.95,
     "detection_rate_this_pass": 1.0,
     "reports_considered": 1,
     "reports_with_a_fix": 1,
     "search_radius_m": 384.1,
     "snr": 81.31,
     "length_m_approx": 177.5,
     "pixels": 315,
     "scene": "S1A_IW_GRDH_1SDV_20240528T225814_20240528T225843_054078_069350_0BF8_COG.SAFE"
    }
   }
  },
  {
   "type": "Feature",
   "geometry": {
    "type": "Point",
    "coordinates": [
     -74.75269617663125,
     36.55121054039479
    ]
   },
   "properties": {
    "kind": "unmatched",
    "domain": "sea",
    "t_start": "2024-05-28T22:58:14+00:00",
    "t_end": "2024-05-28T22:58:14+00:00",
    "duration_s": 0.0,
    "confidence": 0.95,
    "platform_ids": [],
    "evidence": {
     "sensor": "sentinel1-vv-cfar",
     "detector_confidence": 0.95,
     "detection_rate_this_pass": 1.0,
     "reports_considered": 1,
     "reports_with_a_fix": 1,
     "search_radius_m": 271.5,
     "snr": 57.72,
     "length_m_approx": 122.9,
     "pixels": 151,
     "scene": "S1A_IW_GRDH_1SDV_20240528T225814_20240528T225843_054078_069350_0BF8_COG.SAFE"
    }
   }
  },
  {
   "type": "Feature",
   "geometry": {
    "type": "Point",
    "coordinates": [
     -74.74427853196273,
     36.51003563305434
    ]
   },
   "properties": {
    "kind": "unmatched",
    "domain": "sea",
    "t_start": "2024-05-28T22:58:14+00:00",
    "t_end": "2024-05-28T22:58:14+00:00",
    "duration_s": 0.0,
    "confidence": 0.95,
    "platform_ids": [],
    "evidence": {
     "sensor": "sentinel1-vv-cfar",
     "detector_confidence": 0.95,
     "detection_rate_this_pass": 1.0,
     "reports_considered": 1,
     "reports_with_a_fix": 1,
     "search_radius_m": 213.0,
     "snr": 33.99,
     "length_m_approx": 93.8,
     "pixels": 88,
     "scene": "S1A_IW_GRDH_1SDV_20240528T225814_20240528T225843_054078_069350_0BF8_COG.SAFE"
    }
   }
  },
  {
   "type": "Feature",
   "geometry": {
    "type": "Point",
    "coordinates": [
     -74.74322156045565,
     36.509645682526916
    ]
   },
   "properties": {
    "kind": "unmatched",
    "domain": "sea",
    "t_start": "2024-05-28T22:58:14+00:00",
    "t_end": "2024-05-28T22:58:14+00:00",
    "duration_s": 0.0,
    "confidence": 0.95,
    "platform_ids": [],
    "evidence": {
     "sensor": "sentinel1-vv-cfar",
     "detector_confidence": 0.95,
     "detection_rate_this_pass": 1.0,
     "reports_considered": 1,
     "reports_with_a_fix": 1,
     "search_radius_m": 140.5,
     "snr": 29.42,
     "length_m_approx": 55.7,
     "pixels": 31,
     "scene": "S1A_IW_GRDH_1SDV_20240528T225814_20240528T225843_054078_069350_0BF8_COG.SAFE"
    }
   }
  },
  {
   "type": "Feature",
   "geometry": {
    "type": "Point",
    "coordinates": [
     -74.71596609081153,
     36.386423626010306
    ]
   },
   "properties": {
    "kind": "unmatched",
    "domain": "sea",
    "t_start": "2024-05-28T22:58:14+00:00",
    "t_end": "2024-05-28T22:58:14+00:00",
    "duration_s": 0.0,
    "confidence": 0.95,
    "platform_ids": [],
    "evidence": {
     "sensor": "sentinel1-vv-cfar",
     "detector_confidence": 0.95,
     "detection_rate_this_pass": 1.0,
     "reports_considered": 1,
     "reports_with_a_fix": 1,
     "search_radius_m": 149.6,
     "snr": 28.69,
     "length_m_approx": 60.8,
     "pixels": 37,
     "scene": "S1A_IW_GRDH_1SDV_20240528T225814_20240528T225843_054078_069350_0BF8_COG.SAFE"
    }
   }
  },
  {
   "type": "Feature",
   "geometry": {
    "type": "Point",
    "coordinates": [
     -74.74125295876547,
     36.41344260935708
    ]
   },
   "properties": {
    "kind": "unmatched",
    "domain": "sea",
    "t_start": "2024-05-28T22:58:14+00:00",
    "t_end": "2024-05-28T22:58:14+00:00",
    "duration_s": 0.0,
    "confidence": 0.794,
    "platform_ids": [],
    "evidence": {
     "sensor": "sentinel1-vv-cfar",
     "detector_confidence": 0.794,
     "detection_rate_this_pass": 1.0,
     "reports_considered": 1,
     "reports_with_a_fix": 1,
     "search_radius_m": 99.2,
     "snr": 15.88,
     "length_m_approx": 30.0,
     "pixels": 9,
     "scene": "S1A_IW_GRDH_1SDV_20240528T225814_20240528T225843_054078_069350_0BF8_COG.SAFE"
    }
   }
  },
  {
   "type": "Feature",
   "geometry": {
    "type": "Point",
    "coordinates": [
     -74.30475452452163,
     36.61337656310182
    ]
   },
   "properties": {
    "kind": "unmatched",
    "domain": "sea",
    "t_start": "2024-05-28T22:58:14+00:00",
    "t_end": "2024-05-28T22:58:14+00:00",
    "duration_s": 0.0,
    "confidence": 0.786,
    "platform_ids": [],
    "evidence": {
     "sensor": "sentinel1-vv-cfar",
     "detector_confidence": 0.786,
     "detection_rate_this_pass": 1.0,
     "reports_considered": 1,
     "reports_with_a_fix": 1,
     "search_radius_m": 121.4,
     "snr": 15.72,
     "length_m_approx": 44.7,
     "pixels": 20,
     "scene": "S1A_IW_GRDH_1SDV_20240528T225814_20240528T225843_054078_069350_0BF8_COG.SAFE"
    }
   }
  },
  {
   "type": "Feature",
   "geometry": {
    "type": "Point",
    "coordinates": [
     -74.73773757079415,
     36.627456848160904
    ]
   },
   "properties": {
    "kind": "unmatched",
    "domain": "sea",
    "t_start": "2024-05-28T22:58:14+00:00",
    "t_end": "2024-05-28T22:58:14+00:00",
    "duration_s": 0.0,
    "confidence": 0.95,
    "platform_ids": [],
    "evidence": {
     "sensor": "sentinel1-vv-cfar",
     "detector_confidence": 0.95,
     "detection_rate_this_pass": 1.0,
     "reports_considered": 1,
     "reports_with_a_fix": 1,
     "search_radius_m": 162.6,
     "snr": 84.78,
     "length_m_approx": 67.8,
     "pixels": 46,
     "scene": "S1A_IW_GRDH_1SDV_20240528T225814_20240528T225843_054078_069350_0BF8_COG.SAFE"
    }
   }
  },
  {
   "type": "Feature",
   "geometry": {
    "type": "Point",
    "coordinates": [
     -74.76184031730295,
     36.592528977310295
    ]
   },
   "properties": {
    "kind": "unmatched",
    "domain": "sea",
    "t_start": "2024-05-28T22:58:14+00:00",
    "t_end": "2024-05-28T22:58:14+00:00",
    "duration_s": 0.0,
    "confidence": 0.95,
    "platform_ids": [],
    "evidence": {
     "sensor": "sentinel1-vv-cfar",
     "detector_confidence": 0.95,
     "detection_rate_this_pass": 1.0,
     "reports_considered": 1,
     "reports_with_a_fix": 1,
     "search_radius_m": 164.1,
     "snr": 19.03,
     "length_m_approx": 68.6,
     "pixels": 47,
     "scene": "S1A_IW_GRDH_1SDV_20240528T225814_20240528T225843_054078_069350_0BF8_COG.SAFE"
    }
   }
  },
  {
   "type": "Feature",
   "geometry": {
    "type": "Point",
    "coordinates": [
     -74.76105338997513,
     36.59232685256525
    ]
   },
   "properties": {
    "kind": "unmatched",
    "domain": "sea",
    "t_start": "2024-05-28T22:58:14+00:00",
    "t_end": "2024-05-28T22:58:14+00:00",
    "duration_s": 0.0,
    "confidence": 0.769,
    "platform_ids": [],
    "evidence": {
     "sensor": "sentinel1-vv-cfar",
     "detector_confidence": 0.769,
     "detection_rate_this_pass": 1.0,
     "reports_considered": 1,
     "reports_with_a_fix": 1,
     "search_radius_m": 148.1,
     "snr": 15.38,
     "length_m_approx": 60.0,
     "pixels": 36,
     "scene": "S1A_IW_GRDH_1SDV_20240528T225814_20240528T225843_054078_069350_0BF8_COG.SAFE"
    }
   }
  },
  {
   "type": "Feature",
   "geometry": {
    "type": "Point",
    "coordinates": [
     -74.80655139701106,
     36.55658144599886
    ]
   },
   "properties": {
    "kind": "unmatched",
    "domain": "sea",
    "t_start": "2024-05-28T22:58:14+00:00",
    "t_end": "2024-05-28T22:58:14+00:00",
    "duration_s": 0.0,
    "confidence": 0.751,
    "platform_ids": [],
    "evidence": {
     "sensor": "sentinel1-vv-cfar",
     "detector_confidence": 0.751,
     "detection_rate_this_pass": 1.0,
     "reports_considered": 1,
     "reports_with_a_fix": 1,
     "search_radius_m": 245.5,
     "snr": 15.02,
     "length_m_approx": 110.0,
     "pixels": 121,
     "scene": "S1A_IW_GRDH_1SDV_20240528T225814_20240528T225843_054078_069350_0BF8_COG.SAFE"
    }
   }
  }
 ]
}