{
 "type": "FeatureCollection",
 "properties": {
  "scene": "S1A_IW_GRDH_1SDV_20240808T225840_20240808T225905_055128_06B7CB_5842_COG.SAFE",
  "acquired": "2024-08-08T22:58:40+00:00",
  "geolocation_rms_m": 3.1,
  "geolocation_holdout_m": 9.9,
  "geolocation_median_m": 10.0,
  "geolocation_p90_m": 10.8,
  "geolocation_worst_m": 49.4,
  "geolocation_uneven": true,
  "geolocation_convergence": 3.2,
  "geolocation_method": "geolocation grid (bilinear)",
  "geolocation_validation": "holdout at 2x spacing",
  "tiles": 117,
  "tiles_skipped": 0,
  "k_sigma": 6.0,
  "land_masked": true,
  "water_fraction": 0.64,
  "land_sea_contrast": 2.32,
  "coast_blind_m": 605.0,
  "searched_km2": 26895.1,
  "refused_km2": 0.0,
  "tiles_without_water": 30,
  "outside_aoi": 0,
  "aoi_sea": [
   -77.2,
   36.0,
   -71.0,
   39.6
  ],
  "footprint": [
   [
    -76.22364,
    36.42859
   ],
   [
    -75.9897,
    36.46452
   ],
   [
    -75.75551,
    36.50002
   ],
   [
    -75.52111,
    36.53508
   ],
   [
    -75.28648,
    36.56964
   ],
   [
    -75.05165,
    36.60376
   ],
   [
    -74.81663,
    36.63743
   ],
   [
    -74.58138,
    36.67061
   ],
   [
    -74.34595,
    36.70334
   ],
   [
    -74.11032,
    36.73562
   ],
   [
    -73.87448,
    36.7674
   ],
   [
    -73.63846,
    36.79874
   ],
   [
    -73.40226,
    36.82962
   ],
   [
    -73.4278,
    36.95479
   ],
   [
    -73.45337,
    37.07995
   ],
   [
    -73.47895,
    37.20511
   ],
   [
    -73.50457,
    37.33027
   ],
   [
    -73.53021,
    37.45542
   ],
   [
    -73.55588,
    37.58057
   ],
   [
    -73.58157,
    37.70571
   ],
   [
    -73.60727,
    37.83085
   ],
   [
    -73.63299,
    37.95599
   ],
   [
    -73.65875,
    38.08112
   ],
   [
    -73.68453,
    38.20625
   ],
   [
    -73.71032,
    38.33137
   ],
   [
    -73.95137,
    38.30076
   ],
   [
    -74.19223,
    38.26968
   ],
   [
    -74.43289,
    38.23813
   ],
   [
    -74.67333,
    38.20604
   ],
   [
    -74.91356,
    38.17349
   ],
   [
    -75.15359,
    38.14046
   ],
   [
    -75.39328,
    38.10692
   ],
   [
    -75.63284,
    38.0729
   ],
   [
    -75.87232,
    38.03839
   ],
   [
    -76.11145,
    38.00337
   ],
   [
    -76.35024,
    37.9679
   ],
   [
    -76.58847,
    37.93203
   ],
   [
    -76.55792,
    37.80675
   ],
   [
    -76.52744,
    37.68146
   ],
   [
    -76.49679,
    37.55621
   ],
   [
    -76.46629,
    37.43093
   ],
   [
    -76.43585,
    37.30564
   ],
   [
    -76.4054,
    37.18037
   ],
   [
    -76.37471,
    37.05512
   ],
   [
    -76.34418,
    36.92986
   ],
   [
    -76.31418,
    36.80452
   ],
   [
    -76.28397,
    36.67921
   ],
   [
    -76.25377,
    36.5539
   ]
  ],
  "searched_grid": {
   "cell_deg": 0.01,
   "lon0": -75.91,
   "lat0": 36.56,
   "levels": 10,
   "rows": {
    "2": [
     [
      74,
      1,
      5
     ],
     [
      75,
      2,
      10
     ]
    ],
    "3": [
     [
      74,
      1,
      3
     ],
     [
      75,
      1,
      8
     ],
     [
      76,
      8,
      10
     ]
    ],
    "4": [
     [
      75,
      1,
      4
     ],
     [
      76,
      14,
      10
     ]
    ],
    "5": [
     [
      73,
      1,
      1
     ],
     [
      74,
      1,
      6
     ],
     [
      75,
      22,
      10
     ]
    ],
    "6": [
     [
      70,
      1,
      4
     ],
     [
      71,
      1,
      1
     ],
     [
      72,
      1,
      8
     ],
     [
      73,
      1,
      9
     ],
     [
      74,
      8,
      10
     ],
     [
      82,
      2,
      9
     ],
     [
      84,
      20,
      10
     ]
    ],
    "7": [
     [
      69,
      1,
      2
     ],
     [
      70,
      3,
      10
     ],
     [
      73,
      1,
      9
     ],
     [
      74,
      8,
      10
     ],
     [
      82,
      1,
      6
     ],
     [
      84,
      1,
      4
     ],
     [
      85,
      1,
      9
     ],
     [
      86,
      25,
      10
     ]
    ],
    "8": [
     [
      68,
      1,
      4
     ],
     [
      69,
      4,
      10
     ],
     [
      73,
      1,
      2
     ],
     [
      75,
      1,
      6
     ],
     [
      76,
      7,
      10
     ],
     [
      83,
      1,
      6
     ],
     [
      84,
      1,
      2
     ],
     [
      85,
      1,
      8
     ],
     [
      86,
      33,
      10
     ]
    ],
    "9": [
     [
      68,
      1,
      6
     ],
     [
      69,
      4,
      10
     ],
     [
      73,
      1,
      7
     ],
     [
      75,
      1,
      3
     ],
     [
      76,
      50,
      10
     ]
    ],
    "10": [
     [
      68,
      1,
      3
     ],
     [
      69,
      5,
      10
     ],
     [
      74,
      1,
      6
     ],
     [
      75,
      1,
      9
     ],
     [
      76,
      57,
      10
     ]
    ],
    "11": [
     [
      68,
      1,
      8
     ],
     [
      69,
      5,
      10
     ],
     [
      74,
      1,
      7
     ],
     [
      75,
      1,
      2
     ],
     [
      76,
      1,
      3
     ],
     [
      77,
      1,
      8
     ],
     [
      78,
      24,
      10
     ],
     [
      102,
      1,
      3
     ],
     [
      104,
      1,
      8
     ],
     [
      105,
      35,
      10
     ]
    ],
    "12": [
     [
      68,
      6,
      10
     ],
     [
      74,
      1,
      4
     ],
     [
      75,
      1,
      1
     ],
     [
      76,
      1,
      3
     ],
     [
      77,
      25,
      10
     ],
     [
      102,
      1,
      8
     ],
     [
      103,
      1,
      6
     ],
     [
      104,
      43,
      10
     ]
    ],
    "13": [
     [
      65,
      1,
      2
     ],
     [
      66,
      1,
      3
     ],
     [
      67,
      1,
      4
     ],
     [
      68,
      86,
      10
     ]
    ],
    "14": [
     [
      62,
      2,
      1
     ],
     [
      65,
      1,
      3
     ],
     [
      69,
      93,
      10
     ]
    ],
    "15": [
     [
      65,
      1,
      1
     ],
     [
      67,
      1,
      1
     ],
     [
      68,
      1,
      9
     ],
     [
      69,
      1,
      10
     ],
     [
      70,
      1,
      2
     ],
     [
      71,
      1,
      3
     ],
     [
      72,
      3,
      10
     ],
     [
      75,
      1,
      7
     ],
     [
      77,
      1,
      3
     ],
     [
      78,
      91,
      10
     ]
    ],
    "16": [
     [
      66,
      1,
      1
     ],
     [
      67,
      1,
      3
     ],
     [
      68,
      1,
      9
     ],
     [
      69,
      1,
      10
     ],
     [
      70,
      1,
      1
     ],
     [
      71,
      1,
      3
     ],
     [
      72,
      3,
      10
     ],
     [
      75,
      1,
      7
     ],
     [
      76,
      1,
      1
     ],
     [
      78,
      1,
      3
     ],
     [
      79,
      97,
      10
     ]
    ],
    "17": [
     [
      63,
      1,
      1
     ],
     [
      64,
      1,
      7
     ],
     [
      65,
      1,
      3
     ],
     [
      66,
      1,
      7
     ],
     [
      67,
      116,
      10
     ]
    ],
    "18": [
     [
      63,
      1,
      9
     ],
     [
      64,
      127,
      10
     ]
    ],
    "19": [
     [
      61,
      1,
      5
     ],
     [
      63,
      1,
      2
     ],
     [
      64,
      1,
      8
     ],
     [
      65,
      133,
      10
     ]
    ],
    "20": [
     [
      62,
      1,
      1
     ],
     [
      64,
      1,
      7
     ],
     [
      65,
      141,
      10
     ]
    ],
    "21": [
     [
      61,
      2,
      5
     ],
     [
      63,
      150,
      10
     ]
    ],
    "22": [
     [
      60,
      1,
      1
     ],
     [
      61,
      1,
      9
     ],
     [
      62,
      159,
      10
     ]
    ],
    "23": [
     [
      58,
      1,
      8
     ],
     [
      59,
      1,
      2
     ],
     [
      61,
      167,
      10
     ]
    ],
    "24": [
     [
      51,
      1,
      2
     ],
     [
      52,
      2,
      8
     ],
     [
      54,
      1,
      5
     ],
     [
      55,
      1,
      2
     ],
     [
      58,
      178,
      10
     ]
    ],
    "25": [
     [
      50,
      1,
      2
     ],
     [
      51,
      1,
      9
     ],
     [
      52,
      192,
      10
     ]
    ],
    "26": [
     [
      50,
      1,
      5
     ],
     [
      51,
      195,
      10
     ]
    ],
    "27": [
     [
      50,
      1,
      7
     ],
     [
      51,
      194,
      10
     ],
     [
      245,
      1,
      9
     ]
    ],
    "28": [
     [
      49,
      1,
      4
     ],
     [
      50,
      195,
      10
     ],
     [
      245,
      1,
      7
     ]
    ],
    "29": [
     [
      41,
      2,
      2
     ],
     [
      45,
      1,
      1
     ],
     [
      47,
      1,
      1
     ],
     [
      48,
      2,
      6
     ],
     [
      50,
      195,
      10
     ],
     [
      245,
      1,
      4
     ]
    ],
    "30": [
     [
      44,
      2,
      2
     ],
     [
      47,
      1,
      3
     ],
     [
      48,
      197,
      10
     ],
     [
      245,
      1,
      3
     ]
    ],
    "31": [
     [
      38,
      1,
      1
     ],
     [
      44,
      1,
      4
     ],
     [
      45,
      1,
      7
     ],
     [
      46,
      1,
      4
     ],
     [
      47,
      1,
      6
     ],
     [
      48,
      197,
      10
     ]
    ],
    "32": [
     [
      38,
      1,
      3
     ],
     [
      44,
      1,
      7
     ],
     [
      45,
      199,
      10
     ],
     [
      244,
      1,
      8
     ]
    ],
    "33": [
     [
      32,
      2,
      2
     ],
     [
      34,
      1,
      6
     ],
     [
      38,
      1,
      2
     ],
     [
      39,
      1,
      1
     ],
     [
      44,
      1,
      7
     ],
     [
      45,
      199,
      10
     ],
     [
      244,
      1,
      7
     ]
    ],
    "34": [
     [
      30,
      1,
      6
     ],
     [
      31,
      1,
      9
     ],
     [
      32,
      1,
      7
     ],
     [
      34,
      1,
      1
     ],
     [
      39,
      1,
      6
     ],
     [
      44,
      1,
      6
     ],
     [
      45,
      199,
      10
     ],
     [
      244,
      1,
      4
     ]
    ],
    "35": [
     [
      30,
      1,
      4
     ],
     [
      31,
      1,
      2
     ],
     [
      39,
      1,
      5
     ],
     [
      44,
      200,
      10
     ],
     [
      244,
      1,
      2
     ]
    ],
    "36": [
     [
      41,
      1,
      3
     ],
     [
      42,
      1,
      10
     ],
     [
      43,
      1,
      8
     ],
     [
      44,
      1,
      10
     ],
     [
      45,
      1,
      5
     ],
     [
      46,
      2,
      2
     ],
     [
      48,
      1,
      4
     ],
     [
      49,
      1,
      5
     ],
     [
      50,
      1,
      2
     ],
     [
      51,
      1,
      6
     ],
     [
      52,
      192,
      10
     ]
    ],
    "37": [
     [
      40,
      1,
      1
     ],
     [
      42,
      1,
      2
     ],
     [
      43,
      1,
      8
     ],
     [
      44,
      1,
      10
     ],
     [
      45,
      1,
      1
     ],
     [
      51,
      1,
      2
     ],
     [
      52,
      1,
      7
     ],
     [
      53,
      190,
      10
     ],
     [
      243,
      1,
      8
     ]
    ],
    "38": [
     [
      39,
      1,
      5
     ],
     [
      43,
      1,
      2
     ],
     [
      44,
      1,
      3
     ],
     [
      45,
      1,
      1
     ],
     [
      52,
      1,
      1
     ],
     [
      53,
      190,
      10
     ],
     [
      243,
      1,
      7
     ]
    ],
    "39": [
     [
      42,
      1,
      2
     ],
     [
      51,
      1,
      2
     ],
     [
      52,
      1,
      1
     ],
     [
      53,
      1,
      4
     ],
     [
      54,
      1,
      8
     ],
     [
      55,
      188,
      10
     ],
     [
      243,
      1,
      3
     ]
    ],
    "40": [
     [
      42,
      1,
      1
     ],
     [
      51,
      1,
      7
     ],
     [
      52,
      1,
      5
     ],
     [
      54,
      1,
      4
     ],
     [
      55,
      188,
      10
     ],
     [
      243,
      1,
      2
     ]
    ],
    "41": [
     [
      41,
      1,
      2
     ],
     [
      50,
      1,
      2
     ],
     [
      51,
      2,
      10
     ],
     [
      53,
      1,
      5
     ],
     [
      54,
      1,
      6
     ],
     [
      55,
      188,
      10
     ]
    ],
    "42": [
     [
      50,
      1,
      2
     ],
     [
      51,
      23,
      10
     ],
     [
      74,
      2,
      9
     ],
     [
      76,
      166,
      10
     ],
     [
      242,
      1,
      8
     ]
    ],
    "43": [
     [
      50,
      1,
      5
     ],
     [
      51,
      2,
      3
     ],
     [
      53,
      6,
      10
     ],
     [
      59,
      1,
      8
     ],
     [
      60,
      1,
      7
     ],
     [
      61,
      10,
      10
     ],
     [
      71,
      1,
      7
     ],
     [
      72,
      1,
      8
     ],
     [
      73,
      1,
      6
     ],
     [
      74,
      1,
      2
     ],
     [
      75,
      1,
      1
     ],
     [
      76,
      166,
      10
     ],
     [
      242,
      1,
      6
     ]
    ],
    "44": [
     [
      53,
      4,
      10
     ],
     [
      57,
      2,
      2
     ],
     [
      61,
      10,
      10
     ],
     [
      71,
      1,
      2
     ],
     [
      74,
      1,
      4
     ],
     [
      75,
      167,
      10
     ],
     [
      242,
      1,
      3
     ]
    ],
    "45": [
     [
      52,
      1,
      5
     ],
     [
      53,
      3,
      10
     ],
     [
      56,
      1,
      4
     ],
     [
      60,
      1,
      7
     ],
     [
      61,
      10,
      10
     ],
     [
      71,
      1,
      6
     ],
     [
      72,
      1,
      3
     ],
     [
      73,
      1,
      5
     ],
     [
      74,
      168,
      10
     ],
     [
      242,
      1,
      2
     ]
    ],
    "46": [
     [
      50,
      1,
      8
     ],
     [
      51,
      5,
      10
     ],
     [
      56,
      1,
      1
     ],
     [
      60,
      2,
      3
     ],
     [
      62,
      1,
      6
     ],
     [
      63,
      7,
      10
     ],
     [
      70,
      1,
      2
     ],
     [
      71,
      1,
      6
     ],
     [
      72,
      1,
      9
     ],
     [
      73,
      169,
      10
     ]
    ],
    "47": [
     [
      49,
      1,
      3
     ],
     [
      50,
      6,
      10
     ],
     [
      56,
      1,
      4
     ],
     [
      62,
      1,
      4
     ],
     [
      63,
      7,
      10
     ],
     [
      70,
      2,
      3
     ],
     [
      72,
      169,
      10
     ],
     [
      241,
      1,
      7
     ]
    ],
    "48": [
     [
      49,
      1,
      6
     ],
     [
      50,
      5,
      10
     ],
     [
      55,
      1,
      8
     ],
     [
      60,
      181,
      10
     ],
     [
      241,
      1,
      6
     ]
    ],
    "49": [
     [
      49,
      1,
      5
     ],
     [
      50,
      5,
      10
     ],
     [
      55,
      1,
      1
     ],
     [
      60,
      1,
      9
     ],
     [
      61,
      2,
      10
     ],
     [
      63,
      1,
      9
     ],
     [
      64,
      177,
      10
     ],
     [
      241,
      1,
      4
     ]
    ],
    "50": [
     [
      48,
      1,
      1
     ],
     [
      49,
      1,
      8
     ],
     [
      50,
      3,
      10
     ],
     [
      53,
      1,
      5
     ],
     [
      54,
      1,
      3
     ],
     [
      55,
      1,
      4
     ],
     [
      56,
      1,
      2
     ],
     [
      60,
      1,
      4
     ],
     [
      61,
      1,
      8
     ],
     [
      62,
      1,
      10
     ],
     [
      63,
      1,
      3
     ],
     [
      65,
      1,
      9
     ],
     [
      66,
      175,
      10
     ],
     [
      241,
      1,
      1
     ]
    ],
    "51": [
     [
      45,
      1,
      2
     ],
     [
      46,
      1,
      5
     ],
     [
      49,
      1,
      9
     ],
     [
      50,
      2,
      10
     ],
     [
      52,
      1,
      6
     ],
     [
      54,
      1,
      1
     ],
     [
      55,
      1,
      10
     ],
     [
      56,
      1,
      2
     ],
     [
      61,
      1,
      3
     ],
     [
      62,
      1,
      10
     ],
     [
      63,
      1,
      9
     ],
     [
      64,
      1,
      6
     ],
     [
      65,
      176,
      10
     ]
    ],
    "52": [
     [
      43,
      1,
      2
     ],
     [
      44,
      2,
      6
     ],
     [
      46,
      1,
      3
     ],
     [
      48,
      1,
      6
     ],
     [
      49,
      3,
      10
     ],
     [
      52,
      1,
      2
     ],
     [
      55,
      1,
      8
     ],
     [
      56,
      1,
      10
     ],
     [
      57,
      1,
      5
     ],
     [
      58,
      1,
      4
     ],
     [
      59,
      2,
      2
     ],
     [
      61,
      1,
      7
     ],
     [
      62,
      178,
      10
     ],
     [
      240,
      1,
      7
     ]
    ],
    "53": [
     [
      40,
      1,
      2
     ],
     [
      41,
      1,
      3
     ],
     [
      42,
      1,
      5
     ],
     [
      43,
      3,
      10
     ],
     [
      46,
      1,
      5
     ],
     [
      47,
      1,
      4
     ],
     [
      48,
      5,
      10
     ],
     [
      53,
      1,
      9
     ],
     [
      54,
      1,
      7
     ],
     [
      55,
      185,
      10
     ],
     [
      240,
      1,
      7
     ]
    ],
    "54": [
     [
      41,
      1,
      9
     ],
     [
      42,
      198,
      10
     ],
     [
      240,
      1,
      3
     ]
    ],
    "55": [
     [
      40,
      1,
      7
     ],
     [
      41,
      8,
      10
     ],
     [
      49,
      1,
      8
     ],
     [
      50,
      190,
      10
     ],
     [
      240,
      1,
      1
     ]
    ],
    "56": [
     [
      39,
      1,
      2
     ],
     [
      40,
      1,
      6
     ],
     [
      41,
      7,
      10
     ],
     [
      48,
      1,
      7
     ],
     [
      51,
      1,
      1
     ],
     [
      52,
      1,
      5
     ],
     [
      53,
      1,
      6
     ],
     [
      54,
      186,
      10
     ]
    ],
    "57": [
     [
      40,
      1,
      6
     ],
     [
      41,
      7,
      10
     ],
     [
      48,
      1,
      9
     ],
     [
      49,
      1,
      7
     ],
     [
      51,
      1,
      2
     ],
     [
      52,
      1,
      3
     ],
     [
      53,
      1,
      1
     ],
     [
      54,
      185,
      10
     ],
     [
      239,
      1,
      7
     ]
    ],
    "58": [
     [
      39,
      1,
      4
     ],
     [
      40,
      8,
      10
     ],
     [
      48,
      1,
      7
     ],
     [
      49,
      1,
      2
     ],
     [
      51,
      1,
      2
     ],
     [
      52,
      1,
      7
     ],
     [
      54,
      1,
      8
     ],
     [
      55,
      184,
      10
     ],
     [
      239,
      1,
      4
     ]
    ],
    "59": [
     [
      39,
      1,
      4
     ],
     [
      40,
      8,
      10
     ],
     [
      48,
      1,
      7
     ],
     [
      54,
      1,
      6
     ],
     [
      55,
      184,
      10
     ],
     [
      239,
      1,
      3
     ]
    ],
    "60": [
     [
      38,
      1,
      4
     ],
     [
      39,
      9,
      10
     ],
     [
      48,
      1,
      2
     ],
     [
      50,
      1,
      10
     ],
     [
      54,
      185,
      10
     ],
     [
      239,
      1,
      1
     ]
    ],
    "61": [
     [
      36,
      3,
      2
     ],
     [
      39,
      9,
      10
     ],
     [
      48,
      1,
      1
     ],
     [
      50,
      1,
      10
     ],
     [
      51,
      1,
      1
     ],
     [
      53,
      1,
      6
     ],
     [
      54,
      185,
      10
     ]
    ],
    "62": [
     [
      33,
      2,
      2
     ],
     [
      35,
      1,
      6
     ],
     [
      36,
      1,
      4
     ],
     [
      37,
      1,
      1
     ],
     [
      38,
      1,
      9
     ],
     [
      39,
      2,
      6
     ],
     [
      41,
      3,
      10
     ],
     [
      44,
      1,
      5
     ],
     [
      45,
      1,
      8
     ],
     [
      46,
      2,
      10
     ],
     [
      48,
      1,
      8
     ],
     [
      49,
      1,
      1
     ],
     [
      50,
      1,
      2
     ],
     [
      51,
      1,
      10
     ],
     [
      52,
      1,
      8
     ],
     [
      53,
      185,
      10
     ],
     [
      238,
      1,
      6
     ]
    ],
    "63": [
     [
      33,
      2,
      1
     ],
     [
      36,
      1,
      1
     ],
     [
      37,
      2,
      2
     ],
     [
      40,
      1,
      1
     ],
     [
      41,
      1,
      3
     ],
     [
      42,
      2,
      10
     ],
     [
      44,
      1,
      1
     ],
     [
      46,
      3,
      10
     ],
     [
      50,
      1,
      2
     ],
     [
      51,
      1,
      7
     ],
     [
      52,
      1,
      1
     ],
     [
      53,
      185,
      10
     ],
     [
      238,
      1,
      4
     ]
    ],
    "64": [
     [
      32,
      1,
      1
     ],
     [
      41,
      1,
      1
     ],
     [
      42,
      3,
      10
     ],
     [
      45,
      1,
      8
     ],
     [
      46,
      3,
      10
     ],
     [
      49,
      1,
      9
     ],
     [
      50,
      1,
      8
     ],
     [
      52,
      1,
      2
     ],
     [
      53,
      185,
      10
     ],
     [
      238,
      1,
      3
     ]
    ],
    "65": [
     [
      32,
      2,
      1
     ],
     [
      40,
      1,
      1
     ],
     [
      42,
      1,
      3
     ],
     [
      43,
      4,
      10
     ],
     [
      47,
      1,
      8
     ],
     [
      48,
      1,
      5
     ],
     [
      49,
      1,
      10
     ],
     [
      50,
      1,
      7
     ],
     [
      52,
      1,
      4
     ],
     [
      53,
      185,
      10
     ]
    ],
    "66": [
     [
      41,
      5,
      10
     ],
     [
      46,
      1,
      4
     ],
     [
      47,
      1,
      2
     ],
     [
      49,
      1,
      10
     ],
     [
      50,
      1,
      4
     ],
     [
      52,
      185,
      10
     ],
     [
      237,
      1,
      9
     ]
    ],
    "67": [
     [
      40,
      1,
      2
     ],
     [
      41,
      1,
      1
     ],
     [
      42,
      1,
      4
     ],
     [
      43,
      1,
      8
     ],
     [
      44,
      2,
      10
     ],
     [
      46,
      1,
      8
     ],
     [
      47,
      1,
      5
     ],
     [
      48,
      2,
      10
     ],
     [
      50,
      1,
      3
     ],
     [
      51,
      1,
      4
     ],
     [
      52,
      185,
      10
     ],
     [
      237,
      1,
      7
     ]
    ],
    "68": [
     [
      36,
      1,
      2
     ],
     [
      38,
      1,
      4
     ],
     [
      40,
      1,
      1
     ],
     [
      41,
      1,
      4
     ],
     [
      42,
      1,
      2
     ],
     [
      43,
      7,
      10
     ],
     [
      50,
      1,
      9
     ],
     [
      51,
      1,
      8
     ],
     [
      52,
      2,
      10
     ],
     [
      54,
      1,
      8
     ],
     [
      55,
      1,
      6
     ],
     [
      56,
      1,
      9
     ],
     [
      57,
      180,
      10
     ],
     [
      237,
      1,
      4
     ]
    ],
    "69": [
     [
      35,
      1,
      8
     ],
     [
      36,
      2,
      10
     ],
     [
      38,
      1,
      9
     ],
     [
      39,
      1,
      4
     ],
     [
      42,
      1,
      2
     ],
     [
      43,
      5,
      10
     ],
     [
      49,
      1,
      2
     ],
     [
      50,
      2,
      6
     ],
     [
      52,
      1,
      7
     ],
     [
      53,
      1,
      10
     ],
     [
      54,
      1,
      6
     ],
     [
      56,
      1,
      2
     ],
     [
      57,
      180,
      10
     ],
     [
      237,
      1,
      2
     ]
    ],
    "70": [
     [
      34,
      1,
      2
     ],
     [
      35,
      6,
      10
     ],
     [
      41,
      1,
      9
     ],
     [
      42,
      1,
      8
     ],
     [
      43,
      4,
      10
     ],
     [
      47,
      1,
      9
     ],
     [
      48,
      1,
      2
     ],
     [
      50,
      1,
      2
     ],
     [
      53,
      2,
      10
     ],
     [
      55,
      1,
      4
     ],
     [
      56,
      1,
      2
     ],
     [
      57,
      180,
      10
     ]
    ],
    "71": [
     [
      29,
      2,
      1
     ],
     [
      34,
      1,
      7
     ],
     [
      35,
      10,
      10
     ],
     [
      45,
      1,
      3
     ],
     [
      46,
      1,
      2
     ],
     [
      47,
      1,
      5
     ],
     [
      48,
      1,
      1
     ],
     [
      52,
      1,
      2
     ],
     [
      53,
      183,
      10
     ],
     [
      236,
      1,
      8
     ]
    ],
    "72": [
     [
      30,
      1,
      2
     ],
     [
      31,
      1,
      3
     ],
     [
      32,
      1,
      4
     ],
     [
      33,
      1,
      8
     ],
     [
      34,
      5,
      10
     ],
     [
      39,
      2,
      8
     ],
     [
      41,
      1,
      3
     ],
     [
      43,
      1,
      4
     ],
     [
      44,
      1,
      1
     ],
     [
      49,
      1,
      2
     ],
     [
      50,
      2,
      8
     ],
     [
      52,
      184,
      10
     ],
     [
      236,
      1,
      7
     ]
    ],
    "73": [
     [
      29,
      1,
      2
     ],
     [
      30,
      1,
      1
     ],
     [
      32,
      1,
      6
     ],
     [
      33,
      6,
      10
     ],
     [
      41,
      1,
      1
     ],
     [
      42,
      1,
      4
     ],
     [
      43,
      1,
      1
     ],
     [
      50,
      2,
      10
     ],
     [
      52,
      1,
      9
     ],
     [
      53,
      183,
      10
     ],
     [
      236,
      1,
      3
     ]
    ],
    "74": [
     [
      27,
      1,
      2
     ],
     [
      28,
      1,
      3
     ],
     [
      29,
      1,
      6
     ],
     [
      31,
      2,
      4
     ],
     [
      33,
      1,
      9
     ],
     [
      34,
      2,
      2
     ],
     [
      36,
      1,
      10
     ],
     [
      37,
      1,
      3
     ],
     [
      38,
      1,
      1
     ],
     [
      39,
      1,
      2
     ],
     [
      41,
      1,
      3
     ],
     [
      42,
      1,
      7
     ],
     [
      43,
      1,
      2
     ],
     [
      49,
      3,
      10
     ],
     [
      52,
      1,
      3
     ],
     [
      54,
      1,
      9
     ],
     [
      55,
      181,
      10
     ],
     [
      236,
      1,
      2
     ]
    ],
    "75": [
     [
      33,
      1,
      2
     ],
     [
      48,
      1,
      6
     ],
     [
      49,
      3,
      10
     ],
     [
      52,
      1,
      9
     ],
     [
      53,
      1,
      5
     ],
     [
      54,
      182,
      10
     ]
    ],
    "76": [
     [
      30,
      1,
      1
     ],
     [
      39,
      1,
      1
     ],
     [
      48,
      1,
      5
     ],
     [
      49,
      1,
      7
     ],
     [
      50,
      1,
      9
     ],
     [
      51,
      184,
      10
     ],
     [
      235,
      1,
      8
     ]
    ],
    "77": [
     [
      30,
      1,
      1
     ],
     [
      38,
      1,
      2
     ],
     [
      46,
      1,
      3
     ],
     [
      50,
      1,
      1
     ],
     [
      51,
      1,
      5
     ],
     [
      52,
      9,
      10
     ],
     [
      61,
      1,
      6
     ],
     [
      62,
      1,
      4
     ],
     [
      63,
      1,
      7
     ],
     [
      64,
      171,
      10
     ],
     [
      235,
      1,
      6
     ]
    ],
    "78": [
     [
      36,
      1,
      1
     ],
     [
      37,
      1,
      6
     ],
     [
      38,
      1,
      1
     ],
     [
      45,
      1,
      1
     ],
     [
      46,
      1,
      2
     ],
     [
      48,
      1,
      2
     ],
     [
      51,
      1,
      5
     ],
     [
      52,
      3,
      10
     ],
     [
      55,
      2,
      3
     ],
     [
      57,
      1,
      8
     ],
     [
      58,
      3,
      10
     ],
     [
      63,
      1,
      5
     ],
     [
      64,
      171,
      10
     ],
     [
      235,
      1,
      3
     ]
    ],
    "79": [
     [
      35,
      1,
      3
     ],
     [
      36,
      1,
      9
     ],
     [
      37,
      1,
      10
     ],
     [
      38,
      1,
      1
     ],
     [
      52,
      1,
      3
     ],
     [
      54,
      1,
      2
     ],
     [
      57,
      1,
      2
     ],
     [
      58,
      2,
      3
     ],
     [
      60,
      1,
      6
     ],
     [
      61,
      1,
      9
     ],
     [
      62,
      173,
      10
     ],
     [
      235,
      1,
      3
     ]
    ],
    "80": [
     [
      32,
      1,
      1
     ],
     [
      33,
      1,
      9
     ],
     [
      34,
      1,
      6
     ],
     [
      35,
      1,
      7
     ],
     [
      36,
      1,
      2
     ],
     [
      59,
      1,
      1
     ],
     [
      61,
      1,
      8
     ],
     [
      62,
      173,
      10
     ],
     [
      235,
      1,
      3
     ]
    ],
    "81": [
     [
      32,
      1,
      6
     ],
     [
      33,
      2,
      10
     ],
     [
      35,
      1,
      6
     ],
     [
      37,
      1,
      1
     ],
     [
      59,
      1,
      4
     ],
     [
      60,
      1,
      9
     ],
     [
      61,
      174,
      10
     ],
     [
      235,
      1,
      1
     ]
    ],
    "82": [
     [
      30,
      1,
      2
     ],
     [
      31,
      1,
      7
     ],
     [
      32,
      1,
      9
     ],
     [
      33,
      1,
      10
     ],
     [
      37,
      1,
      2
     ],
     [
      61,
      1,
      4
     ],
     [
      62,
      173,
      10
     ]
    ],
    "83": [
     [
      31,
      1,
      4
     ],
     [
      32,
      1,
      10
     ],
     [
      33,
      1,
      2
     ],
     [
      35,
      1,
      1
     ],
     [
      36,
      1,
      2
     ],
     [
      59,
      1,
      3
     ],
     [
      60,
      1,
      1
     ],
     [
      61,
      1,
      5
     ],
     [
      62,
      172,
      10
     ],
     [
      234,
      1,
      7
     ]
    ],
    "84": [
     [
      31,
      1,
      4
     ],
     [
      32,
      1,
      3
     ],
     [
      33,
      2,
      2
     ],
     [
      40,
      1,
      1
     ],
     [
      58,
      1,
      1
     ],
     [
      59,
      1,
      4
     ],
     [
      62,
      1,
      4
     ],
     [
      63,
      171,
      10
     ],
     [
      234,
      1,
      5
     ]
    ],
    "85": [
     [
      27,
      1,
      1
     ],
     [
      32,
      1,
      3
     ],
     [
      40,
      1,
      1
     ],
     [
      57,
      1,
      3
     ],
     [
      58,
      3,
      10
     ],
     [
      61,
      1,
      6
     ],
     [
      62,
      1,
      3
     ],
     [
      63,
      171,
      10
     ],
     [
      234,
      1,
      4
     ]
    ],
    "86": [
     [
      26,
      1,
      2
     ],
     [
      27,
      1,
      6
     ],
     [
      32,
      1,
      1
     ],
     [
      58,
      176,
      10
     ]
    ],
    "87": [
     [
      26,
      1,
      1
     ],
     [
      27,
      1,
      3
     ],
     [
      54,
      1,
      1
     ],
     [
      56,
      1,
      6
     ],
     [
      57,
      1,
      9
     ],
     [
      58,
      176,
      10
     ]
    ],
    "88": [
     [
      49,
      1,
      1
     ],
     [
      50,
      2,
      2
     ],
     [
      52,
      1,
      1
     ],
     [
      53,
      1,
      2
     ],
     [
      54,
      179,
      10
     ],
     [
      233,
      1,
      6
     ]
    ],
    "89": [
     [
      47,
      1,
      5
     ],
     [
      48,
      185,
      10
     ],
     [
      233,
      1,
      6
     ]
    ],
    "90": [
     [
      41,
      1,
      1
     ],
     [
      43,
      1,
      1
     ],
     [
      44,
      1,
      5
     ],
     [
      47,
      1,
      9
     ],
     [
      48,
      185,
      10
     ],
     [
      233,
      1,
      3
     ]
    ],
    "91": [
     [
      40,
      1,
      1
     ],
     [
      43,
      1,
      7
     ],
     [
      44,
      1,
      10
     ],
     [
      45,
      1,
      7
     ],
     [
      46,
      1,
      8
     ],
     [
      47,
      186,
      10
     ]
    ],
    "92": [
     [
      31,
      1,
      2
     ],
     [
      40,
      1,
      1
     ],
     [
      43,
      189,
      10
     ],
     [
      232,
      1,
      9
     ]
    ],
    "93": [
     [
      30,
      1,
      2
     ],
     [
      31,
      1,
      7
     ],
     [
      33,
      1,
      1
     ],
     [
      39,
      2,
      5
     ],
     [
      42,
      1,
      5
     ],
     [
      43,
      189,
      10
     ],
     [
      232,
      1,
      7
     ]
    ],
    "94": [
     [
      27,
      1,
      1
     ],
     [
      29,
      1,
      6
     ],
     [
      30,
      2,
      10
     ],
     [
      32,
      1,
      8
     ],
     [
      38,
      1,
      1
     ],
     [
      39,
      1,
      10
     ],
     [
      40,
      1,
      3
     ],
     [
      42,
      1,
      8
     ],
     [
      43,
      189,
      10
     ],
     [
      232,
      1,
      4
     ]
    ],
    "95": [
     [
      27,
      1,
      1
     ],
     [
      29,
      1,
      7
     ],
     [
      30,
      2,
      10
     ],
     [
      34,
      1,
      1
     ],
     [
      37,
      1,
      5
     ],
     [
      38,
      3,
      10
     ],
     [
      41,
      1,
      8
     ],
     [
      42,
      190,
      10
     ],
     [
      232,
      1,
      3
     ]
    ],
    "96": [
     [
      29,
      1,
      8
     ],
     [
      30,
      2,
      10
     ],
     [
      32,
      1,
      4
     ],
     [
      33,
      2,
      6
     ],
     [
      36,
      1,
      5
     ],
     [
      37,
      1,
      9
     ],
     [
      38,
      194,
      10
     ]
    ],
    "97": [
     [
      29,
      1,
      6
     ],
     [
      30,
      201,
      10
     ],
     [
      231,
      1,
      9
     ]
    ],
    "98": [
     [
      30,
      1,
      8
     ],
     [
      31,
      200,
      10
     ],
     [
      231,
      1,
      7
     ]
    ],
    "99": [
     [
      30,
      1,
      1
     ],
     [
      31,
      1,
      2
     ],
     [
      32,
      1,
      7
     ],
     [
      33,
      27,
      10
     ],
     [
      60,
      1,
      6
     ],
     [
      61,
      1,
      5
     ],
     [
      62,
      1,
      9
     ],
     [
      63,
      168,
      10
     ],
     [
      231,
      1,
      4
     ]
    ],
    "100": [
     [
      33,
      1,
      6
     ],
     [
      34,
      11,
      10
     ],
     [
      45,
      1,
      5
     ],
     [
      46,
      1,
      3
     ],
     [
      47,
      1,
      8
     ],
     [
      48,
      12,
      10
     ],
     [
      60,
      2,
      1
     ],
     [
      62,
      1,
      8
     ],
     [
      63,
      168,
      10
     ],
     [
      231,
      1,
      3
     ]
    ],
    "101": [
     [
      33,
      1,
      2
     ],
     [
      34,
      11,
      10
     ],
     [
      47,
      2,
      8
     ],
     [
      50,
      1,
      6
     ],
     [
      51,
      9,
      10
     ],
     [
      60,
      1,
      3
     ],
     [
      61,
      1,
      1
     ],
     [
      62,
      1,
      6
     ],
     [
      63,
      168,
      10
     ]
    ],
    "102": [
     [
      33,
      1,
      3
     ],
     [
      34,
      11,
      10
     ],
     [
      45,
      1,
      4
     ],
     [
      47,
      1,
      2
     ],
     [
      49,
      1,
      2
     ],
     [
      50,
      1,
      9
     ],
     [
      51,
      8,
      10
     ],
     [
      59,
      1,
      6
     ],
     [
      60,
      1,
      4
     ],
     [
      61,
      1,
      3
     ],
     [
      62,
      1,
      8
     ],
     [
      63,
      167,
      10
     ],
     [
      230,
      1,
      8
     ]
    ],
    "103": [
     [
      33,
      1,
      5
     ],
     [
      34,
      11,
      10
     ],
     [
      45,
      1,
      7
     ],
     [
      47,
      1,
      2
     ],
     [
      49,
      9,
      10
     ],
     [
      58,
      1,
      7
     ],
     [
      61,
      169,
      10
     ],
     [
      230,
      1,
      7
     ]
    ],
    "104": [
     [
      30,
      1,
      2
     ],
     [
      31,
      1,
      6
     ],
     [
      32,
      1,
      7
     ],
     [
      33,
      1,
      9
     ],
     [
      34,
      24,
      10
     ],
     [
      58,
      3,
      6
     ],
     [
      61,
      169,
      10
     ],
     [
      230,
      1,
      4
     ]
    ],
    "105": [
     [
      30,
      1,
      1
     ],
     [
      31,
      1,
      9
     ],
     [
      32,
      4,
      10
     ],
     [
      36,
      1,
      8
     ],
     [
      37,
      1,
      9
     ],
     [
      38,
      192,
      10
     ],
     [
      230,
      1,
      2
     ]
    ],
    "106": [
     [
      31,
      1,
      5
     ],
     [
      32,
      4,
      10
     ],
     [
      36,
      1,
      1
     ],
     [
      37,
      1,
      4
     ],
     [
      38,
      192,
      10
     ]
    ],
    "107": [
     [
      32,
      1,
      8
     ],
     [
      33,
      3,
      10
     ],
     [
      36,
      1,
      4
     ],
     [
      37,
      1,
      8
     ],
     [
      38,
      191,
      10
     ],
     [
      229,
      1,
      8
     ]
    ],
    "108": [
     [
      32,
      1,
      5
     ],
     [
      33,
      1,
      9
     ],
     [
      34,
      195,
      10
     ],
     [
      229,
      1,
      7
     ]
    ],
    "109": [
     [
      33,
      1,
      9
     ],
     [
      34,
      7,
      10
     ],
     [
      41,
      1,
      8
     ],
     [
      42,
      1,
      9
     ],
     [
      43,
      186,
      10
     ],
     [
      229,
      1,
      3
     ]
    ],
    "110": [
     [
      33,
      1,
      7
     ],
     [
      34,
      1,
      10
     ],
     [
      35,
      1,
      9
     ],
     [
      36,
      2,
      8
     ],
     [
      38,
      1,
      4
     ],
     [
      39,
      1,
      10
     ],
     [
      40,
      1,
      5
     ],
     [
      42,
      1,
      1
     ],
     [
      43,
      186,
      10
     ],
     [
      229,
      1,
      2
     ]
    ],
    "111": [
     [
      33,
      1,
      2
     ],
     [
      34,
      1,
      10
     ],
     [
      35,
      1,
      5
     ],
     [
      39,
      1,
      10
     ],
     [
      40,
      1,
      1
     ],
     [
      43,
      1,
      2
     ],
     [
      44,
      185,
      10
     ]
    ],
    "112": [
     [
      34,
      2,
      10
     ],
     [
      36,
      1,
      5
     ],
     [
      38,
      1,
      3
     ],
     [
      39,
      2,
      10
     ],
     [
      41,
      1,
      3
     ],
     [
      42,
      1,
      4
     ],
     [
      43,
      1,
      8
     ],
     [
      44,
      184,
      10
     ],
     [
      228,
      1,
      8
     ]
    ],
    "113": [
     [
      34,
      1,
      8
     ],
     [
      35,
      1,
      10
     ],
     [
      36,
      1,
      8
     ],
     [
      38,
      1,
      5
     ],
     [
      39,
      189,
      10
     ],
     [
      228,
      1,
      6
     ]
    ],
    "114": [
     [
      34,
      1,
      4
     ],
     [
      35,
      193,
      10
     ],
     [
      228,
      1,
      3
     ]
    ],
    "115": [
     [
      31,
      1,
      5
     ],
     [
      35,
      1,
      9
     ],
     [
      36,
      192,
      10
     ],
     [
      228,
      1,
      1
     ]
    ],
    "116": [
     [
      35,
      1,
      6
     ],
     [
      36,
      192,
      10
     ]
    ],
    "117": [
     [
      36,
      1,
      9
     ],
     [
      37,
      190,
      10
     ],
     [
      227,
      1,
      7
     ]
    ],
    "118": [
     [
      36,
      1,
      2
     ],
     [
      37,
      1,
      9
     ],
     [
      38,
      189,
      10
     ],
     [
      227,
      1,
      6
     ]
    ],
    "119": [
     [
      37,
      1,
      5
     ],
     [
      38,
      189,
      10
     ],
     [
      227,
      1,
      4
     ]
    ],
    "120": [
     [
      37,
      1,
      1
     ],
     [
      38,
      189,
      10
     ]
    ],
    "121": [
     [
      38,
      1,
      1
     ],
     [
      39,
      187,
      10
     ],
     [
      226,
      1,
      9
     ]
    ],
    "122": [
     [
      39,
      1,
      5
     ],
     [
      40,
      186,
      10
     ],
     [
      226,
      1,
      7
     ]
    ],
    "123": [
     [
      39,
      1,
      1
     ],
     [
      40,
      1,
      7
     ],
     [
      41,
      185,
      10
     ],
     [
      226,
      1,
      6
     ]
    ],
    "124": [
     [
      41,
      1,
      8
     ],
     [
      42,
      184,
      10
     ],
     [
      226,
      1,
      3
     ]
    ],
    "125": [
     [
      41,
      1,
      1
     ],
     [
      42,
      1,
      9
     ],
     [
      43,
      183,
      10
     ]
    ],
    "126": [
     [
      43,
      1,
      7
     ],
     [
      44,
      181,
      10
     ],
     [
      225,
      1,
      9
     ]
    ],
    "127": [
     [
      44,
      1,
      8
     ],
     [
      45,
      6,
      10
     ],
     [
      51,
      1,
      9
     ],
     [
      52,
      173,
      10
     ],
     [
      225,
      1,
      7
     ]
    ],
    "128": [
     [
      45,
      1,
      5
     ],
     [
      46,
      4,
      10
     ],
     [
      50,
      1,
      6
     ],
     [
      53,
      1,
      2
     ],
     [
      54,
      1,
      8
     ],
     [
      55,
      170,
      10
     ],
     [
      225,
      1,
      3
     ]
    ],
    "129": [
     [
      46,
      1,
      2
     ],
     [
      47,
      1,
      6
     ],
     [
      48,
      1,
      10
     ],
     [
      49,
      1,
      8
     ],
     [
      50,
      1,
      3
     ],
     [
      54,
      1,
      1
     ],
     [
      55,
      1,
      8
     ],
     [
      56,
      169,
      10
     ],
     [
      225,
      1,
      3
     ]
    ],
    "130": [
     [
      48,
      1,
      3
     ],
     [
      55,
      1,
      1
     ],
     [
      56,
      1,
      9
     ],
     [
      57,
      168,
      10
     ]
    ],
    "131": [
     [
      53,
      1,
      1
     ],
     [
      54,
      1,
      4
     ],
     [
      56,
      1,
      1
     ],
     [
      57,
      1,
      9
     ],
     [
      58,
      166,
      10
     ],
     [
      224,
      1,
      9
     ]
    ],
    "132": [
     [
      51,
      1,
      9
     ],
     [
      52,
      2,
      4
     ],
     [
      54,
      1,
      2
     ],
     [
      57,
      1,
      3
     ],
     [
      58,
      166,
      10
     ],
     [
      224,
      1,
      6
     ]
    ],
    "133": [
     [
      51,
      1,
      2
     ],
     [
      58,
      1,
      6
     ],
     [
      59,
      165,
      10
     ],
     [
      224,
      1,
      4
     ]
    ],
    "134": [
     [
      59,
      1,
      9
     ],
     [
      60,
      164,
      10
     ],
     [
      224,
      1,
      3
     ]
    ],
    "135": [
     [
      59,
      1,
      2
     ],
     [
      60,
      164,
      10
     ]
    ],
    "136": [
     [
      60,
      1,
      5
     ],
     [
      61,
      162,
      10
     ],
     [
      223,
      1,
      8
     ]
    ],
    "137": [
     [
      61,
      1,
      8
     ],
     [
      62,
      161,
      10
     ],
     [
      223,
      1,
      7
     ]
    ],
    "138": [
     [
      23,
      1,
      1
     ],
     [
      24,
      1,
      4
     ],
     [
      25,
      1,
      6
     ],
     [
      26,
      1,
      1
     ],
     [
      52,
      1,
      1
     ],
     [
      61,
      1,
      3
     ],
     [
      62,
      1,
      9
     ],
     [
      63,
      160,
      10
     ],
     [
      223,
      1,
      4
     ]
    ],
    "139": [
     [
      23,
      1,
      1
     ],
     [
      48,
      1,
      2
     ],
     [
      49,
      1,
      5
     ],
     [
      50,
      1,
      9
     ],
     [
      51,
      1,
      4
     ],
     [
      52,
      1,
      8
     ],
     [
      53,
      1,
      4
     ],
     [
      54,
      1,
      3
     ],
     [
      62,
      1,
      6
     ],
     [
      63,
      160,
      10
     ],
     [
      223,
      1,
      2
     ]
    ],
    "140": [
     [
      48,
      1,
      1
     ],
     [
      49,
      1,
      10
     ],
     [
      50,
      1,
      2
     ],
     [
      51,
      1,
      1
     ],
     [
      53,
      1,
      1
     ],
     [
      55,
      1,
      3
     ],
     [
      63,
      1,
      6
     ],
     [
      64,
      159,
      10
     ]
    ],
    "141": [
     [
      53,
      1,
      3
     ],
     [
      56,
      2,
      1
     ],
     [
      63,
      1,
      1
     ],
     [
      64,
      1,
      8
     ],
     [
      65,
      157,
      10
     ],
     [
      222,
      1,
      8
     ]
    ],
    "142": [
     [
      56,
      1,
      8
     ],
     [
      57,
      1,
      3
     ],
     [
      59,
      1,
      1
     ],
     [
      64,
      1,
      2
     ],
     [
      65,
      157,
      10
     ],
     [
      222,
      1,
      7
     ]
    ],
    "143": [
     [
      58,
      1,
      2
     ],
     [
      59,
      1,
      6
     ],
     [
      60,
      1,
      1
     ],
     [
      65,
      1,
      4
     ],
     [
      66,
      156,
      10
     ],
     [
      222,
      1,
      3
     ]
    ],
    "144": [
     [
      58,
      1,
      3
     ],
     [
      59,
      2,
      10
     ],
     [
      61,
      1,
      7
     ],
     [
      66,
      1,
      6
     ],
     [
      67,
      155,
      10
     ],
     [
      222,
      1,
      2
     ]
    ],
    "145": [
     [
      58,
      1,
      2
     ],
     [
      59,
      3,
      10
     ],
     [
      62,
      1,
      5
     ],
     [
      66,
      1,
      2
     ],
     [
      67,
      1,
      7
     ],
     [
      68,
      154,
      10
     ]
    ],
    "146": [
     [
      58,
      1,
      2
     ],
     [
      59,
      1,
      6
     ],
     [
      60,
      2,
      10
     ],
     [
      62,
      1,
      7
     ],
     [
      63,
      1,
      1
     ],
     [
      67,
      1,
      2
     ],
     [
      68,
      1,
      9
     ],
     [
      69,
      152,
      10
     ],
     [
      221,
      1,
      8
     ]
    ],
    "147": [
     [
      7,
      1,
      1
     ],
     [
      59,
      1,
      4
     ],
     [
      60,
      4,
      10
     ],
     [
      64,
      1,
      4
     ],
     [
      68,
      1,
      3
     ],
     [
      69,
      152,
      10
     ],
     [
      221,
      1,
      5
     ]
    ],
    "148": [
     [
      6,
      1,
      5
     ],
     [
      58,
      1,
      2
     ],
     [
      59,
      1,
      7
     ],
     [
      60,
      4,
      10
     ],
     [
      64,
      1,
      7
     ],
     [
      69,
      1,
      5
     ],
     [
      70,
      151,
      10
     ],
     [
      221,
      1,
      3
     ]
    ],
    "149": [
     [
      56,
      1,
      2
     ],
     [
      59,
      1,
      6
     ],
     [
      60,
      4,
      10
     ],
     [
      64,
      1,
      6
     ],
     [
      70,
      1,
      9
     ],
     [
      71,
      150,
      10
     ],
     [
      221,
      1,
      1
     ]
    ],
    "150": [
     [
      56,
      1,
      5
     ],
     [
      57,
      1,
      3
     ],
     [
      58,
      1,
      2
     ],
     [
      59,
      1,
      9
     ],
     [
      60,
      5,
      10
     ],
     [
      65,
      1,
      8
     ],
     [
      70,
      1,
      3
     ],
     [
      71,
      150,
      10
     ]
    ],
    "151": [
     [
      58,
      1,
      4
     ],
     [
      59,
      6,
      10
     ],
     [
      65,
      1,
      5
     ],
     [
      67,
      1,
      4
     ],
     [
      68,
      1,
      1
     ],
     [
      71,
      1,
      6
     ],
     [
      72,
      148,
      10
     ],
     [
      220,
      1,
      6
     ]
    ],
    "152": [
     [
      58,
      1,
      8
     ],
     [
      59,
      9,
      10
     ],
     [
      71,
      1,
      1
     ],
     [
      72,
      1,
      9
     ],
     [
      73,
      147,
      10
     ],
     [
      220,
      1,
      6
     ]
    ],
    "153": [
     [
      58,
      1,
      3
     ],
     [
      60,
      1,
      2
     ],
     [
      61,
      1,
      4
     ],
     [
      62,
      1,
      7
     ],
     [
      63,
      5,
      10
     ],
     [
      68,
      1,
      6
     ],
     [
      69,
      1,
      1
     ],
     [
      72,
      1,
      3
     ],
     [
      73,
      147,
      10
     ],
     [
      220,
      1,
      3
     ]
    ],
    "154": [
     [
      62,
      1,
      5
     ],
     [
      63,
      6,
      10
     ],
     [
      69,
      1,
      2
     ],
     [
      73,
      147,
      10
     ]
    ],
    "155": [
     [
      62,
      1,
      3
     ],
     [
      63,
      7,
      10
     ],
     [
      70,
      1,
      4
     ],
     [
      73,
      1,
      3
     ],
     [
      74,
      145,
      10
     ],
     [
      219,
      1,
      9
     ]
    ],
    "156": [
     [
      62,
      9,
      10
     ],
     [
      73,
      1,
      2
     ],
     [
      74,
      145,
      10
     ],
     [
      219,
      1,
      7
     ]
    ],
    "157": [
     [
      69,
      2,
      10
     ],
     [
      74,
      145,
      10
     ],
     [
      219,
      1,
      5
     ]
    ],
    "158": [
     [
      76,
      143,
      10
     ],
     [
      219,
      1,
      3
     ]
    ],
    "159": [
     [
      84,
      135,
      10
     ]
    ],
    "160": [
     [
      91,
      127,
      10
     ],
     [
      218,
      1,
      9
     ]
    ],
    "161": [
     [
      98,
      120,
      10
     ],
     [
      218,
      1,
      7
     ]
    ],
    "162": [
     [
      106,
      112,
      10
     ],
     [
      218,
      1,
      3
     ]
    ],
    "163": [
     [
      113,
      105,
      10
     ],
     [
      218,
      1,
      3
     ]
    ],
    "164": [
     [
      120,
      98,
      10
     ]
    ],
    "165": [
     [
      128,
      89,
      10
     ],
     [
      217,
      1,
      9
     ]
    ],
    "166": [
     [
      136,
      81,
      10
     ],
     [
      217,
      1,
      6
     ]
    ],
    "167": [
     [
      143,
      74,
      10
     ],
     [
      217,
      1,
      4
     ]
    ],
    "168": [
     [
      150,
      67,
      10
     ],
     [
      217,
      1,
      3
     ]
    ],
    "169": [
     [
      158,
      59,
      10
     ]
    ],
    "170": [
     [
      166,
      50,
      10
     ],
     [
      216,
      1,
      8
     ]
    ],
    "171": [
     [
      173,
      43,
      10
     ],
     [
      216,
      1,
      6
     ]
    ],
    "172": [
     [
      181,
      35,
      10
     ],
     [
      216,
      1,
      4
     ]
    ],
    "173": [
     [
      189,
      27,
      10
     ],
     [
      216,
      1,
      1
     ]
    ],
    "174": [
     [
      196,
      20,
      10
     ]
    ],
    "175": [
     [
      204,
      11,
      10
     ],
     [
      215,
      1,
      8
     ]
    ],
    "176": [
     [
      212,
      3,
      10
     ],
     [
      215,
      1,
      7
     ]
    ]
   }
  },
  "clutter_headroom": 46.3,
  "clutter_at_floor": 0.581,
  "clutter_verdict": "vessels present",
  "detection_rate": 1.0,
  "n_detections": 37,
  "n_reports": 12,
  "n_reports_with_fix": 12,
  "n_matched": 12,
  "n_reports_unsearched": 304,
  "n_reports_marginal": 0,
  "unsearched_by_length": {
   "<25 m": 162,
   "25-50 m": 51,
   "50-100 m": 22,
   "100-200 m": 20,
   ">200 m": 32,
   "unknown": 17
  },
  "k_sigma_match": 3.0,
  "gate_min_snr": 15.0,
  "gate_min_pixels": 6,
  "n_detections_before_gate": 463,
  "ais_window_s": 1800.0,
  "calibration": {
   "detectable_length_m": 25.0,
   "max_chance_match": 0.05,
   "density_per_km2": 0.00138,
   "max_scorable_radius_m": 3445,
   "n_unscorable": 0,
   "n_unscorable_matched": 0,
   "expected_chance_matches": 0.05,
   "strata": {
    ">=25 m": {
     "found": 12,
     "scored": 12,
     "rate": 1.0,
     "ci95": [
      0.7575,
      1.0
     ]
    },
    "<25 m": {
     "found": 0,
     "scored": 0,
     "rate": null,
     "ci95": [
      null,
      null
     ]
    },
    "unknown length": {
     "found": 0,
     "scored": 0,
     "rate": null,
     "ci95": [
      null,
      null
     ]
    },
    "all scored": {
     "found": 12,
     "scored": 12,
     "rate": 1.0,
     "ci95": [
      0.7575,
      1.0
     ]
    }
   },
   "curve_edges_m": [
    0.0,
    15.0,
    25.0,
    50.0,
    100.0
   ],
   "curve": {
    "0-15 m": {
     "found": 0,
     "scored": 0,
     "rate": null,
     "ci95": [
      null,
      null
     ]
    },
    "15-25 m": {
     "found": 0,
     "scored": 0,
     "rate": null,
     "ci95": [
      null,
      null
     ]
    },
    "25-50 m": {
     "found": 0,
     "scored": 0,
     "rate": null,
     "ci95": [
      null,
      null
     ]
    },
    "50-100 m": {
     "found": 0,
     "scored": 0,
     "rate": null,
     "ci95": [
      null,
      null
     ]
    },
    ">100 m": {
     "found": 12,
     "scored": 12,
     "rate": 1.0,
     "ci95": [
      0.7575,
      1.0
     ]
    },
    "unknown": {
     "found": 0,
     "scored": 0,
     "rate": null,
     "ci95": [
      null,
      null
     ]
    }
   }
  }
 },
 "features": [
  {
   "type": "Feature",
   "geometry": {
    "type": "Point",
    "coordinates": [
     -75.45951341080986,
     36.90013804945108
    ]
   },
   "properties": {
    "kind": "unmatched",
    "domain": "sea",
    "t_start": "2024-08-08T22:58:40+00:00",
    "t_end": "2024-08-08T22:58:40+00:00",
    "duration_s": 0.0,
    "confidence": 0.95,
    "platform_ids": [],
    "evidence": {
     "sensor": "sentinel1-vv-cfar",
     "detector_confidence": 0.95,
     "detection_rate_this_pass": 1.0,
     "reports_considered": 12,
     "reports_with_a_fix": 12,
     "search_radius_m": 113.9,
     "snr": 51.64,
     "length_m_approx": 40.0,
     "pixels": 16,
     "scene": "S1A_IW_GRDH_1SDV_20240808T225840_20240808T225905_055128_06B7CB_5842_COG.SAFE"
    }
   }
  },
  {
   "type": "Feature",
   "geometry": {
    "type": "Point",
    "coordinates": [
     -75.43040800591818,
     36.915717215572165
    ]
   },
   "properties": {
    "kind": "unmatched",
    "domain": "sea",
    "t_start": "2024-08-08T22:58:40+00:00",
    "t_end": "2024-08-08T22:58:40+00:00",
    "duration_s": 0.0,
    "confidence": 0.95,
    "platform_ids": [],
    "evidence": {
     "sensor": "sentinel1-vv-cfar",
     "detector_confidence": 0.95,
     "detection_rate_this_pass": 1.0,
     "reports_considered": 12,
     "reports_with_a_fix": 12,
     "search_radius_m": 121.7,
     "snr": 43.81,
     "length_m_approx": 44.7,
     "pixels": 20,
     "scene": "S1A_IW_GRDH_1SDV_20240808T225840_20240808T225905_055128_06B7CB_5842_COG.SAFE"
    }
   }
  },
  {
   "type": "Feature",
   "geometry": {
    "type": "Point",
    "coordinates": [
     -75.42640569892436,
     36.88477802548315
    ]
   },
   "properties": {
    "kind": "unmatched",
    "domain": "sea",
    "t_start": "2024-08-08T22:58:40+00:00",
    "t_end": "2024-08-08T22:58:40+00:00",
    "duration_s": 0.0,
    "confidence": 0.95,
    "platform_ids": [],
    "evidence": {
     "sensor": "sentinel1-vv-cfar",
     "detector_confidence": 0.95,
     "detection_rate_this_pass": 1.0,
     "reports_considered": 12,
     "reports_with_a_fix": 12,
     "search_radius_m": 110.1,
     "snr": 41.72,
     "length_m_approx": 37.4,
     "pixels": 14,
     "scene": "S1A_IW_GRDH_1SDV_20240808T225840_20240808T225905_055128_06B7CB_5842_COG.SAFE"
    }
   }
  },
  {
   "type": "Feature",
   "geometry": {
    "type": "Point",
    "coordinates": [
     -75.44395299691062,
     36.90016248296152
    ]
   },
   "properties": {
    "kind": "unmatched",
    "domain": "sea",
    "t_start": "2024-08-08T22:58:40+00:00",
    "t_end": "2024-08-08T22:58:40+00:00",
    "duration_s": 0.0,
    "confidence": 0.95,
    "platform_ids": [],
    "evidence": {
     "sensor": "sentinel1-vv-cfar",
     "detector_confidence": 0.95,
     "detection_rate_this_pass": 1.0,
     "reports_considered": 12,
     "reports_with_a_fix": 12,
     "search_radius_m": 110.1,
     "snr": 39.72,
     "length_m_approx": 37.4,
     "pixels": 14,
     "scene": "S1A_IW_GRDH_1SDV_20240808T225840_20240808T225905_055128_06B7CB_5842_COG.SAFE"
    }
   }
  },
  {
   "type": "Feature",
   "geometry": {
    "type": "Point",
    "coordinates": [
     -75.45750395187395,
     36.88471014631147
    ]
   },
   "properties": {
    "kind": "unmatched",
    "domain": "sea",
    "t_start": "2024-08-08T22:58:40+00:00",
    "t_end": "2024-08-08T22:58:40+00:00",
    "duration_s": 0.0,
    "confidence": 0.95,
    "platform_ids": [],
    "evidence": {
     "sensor": "sentinel1-vv-cfar",
     "detector_confidence": 0.95,
     "detection_rate_this_pass": 1.0,
     "reports_considered": 12,
     "reports_with_a_fix": 12,
     "search_radius_m": 110.1,
     "snr": 38.96,
     "length_m_approx": 37.4,
     "pixels": 14,
     "scene": "S1A_IW_GRDH_1SDV_20240808T225840_20240808T225905_055128_06B7CB_5842_COG.SAFE"
    }
   }
  },
  {
   "type": "Feature",
   "geometry": {
    "type": "Point",
    "coordinates": [
     -75.4459501052858,
     36.915611719151265
    ]
   },
   "properties": {
    "kind": "unmatched",
    "domain": "sea",
    "t_start": "2024-08-08T22:58:40+00:00",
    "t_end": "2024-08-08T22:58:40+00:00",
    "duration_s": 0.0,
    "confidence": 0.95,
    "platform_ids": [],
    "evidence": {
     "sensor": "sentinel1-vv-cfar",
     "detector_confidence": 0.95,
     "detection_rate_this_pass": 1.0,
     "reports_considered": 12,
     "reports_with_a_fix": 12,
     "search_radius_m": 110.1,
     "snr": 32.62,
     "length_m_approx": 37.4,
     "pixels": 14,
     "scene": "S1A_IW_GRDH_1SDV_20240808T225840_20240808T225905_055128_06B7CB_5842_COG.SAFE"
    }
   }
  },
  {
   "type": "Feature",
   "geometry": {
    "type": "Point",
    "coordinates": [
     -75.42840746900237,
     36.900279970761915
    ]
   },
   "properties": {
    "kind": "unmatched",
    "domain": "sea",
    "t_start": "2024-08-08T22:58:40+00:00",
    "t_end": "2024-08-08T22:58:40+00:00",
    "duration_s": 0.0,
    "confidence": 0.95,
    "platform_ids": [],
    "evidence": {
     "sensor": "sentinel1-vv-cfar",
     "detector_confidence": 0.95,
     "detection_rate_this_pass": 1.0,
     "reports_considered": 12,
     "reports_with_a_fix": 12,
     "search_radius_m": 113.9,
     "snr": 26.69,
     "length_m_approx": 40.0,
     "pixels": 16,
     "scene": "S1A_IW_GRDH_1SDV_20240808T225840_20240808T225905_055128_06B7CB_5842_COG.SAFE"
    }
   }
  },
  {
   "type": "Feature",
   "geometry": {
    "type": "Point",
    "coordinates": [
     -75.44196983213477,
     36.884751207228696
    ]
   },
   "properties": {
    "kind": "unmatched",
    "domain": "sea",
    "t_start": "2024-08-08T22:58:40+00:00",
    "t_end": "2024-08-08T22:58:40+00:00",
    "duration_s": 0.0,
    "confidence": 0.95,
    "platform_ids": [],
    "evidence": {
     "sensor": "sentinel1-vv-cfar",
     "detector_confidence": 0.95,
     "detection_rate_this_pass": 1.0,
     "reports_considered": 12,
     "reports_with_a_fix": 12,
     "search_radius_m": 107.9,
     "snr": 25.79,
     "length_m_approx": 36.1,
     "pixels": 13,
     "scene": "S1A_IW_GRDH_1SDV_20240808T225840_20240808T225905_055128_06B7CB_5842_COG.SAFE"
    }
   }
  },
  {
   "type": "Feature",
   "geometry": {
    "type": "Point",
    "coordinates": [
     -75.42828936855432,
     36.89943391412369
    ]
   },
   "properties": {
    "kind": "unmatched",
    "domain": "sea",
    "t_start": "2024-08-08T22:58:40+00:00",
    "t_end": "2024-08-08T22:58:40+00:00",
    "duration_s": 0.0,
    "confidence": 0.95,
    "platform_ids": [],
    "evidence": {
     "sensor": "sentinel1-vv-cfar",
     "detector_confidence": 0.95,
     "detection_rate_this_pass": 1.0,
     "reports_considered": 12,
     "reports_with_a_fix": 12,
     "search_radius_m": 123.4,
     "snr": 25.55,
     "length_m_approx": 45.8,
     "pixels": 21,
     "scene": "S1A_IW_GRDH_1SDV_20240808T225840_20240808T225905_055128_06B7CB_5842_COG.SAFE"
    }
   }
  },
  {
   "type": "Feature",
   "geometry": {
    "type": "Point",
    "coordinates": [
     -75.46150061548063,
     36.91549915604287
    ]
   },
   "properties": {
    "kind": "unmatched",
    "domain": "sea",
    "t_start": "2024-08-08T22:58:40+00:00",
    "t_end": "2024-08-08T22:58:40+00:00",
    "duration_s": 0.0,
    "confidence": 0.95,
    "platform_ids": [],
    "evidence": {
     "sensor": "sentinel1-vv-cfar",
     "detector_confidence": 0.95,
     "detection_rate_this_pass": 1.0,
     "reports_considered": 12,
     "reports_with_a_fix": 12,
     "search_radius_m": 110.1,
     "snr": 25.35,
     "length_m_approx": 37.4,
     "pixels": 14,
     "scene": "S1A_IW_GRDH_1SDV_20240808T225840_20240808T225905_055128_06B7CB_5842_COG.SAFE"
    }
   }
  },
  {
   "type": "Feature",
   "geometry": {
    "type": "Point",
    "coordinates": [
     -75.42672771408797,
     36.88598687537337
    ]
   },
   "properties": {
    "kind": "unmatched",
    "domain": "sea",
    "t_start": "2024-08-08T22:58:40+00:00",
    "t_end": "2024-08-08T22:58:40+00:00",
    "duration_s": 0.0,
    "confidence": 0.761,
    "platform_ids": [],
    "evidence": {
     "sensor": "sentinel1-vv-cfar",
     "detector_confidence": 0.761,
     "detection_rate_this_pass": 1.0,
     "reports_considered": 12,
     "reports_with_a_fix": 12,
     "search_radius_m": 92.1,
     "snr": 15.21,
     "length_m_approx": 24.5,
     "pixels": 6,
     "scene": "S1A_IW_GRDH_1SDV_20240808T225840_20240808T225905_055128_06B7CB_5842_COG.SAFE"
    }
   }
  },
  {
   "type": "Feature",
   "geometry": {
    "type": "Point",
    "coordinates": [
     -75.37015768528504,
     36.93132209855636
    ]
   },
   "properties": {
    "kind": "unmatched",
    "domain": "sea",
    "t_start": "2024-08-08T22:58:40+00:00",
    "t_end": "2024-08-08T22:58:40+00:00",
    "duration_s": 0.0,
    "confidence": 0.95,
    "platform_ids": [],
    "evidence": {
     "sensor": "sentinel1-vv-cfar",
     "detector_confidence": 0.95,
     "detection_rate_this_pass": 1.0,
     "reports_considered": 12,
     "reports_with_a_fix": 12,
     "search_radius_m": 113.9,
     "snr": 38.15,
     "length_m_approx": 40.0,
     "pixels": 16,
     "scene": "S1A_IW_GRDH_1SDV_20240808T225840_20240808T225905_055128_06B7CB_5842_COG.SAFE"
    }
   }
  },
  {
   "type": "Feature",
   "geometry": {
    "type": "Point",
    "coordinates": [
     -75.39727522085536,
     36.90034017165205
    ]
   },
   "properties": {
    "kind": "unmatched",
    "domain": "sea",
    "t_start": "2024-08-08T22:58:40+00:00",
    "t_end": "2024-08-08T22:58:40+00:00",
    "duration_s": 0.0,
    "confidence": 0.95,
    "platform_ids": [],
    "evidence": {
     "sensor": "sentinel1-vv-cfar",
     "detector_confidence": 0.95,
     "detection_rate_this_pass": 1.0,
     "reports_considered": 12,
     "reports_with_a_fix": 12,
     "search_radius_m": 107.9,
     "snr": 31.6,
     "length_m_approx": 36.1,
     "pixels": 13,
     "scene": "S1A_IW_GRDH_1SDV_20240808T225840_20240808T225905_055128_06B7CB_5842_COG.SAFE"
    }
   }
  },
  {
   "type": "Feature",
   "geometry": {
    "type": "Point",
    "coordinates": [
     -75.35457214969937,
     36.93133700204631
    ]
   },
   "properties": {
    "kind": "unmatched",
    "domain": "sea",
    "t_start": "2024-08-08T22:58:40+00:00",
    "t_end": "2024-08-08T22:58:40+00:00",
    "duration_s": 0.0,
    "confidence": 0.95,
    "platform_ids": [],
    "evidence": {
     "sensor": "sentinel1-vv-cfar",
     "detector_confidence": 0.95,
     "detection_rate_this_pass": 1.0,
     "reports_considered": 12,
     "reports_with_a_fix": 12,
     "search_radius_m": 103.8,
     "snr": 26.03,
     "length_m_approx": 33.2,
     "pixels": 11,
     "scene": "S1A_IW_GRDH_1SDV_20240808T225840_20240808T225905_055128_06B7CB_5842_COG.SAFE"
    }
   }
  },
  {
   "type": "Feature",
   "geometry": {
    "type": "Point",
    "coordinates": [
     -75.38569706427737,
     36.93106813096785
    ]
   },
   "properties": {
    "kind": "unmatched",
    "domain": "sea",
    "t_start": "2024-08-08T22:58:40+00:00",
    "t_end": "2024-08-08T22:58:40+00:00",
    "duration_s": 0.0,
    "confidence": 0.95,
    "platform_ids": [],
    "evidence": {
     "sensor": "sentinel1-vv-cfar",
     "detector_confidence": 0.95,
     "detection_rate_this_pass": 1.0,
     "reports_considered": 12,
     "reports_with_a_fix": 12,
     "search_radius_m": 117.8,
     "snr": 25.32,
     "length_m_approx": 42.4,
     "pixels": 18,
     "scene": "S1A_IW_GRDH_1SDV_20240808T225840_20240808T225905_055128_06B7CB_5842_COG.SAFE"
    }
   }
  },
  {
   "type": "Feature",
   "geometry": {
    "type": "Point",
    "coordinates": [
     -75.39928000464646,
     36.915752028259554
    ]
   },
   "properties": {
    "kind": "unmatched",
    "domain": "sea",
    "t_start": "2024-08-08T22:58:40+00:00",
    "t_end": "2024-08-08T22:58:40+00:00",
    "duration_s": 0.0,
    "confidence": 0.95,
    "platform_ids": [],
    "evidence": {
     "sensor": "sentinel1-vv-cfar",
     "detector_confidence": 0.95,
     "detection_rate_this_pass": 1.0,
     "reports_considered": 12,
     "reports_with_a_fix": 12,
     "search_radius_m": 101.4,
     "snr": 23.87,
     "length_m_approx": 31.6,
     "pixels": 10,
     "scene": "S1A_IW_GRDH_1SDV_20240808T225840_20240808T225905_055128_06B7CB_5842_COG.SAFE"
    }
   }
  },
  {
   "type": "Feature",
   "geometry": {
    "type": "Point",
    "coordinates": [
     -75.38373272392748,
     36.915807189581464
    ]
   },
   "properties": {
    "kind": "unmatched",
    "domain": "sea",
    "t_start": "2024-08-08T22:58:40+00:00",
    "t_end": "2024-08-08T22:58:40+00:00",
    "duration_s": 0.0,
    "confidence": 0.95,
    "platform_ids": [],
    "evidence": {
     "sensor": "sentinel1-vv-cfar",
     "detector_confidence": 0.95,
     "detection_rate_this_pass": 1.0,
     "reports_considered": 12,
     "reports_with_a_fix": 12,
     "search_radius_m": 103.8,
     "snr": 22.56,
     "length_m_approx": 33.2,
     "pixels": 11,
     "scene": "S1A_IW_GRDH_1SDV_20240808T225840_20240808T225905_055128_06B7CB_5842_COG.SAFE"
    }
   }
  },
  {
   "type": "Feature",
   "geometry": {
    "type": "Point",
    "coordinates": [
     -75.36817589137249,
     36.91588518353985
    ]
   },
   "properties": {
    "kind": "unmatched",
    "domain": "sea",
    "t_start": "2024-08-08T22:58:40+00:00",
    "t_end": "2024-08-08T22:58:40+00:00",
    "duration_s": 0.0,
    "confidence": 0.95,
    "platform_ids": [],
    "evidence": {
     "sensor": "sentinel1-vv-cfar",
     "detector_confidence": 0.95,
     "detection_rate_this_pass": 1.0,
     "reports_considered": 12,
     "reports_with_a_fix": 12,
     "search_radius_m": 103.8,
     "snr": 22.55,
     "length_m_approx": 33.2,
     "pixels": 11,
     "scene": "S1A_IW_GRDH_1SDV_20240808T225840_20240808T225905_055128_06B7CB_5842_COG.SAFE"
    }
   }
  },
  {
   "type": "Feature",
   "geometry": {
    "type": "Point",
    "coordinates": [
     -75.4635119779581,
     36.93094335586912
    ]
   },
   "properties": {
    "kind": "unmatched",
    "domain": "sea",
    "t_start": "2024-08-08T22:58:40+00:00",
    "t_end": "2024-08-08T22:58:40+00:00",
    "duration_s": 0.0,
    "confidence": 0.95,
    "platform_ids": [],
    "evidence": {
     "sensor": "sentinel1-vv-cfar",
     "detector_confidence": 0.95,
     "detection_rate_this_pass": 1.0,
     "reports_considered": 12,
     "reports_with_a_fix": 12,
     "search_radius_m": 107.9,
     "snr": 40.27,
     "length_m_approx": 36.1,
     "pixels": 13,
     "scene": "S1A_IW_GRDH_1SDV_20240808T225840_20240808T225905_055128_06B7CB_5842_COG.SAFE"
    }
   }
  },
  {
   "type": "Feature",
   "geometry": {
    "type": "Point",
    "coordinates": [
     -75.47905421681074,
     36.930845782472005
    ]
   },
   "properties": {
    "kind": "unmatched",
    "domain": "sea",
    "t_start": "2024-08-08T22:58:40+00:00",
    "t_end": "2024-08-08T22:58:40+00:00",
    "duration_s": 0.0,
    "confidence": 0.95,
    "platform_ids": [],
    "evidence": {
     "sensor": "sentinel1-vv-cfar",
     "detector_confidence": 0.95,
     "detection_rate_this_pass": 1.0,
     "reports_considered": 12,
     "reports_with_a_fix": 12,
     "search_radius_m": 113.9,
     "snr": 33.11,
     "length_m_approx": 40.0,
     "pixels": 16,
     "scene": "S1A_IW_GRDH_1SDV_20240808T225840_20240808T225905_055128_06B7CB_5842_COG.SAFE"
    }
   }
  },
  {
   "type": "Feature",
   "geometry": {
    "type": "Point",
    "coordinates": [
     -75.3565662023656,
     36.946682071947755
    ]
   },
   "properties": {
    "kind": "unmatched",
    "domain": "sea",
    "t_start": "2024-08-08T22:58:40+00:00",
    "t_end": "2024-08-08T22:58:40+00:00",
    "duration_s": 0.0,
    "confidence": 0.95,
    "platform_ids": [],
    "evidence": {
     "sensor": "sentinel1-vv-cfar",
     "detector_confidence": 0.95,
     "detection_rate_this_pass": 1.0,
     "reports_considered": 12,
     "reports_with_a_fix": 12,
     "search_radius_m": 125.4,
     "snr": 44.18,
     "length_m_approx": 46.9,
     "pixels": 22,
     "scene": "S1A_IW_GRDH_1SDV_20240808T225840_20240808T225905_055128_06B7CB_5842_COG.SAFE"
    }
   }
  },
  {
   "type": "Feature",
   "geometry": {
    "type": "Point",
    "coordinates": [
     -75.38966832700322,
     36.96197962552865
    ]
   },
   "properties": {
    "kind": "unmatched",
    "domain": "sea",
    "t_start": "2024-08-08T22:58:40+00:00",
    "t_end": "2024-08-08T22:58:40+00:00",
    "duration_s": 0.0,
    "confidence": 0.95,
    "platform_ids": [],
    "evidence": {
     "sensor": "sentinel1-vv-cfar",
     "detector_confidence": 0.95,
     "detection_rate_this_pass": 1.0,
     "reports_considered": 12,
     "reports_with_a_fix": 12,
     "search_radius_m": 132.3,
     "snr": 41.14,
     "length_m_approx": 51.0,
     "pixels": 26,
     "scene": "S1A_IW_GRDH_1SDV_20240808T225840_20240808T225905_055128_06B7CB_5842_COG.SAFE"
    }
   }
  },
  {
   "type": "Feature",
   "geometry": {
    "type": "Point",
    "coordinates": [
     -75.3585285747589,
     36.962137631542035
    ]
   },
   "properties": {
    "kind": "unmatched",
    "domain": "sea",
    "t_start": "2024-08-08T22:58:40+00:00",
    "t_end": "2024-08-08T22:58:40+00:00",
    "duration_s": 0.0,
    "confidence": 0.95,
    "platform_ids": [],
    "evidence": {
     "sensor": "sentinel1-vv-cfar",
     "detector_confidence": 0.95,
     "detection_rate_this_pass": 1.0,
     "reports_considered": 12,
     "reports_with_a_fix": 12,
     "search_radius_m": 125.4,
     "snr": 38.33,
     "length_m_approx": 46.9,
     "pixels": 22,
     "scene": "S1A_IW_GRDH_1SDV_20240808T225840_20240808T225905_055128_06B7CB_5842_COG.SAFE"
    }
   }
  },
  {
   "type": "Feature",
   "geometry": {
    "type": "Point",
    "coordinates": [
     -74.52403461573334,
     37.15040910591381
    ]
   },
   "properties": {
    "kind": "unmatched",
    "domain": "sea",
    "t_start": "2024-08-08T22:58:40+00:00",
    "t_end": "2024-08-08T22:58:40+00:00",
    "duration_s": 0.0,
    "confidence": 0.95,
    "platform_ids": [],
    "evidence": {
     "sensor": "sentinel1-vv-cfar",
     "detector_confidence": 0.95,
     "detection_rate_this_pass": 1.0,
     "reports_considered": 12,
     "reports_with_a_fix": 12,
     "search_radius_m": 137.3,
     "snr": 32.11,
     "length_m_approx": 53.9,
     "pixels": 29,
     "scene": "S1A_IW_GRDH_1SDV_20240808T225840_20240808T225905_055128_06B7CB_5842_COG.SAFE"
    }
   }
  },
  {
   "type": "Feature",
   "geometry": {
    "type": "Point",
    "coordinates": [
     -74.52464248076356,
     37.1509973873617
    ]
   },
   "properties": {
    "kind": "unmatched",
    "domain": "sea",
    "t_start": "2024-08-08T22:58:40+00:00",
    "t_end": "2024-08-08T22:58:40+00:00",
    "duration_s": 0.0,
    "confidence": 0.95,
    "platform_ids": [],
    "evidence": {
     "sensor": "sentinel1-vv-cfar",
     "detector_confidence": 0.95,
     "detection_rate_this_pass": 1.0,
     "reports_considered": 12,
     "reports_with_a_fix": 12,
     "search_radius_m": 121.7,
     "snr": 30.35,
     "length_m_approx": 44.7,
     "pixels": 20,
     "scene": "S1A_IW_GRDH_1SDV_20240808T225840_20240808T225905_055128_06B7CB_5842_COG.SAFE"
    }
   }
  }
 ]
}