{
 "type": "FeatureCollection",
 "properties": {
  "scene": "S1A_IW_GRDH_1SDV_20240901T225841_20240901T225906_055478_06C4A7_DF0B_COG.SAFE",
  "acquired": "2024-09-01T22:58:41+00:00",
  "geolocation_rms_m": 3.1,
  "geolocation_holdout_m": 9.9,
  "geolocation_median_m": 10.0,
  "geolocation_p90_m": 10.5,
  "geolocation_worst_m": 49.4,
  "geolocation_uneven": true,
  "geolocation_convergence": 3.18,
  "geolocation_method": "geolocation grid (bilinear)",
  "geolocation_validation": "holdout at 2x spacing",
  "tiles": 117,
  "tiles_skipped": 0,
  "k_sigma": 6.0,
  "land_masked": true,
  "water_fraction": 0.672,
  "land_sea_contrast": 3.13,
  "coast_blind_m": 605.0,
  "searched_km2": 28274.2,
  "refused_km2": 0.0,
  "tiles_without_water": 11,
  "outside_aoi": 0,
  "aoi_sea": [
   -77.2,
   36.0,
   -71.0,
   39.6
  ],
  "footprint": [
   [
    -76.22494,
    36.42849
   ],
   [
    -75.99097,
    36.46443
   ],
   [
    -75.75679,
    36.49994
   ],
   [
    -75.52238,
    36.535
   ],
   [
    -75.28775,
    36.56957
   ],
   [
    -75.05291,
    36.6037
   ],
   [
    -74.81788,
    36.63738
   ],
   [
    -74.58263,
    36.67056
   ],
   [
    -74.34718,
    36.7033
   ],
   [
    -74.11155,
    36.73559
   ],
   [
    -73.8757,
    36.76738
   ],
   [
    -73.63967,
    36.79871
   ],
   [
    -73.40346,
    36.8296
   ],
   [
    -73.42901,
    36.95477
   ],
   [
    -73.45458,
    37.07993
   ],
   [
    -73.48017,
    37.20509
   ],
   [
    -73.50579,
    37.33025
   ],
   [
    -73.53144,
    37.4554
   ],
   [
    -73.55711,
    37.58055
   ],
   [
    -73.5828,
    37.70569
   ],
   [
    -73.60851,
    37.83083
   ],
   [
    -73.63423,
    37.95597
   ],
   [
    -73.65999,
    38.0811
   ],
   [
    -73.68577,
    38.20623
   ],
   [
    -73.71157,
    38.33135
   ],
   [
    -73.95263,
    38.30074
   ],
   [
    -74.1935,
    38.26965
   ],
   [
    -74.43417,
    38.23809
   ],
   [
    -74.67461,
    38.206
   ],
   [
    -74.91485,
    38.17343
   ],
   [
    -75.15489,
    38.1404
   ],
   [
    -75.39459,
    38.10685
   ],
   [
    -75.63415,
    38.07282
   ],
   [
    -75.87365,
    38.03831
   ],
   [
    -76.11278,
    38.00328
   ],
   [
    -76.35158,
    37.96781
   ],
   [
    -76.58982,
    37.93193
   ],
   [
    -76.55926,
    37.80665
   ],
   [
    -76.52878,
    37.68137
   ],
   [
    -76.49813,
    37.55611
   ],
   [
    -76.46762,
    37.43083
   ],
   [
    -76.43718,
    37.30555
   ],
   [
    -76.40672,
    37.18027
   ],
   [
    -76.37602,
    37.05503
   ],
   [
    -76.3455,
    36.92976
   ],
   [
    -76.31549,
    36.80442
   ],
   [
    -76.28527,
    36.67912
   ],
   [
    -76.25507,
    36.55381
   ]
  ],
  "searched_grid": {
   "cell_deg": 0.01,
   "lon0": -76.54,
   "lat0": 36.46,
   "levels": 10,
   "rows": {
    "1": [
     [
      63,
      1,
      3
     ]
    ],
    "2": [
     [
      69,
      1,
      2
     ],
     [
      70,
      1,
      7
     ]
    ],
    "4": [
     [
      71,
      1,
      1
     ]
    ],
    "6": [
     [
      72,
      1,
      2
     ]
    ],
    "7": [
     [
      72,
      1,
      1
     ]
    ],
    "11": [
     [
      76,
      2,
      1
     ]
    ],
    "14": [
     [
      148,
      1,
      1
     ],
     [
      150,
      1,
      2
     ],
     [
      151,
      1,
      3
     ]
    ],
    "15": [
     [
      151,
      1,
      6
     ],
     [
      154,
      1,
      2
     ],
     [
      155,
      1,
      6
     ],
     [
      156,
      4,
      10
     ]
    ],
    "16": [
     [
      143,
      2,
      1
     ],
     [
      150,
      1,
      2
     ],
     [
      152,
      1,
      2
     ],
     [
      155,
      1,
      2
     ],
     [
      156,
      11,
      10
     ]
    ],
    "17": [
     [
      152,
      1,
      4
     ],
     [
      153,
      1,
      10
     ],
     [
      154,
      1,
      9
     ],
     [
      155,
      1,
      8
     ],
     [
      156,
      18,
      10
     ]
    ],
    "18": [
     [
      151,
      1,
      2
     ],
     [
      152,
      1,
      9
     ],
     [
      153,
      28,
      10
     ]
    ],
    "19": [
     [
      151,
      1,
      2
     ],
     [
      152,
      1,
      9
     ],
     [
      153,
      35,
      10
     ]
    ],
    "20": [
     [
      153,
      1,
      3
     ],
     [
      154,
      1,
      9
     ],
     [
      155,
      40,
      10
     ]
    ],
    "21": [
     [
      154,
      1,
      9
     ],
     [
      155,
      48,
      10
     ]
    ],
    "22": [
     [
      154,
      1,
      6
     ],
     [
      155,
      55,
      10
     ]
    ],
    "23": [
     [
      63,
      1,
      1
     ],
     [
      152,
      1,
      2
     ],
     [
      153,
      1,
      6
     ],
     [
      154,
      1,
      9
     ],
     [
      155,
      62,
      10
     ]
    ],
    "24": [
     [
      63,
      1,
      3
     ],
     [
      64,
      1,
      4
     ],
     [
      152,
      1,
      4
     ],
     [
      153,
      1,
      9
     ],
     [
      154,
      70,
      10
     ]
    ],
    "25": [
     [
      62,
      1,
      3
     ],
     [
      63,
      1,
      9
     ],
     [
      64,
      1,
      10
     ],
     [
      65,
      1,
      8
     ],
     [
      66,
      1,
      1
     ],
     [
      153,
      1,
      4
     ],
     [
      154,
      1,
      9
     ],
     [
      155,
      77,
      10
     ]
    ],
    "26": [
     [
      61,
      1,
      2
     ],
     [
      62,
      1,
      6
     ],
     [
      63,
      3,
      10
     ],
     [
      66,
      1,
      7
     ],
     [
      155,
      84,
      10
     ]
    ],
    "27": [
     [
      62,
      1,
      1
     ],
     [
      63,
      2,
      3
     ],
     [
      65,
      1,
      5
     ],
     [
      155,
      1,
      1
     ],
     [
      156,
      90,
      10
     ]
    ],
    "28": [
     [
      140,
      1,
      1
     ],
     [
      156,
      1,
      4
     ],
     [
      157,
      97,
      10
     ]
    ],
    "29": [
     [
      153,
      1,
      2
     ],
     [
      154,
      1,
      4
     ],
     [
      156,
      1,
      4
     ],
     [
      157,
      104,
      10
     ]
    ],
    "30": [
     [
      145,
      1,
      6
     ],
     [
      146,
      1,
      7
     ],
     [
      147,
      1,
      6
     ],
     [
      148,
      1,
      1
     ],
     [
      151,
      1,
      6
     ],
     [
      152,
      1,
      7
     ],
     [
      153,
      3,
      10
     ],
     [
      156,
      1,
      9
     ],
     [
      157,
      112,
      10
     ]
    ],
    "31": [
     [
      144,
      1,
      2
     ],
     [
      145,
      2,
      10
     ],
     [
      147,
      1,
      6
     ],
     [
      148,
      1,
      2
     ],
     [
      149,
      1,
      5
     ],
     [
      150,
      1,
      2
     ],
     [
      151,
      12,
      10
     ],
     [
      163,
      1,
      3
     ],
     [
      165,
      1,
      6
     ],
     [
      166,
      110,
      10
     ]
    ],
    "32": [
     [
      145,
      1,
      3
     ],
     [
      146,
      1,
      10
     ],
     [
      147,
      1,
      1
     ],
     [
      149,
      1,
      5
     ],
     [
      150,
      1,
      9
     ],
     [
      151,
      12,
      10
     ],
     [
      163,
      1,
      1
     ],
     [
      165,
      1,
      8
     ],
     [
      166,
      118,
      10
     ]
    ],
    "33": [
     [
      142,
      1,
      3
     ],
     [
      146,
      1,
      6
     ],
     [
      147,
      1,
      3
     ],
     [
      150,
      1,
      1
     ],
     [
      151,
      1,
      8
     ],
     [
      152,
      12,
      10
     ],
     [
      164,
      1,
      9
     ],
     [
      165,
      126,
      10
     ]
    ],
    "34": [
     [
      135,
      1,
      8
     ],
     [
      141,
      1,
      1
     ],
     [
      142,
      1,
      7
     ],
     [
      143,
      1,
      1
     ],
     [
      147,
      1,
      3
     ],
     [
      148,
      1,
      1
     ],
     [
      150,
      1,
      4
     ],
     [
      151,
      148,
      10
     ]
    ],
    "35": [
     [
      135,
      1,
      4
     ],
     [
      136,
      1,
      1
     ],
     [
      139,
      1,
      1
     ],
     [
      142,
      1,
      8
     ],
     [
      143,
      1,
      4
     ],
     [
      149,
      1,
      5
     ],
     [
      150,
      156,
      10
     ]
    ],
    "36": [
     [
      135,
      1,
      2
     ],
     [
      139,
      1,
      3
     ],
     [
      140,
      1,
      6
     ],
     [
      141,
      2,
      8
     ],
     [
      143,
      1,
      3
     ],
     [
      147,
      1,
      4
     ],
     [
      148,
      1,
      8
     ],
     [
      149,
      160,
      10
     ]
    ],
    "37": [
     [
      138,
      2,
      3
     ],
     [
      140,
      1,
      1
     ],
     [
      142,
      2,
      10
     ],
     [
      144,
      1,
      6
     ],
     [
      146,
      1,
      1
     ],
     [
      147,
      1,
      7
     ],
     [
      148,
      160,
      10
     ],
     [
      308,
      1,
      7
     ]
    ],
    "38": [
     [
      136,
      1,
      3
     ],
     [
      137,
      1,
      7
     ],
     [
      138,
      1,
      9
     ],
     [
      139,
      1,
      6
     ],
     [
      140,
      1,
      2
     ],
     [
      142,
      1,
      5
     ],
     [
      143,
      2,
      10
     ],
     [
      146,
      1,
      4
     ],
     [
      147,
      161,
      10
     ],
     [
      308,
      1,
      6
     ]
    ],
    "39": [
     [
      138,
      1,
      4
     ],
     [
      140,
      1,
      2
     ],
     [
      141,
      1,
      10
     ],
     [
      142,
      1,
      9
     ],
     [
      143,
      165,
      10
     ],
     [
      308,
      1,
      3
     ]
    ],
    "40": [
     [
      136,
      1,
      3
     ],
     [
      138,
      1,
      7
     ],
     [
      139,
      169,
      10
     ],
     [
      308,
      1,
      1
     ]
    ],
    "41": [
     [
      135,
      1,
      1
     ],
     [
      136,
      1,
      7
     ],
     [
      137,
      171,
      10
     ]
    ],
    "42": [
     [
      135,
      1,
      8
     ],
     [
      136,
      171,
      10
     ],
     [
      307,
      1,
      7
     ]
    ],
    "43": [
     [
      131,
      1,
      1
     ],
     [
      132,
      1,
      8
     ],
     [
      133,
      2,
      7
     ],
     [
      135,
      172,
      10
     ],
     [
      307,
      1,
      5
     ]
    ],
    "44": [
     [
      131,
      1,
      5
     ],
     [
      132,
      175,
      10
     ],
     [
      307,
      1,
      4
     ]
    ],
    "45": [
     [
      130,
      1,
      3
     ],
     [
      131,
      176,
      10
     ]
    ],
    "46": [
     [
      131,
      1,
      8
     ],
     [
      132,
      175,
      10
     ]
    ],
    "47": [
     [
      66,
      1,
      1
     ],
     [
      131,
      1,
      7
     ],
     [
      132,
      174,
      10
     ],
     [
      306,
      1,
      6
     ]
    ],
    "48": [
     [
      65,
      1,
      1
     ],
     [
      66,
      2,
      5
     ],
     [
      69,
      1,
      1
     ],
     [
      130,
      1,
      2
     ],
     [
      131,
      175,
      10
     ],
     [
      306,
      1,
      6
     ]
    ],
    "49": [
     [
      67,
      1,
      7
     ],
     [
      68,
      2,
      10
     ],
     [
      70,
      1,
      6
     ],
     [
      71,
      1,
      1
     ],
     [
      129,
      1,
      2
     ],
     [
      130,
      176,
      10
     ],
     [
      306,
      1,
      3
     ]
    ],
    "50": [
     [
      66,
      1,
      2
     ],
     [
      67,
      3,
      10
     ],
     [
      70,
      1,
      3
     ],
     [
      128,
      1,
      1
     ],
     [
      129,
      1,
      7
     ],
     [
      130,
      176,
      10
     ]
    ],
    "51": [
     [
      28,
      1,
      2
     ],
     [
      66,
      1,
      1
     ],
     [
      67,
      1,
      8
     ],
     [
      68,
      2,
      10
     ],
     [
      70,
      1,
      1
     ],
     [
      129,
      1,
      4
     ],
     [
      130,
      175,
      10
     ],
     [
      305,
      1,
      9
     ]
    ],
    "52": [
     [
      28,
      1,
      6
     ],
     [
      67,
      1,
      3
     ],
     [
      68,
      1,
      10
     ],
     [
      69,
      1,
      9
     ],
     [
      128,
      1,
      1
     ],
     [
      129,
      1,
      8
     ],
     [
      130,
      175,
      10
     ],
     [
      305,
      1,
      7
     ]
    ],
    "53": [
     [
      32,
      1,
      3
     ],
     [
      33,
      1,
      1
     ],
     [
      38,
      1,
      2
     ],
     [
      67,
      1,
      6
     ],
     [
      68,
      1,
      10
     ],
     [
      69,
      1,
      7
     ],
     [
      129,
      1,
      9
     ],
     [
      130,
      175,
      10
     ],
     [
      305,
      1,
      4
     ]
    ],
    "54": [
     [
      25,
      1,
      6
     ],
     [
      26,
      1,
      5
     ],
     [
      33,
      1,
      1
     ],
     [
      34,
      1,
      2
     ],
     [
      37,
      1,
      5
     ],
     [
      38,
      1,
      9
     ],
     [
      67,
      1,
      1
     ],
     [
      68,
      1,
      7
     ],
     [
      69,
      1,
      6
     ],
     [
      129,
      1,
      2
     ],
     [
      130,
      175,
      10
     ],
     [
      305,
      1,
      3
     ]
    ],
    "55": [
     [
      25,
      1,
      6
     ],
     [
      26,
      1,
      10
     ],
     [
      27,
      1,
      8
     ],
     [
      28,
      1,
      6
     ],
     [
      29,
      1,
      2
     ],
     [
      30,
      1,
      1
     ],
     [
      31,
      1,
      5
     ],
     [
      32,
      1,
      1
     ],
     [
      35,
      1,
      2
     ],
     [
      36,
      1,
      4
     ],
     [
      37,
      1,
      10
     ],
     [
      38,
      1,
      8
     ],
     [
      130,
      1,
      8
     ],
     [
      131,
      174,
      10
     ]
    ],
    "56": [
     [
      25,
      1,
      5
     ],
     [
      26,
      1,
      10
     ],
     [
      27,
      1,
      5
     ],
     [
      29,
      1,
      3
     ],
     [
      30,
      1,
      4
     ],
     [
      31,
      1,
      3
     ],
     [
      33,
      1,
      6
     ],
     [
      34,
      2,
      10
     ],
     [
      36,
      1,
      9
     ],
     [
      37,
      1,
      5
     ],
     [
      38,
      1,
      6
     ],
     [
      131,
      1,
      6
     ],
     [
      132,
      172,
      10
     ],
     [
      304,
      1,
      9
     ]
    ],
    "57": [
     [
      26,
      1,
      9
     ],
     [
      27,
      1,
      6
     ],
     [
      31,
      1,
      3
     ],
     [
      32,
      2,
      8
     ],
     [
      34,
      1,
      3
     ],
     [
      36,
      1,
      2
     ],
     [
      131,
      1,
      6
     ],
     [
      132,
      172,
      10
     ],
     [
      304,
      1,
      6
     ]
    ],
    "58": [
     [
      26,
      1,
      6
     ],
     [
      27,
      1,
      7
     ],
     [
      32,
      1,
      9
     ],
     [
      33,
      1,
      7
     ],
     [
      67,
      1,
      2
     ],
     [
      131,
      1,
      6
     ],
     [
      132,
      172,
      10
     ],
     [
      304,
      1,
      4
     ]
    ],
    "59": [
     [
      26,
      1,
      2
     ],
     [
      27,
      1,
      5
     ],
     [
      33,
      1,
      8
     ],
     [
      34,
      1,
      2
     ],
     [
      66,
      1,
      6
     ],
     [
      67,
      1,
      3
     ],
     [
      130,
      1,
      1
     ],
     [
      131,
      1,
      5
     ],
     [
      132,
      172,
      10
     ],
     [
      304,
      1,
      2
     ]
    ],
    "60": [
     [
      26,
      1,
      1
     ],
     [
      27,
      1,
      2
     ],
     [
      33,
      1,
      9
     ],
     [
      34,
      1,
      7
     ],
     [
      130,
      1,
      8
     ],
     [
      131,
      173,
      10
     ]
    ],
    "61": [
     [
      27,
      1,
      5
     ],
     [
      126,
      1,
      4
     ],
     [
      127,
      1,
      8
     ],
     [
      128,
      1,
      10
     ],
     [
      129,
      1,
      9
     ],
     [
      130,
      173,
      10
     ],
     [
      303,
      1,
      7
     ]
    ],
    "62": [
     [
      27,
      2,
      2
     ],
     [
      125,
      1,
      3
     ],
     [
      126,
      177,
      10
     ],
     [
      303,
      1,
      6
     ]
    ],
    "63": [
     [
      27,
      1,
      3
     ],
     [
      124,
      1,
      2
     ],
     [
      125,
      1,
      9
     ],
     [
      126,
      177,
      10
     ],
     [
      303,
      1,
      4
     ]
    ],
    "64": [
     [
      123,
      1,
      6
     ],
     [
      124,
      1,
      9
     ],
     [
      125,
      178,
      10
     ],
     [
      303,
      1,
      1
     ]
    ],
    "65": [
     [
      123,
      1,
      8
     ],
     [
      124,
      179,
      10
     ]
    ],
    "66": [
     [
      123,
      1,
      5
     ],
     [
      124,
      178,
      10
     ],
     [
      302,
      1,
      7
     ]
    ],
    "67": [
     [
      123,
      1,
      4
     ],
     [
      124,
      178,
      10
     ],
     [
      302,
      1,
      7
     ]
    ],
    "68": [
     [
      122,
      1,
      1
     ],
     [
      123,
      1,
      6
     ],
     [
      124,
      178,
      10
     ],
     [
      302,
      1,
      3
     ]
    ],
    "69": [
     [
      122,
      1,
      3
     ],
     [
      123,
      179,
      10
     ],
     [
      302,
      1,
      1
     ]
    ],
    "70": [
     [
      122,
      1,
      1
     ],
     [
      123,
      179,
      10
     ]
    ],
    "71": [
     [
      122,
      1,
      1
     ],
     [
      123,
      178,
      10
     ],
     [
      301,
      1,
      7
     ]
    ],
    "72": [
     [
      121,
      1,
      2
     ],
     [
      122,
      1,
      6
     ],
     [
      123,
      178,
      10
     ],
     [
      301,
      1,
      5
     ]
    ],
    "73": [
     [
      119,
      1,
      2
     ],
     [
      120,
      1,
      3
     ],
     [
      121,
      1,
      8
     ],
     [
      122,
      179,
      10
     ],
     [
      301,
      1,
      3
     ]
    ],
    "74": [
     [
      119,
      182,
      10
     ],
     [
      301,
      1,
      1
     ]
    ],
    "75": [
     [
      114,
      1,
      1
     ],
     [
      115,
      1,
      5
     ],
     [
      116,
      1,
      6
     ],
     [
      117,
      1,
      5
     ],
     [
      118,
      1,
      6
     ],
     [
      119,
      182,
      10
     ]
    ],
    "76": [
     [
      114,
      1,
      6
     ],
     [
      115,
      185,
      10
     ],
     [
      300,
      1,
      7
     ]
    ],
    "77": [
     [
      110,
      1,
      7
     ],
     [
      111,
      1,
      8
     ],
     [
      112,
      1,
      4
     ],
     [
      113,
      1,
      1
     ],
     [
      114,
      1,
      8
     ],
     [
      115,
      185,
      10
     ],
     [
      300,
      1,
      5
     ]
    ],
    "78": [
     [
      110,
      190,
      10
     ],
     [
      300,
      1,
      4
     ]
    ],
    "79": [
     [
      109,
      1,
      3
     ],
     [
      110,
      190,
      10
     ]
    ],
    "80": [
     [
      85,
      1,
      1
     ],
     [
      86,
      1,
      6
     ],
     [
      87,
      1,
      4
     ],
     [
      88,
      1,
      2
     ],
     [
      107,
      1,
      3
     ],
     [
      108,
      2,
      9
     ],
     [
      110,
      189,
      10
     ],
     [
      299,
      1,
      9
     ]
    ],
    "81": [
     [
      86,
      1,
      8
     ],
     [
      87,
      1,
      10
     ],
     [
      88,
      1,
      7
     ],
     [
      89,
      2,
      2
     ],
     [
      91,
      1,
      6
     ],
     [
      92,
      1,
      3
     ],
     [
      105,
      1,
      2
     ],
     [
      106,
      1,
      7
     ],
     [
      107,
      1,
      8
     ],
     [
      108,
      191,
      10
     ],
     [
      299,
      1,
      7
     ]
    ],
    "82": [
     [
      87,
      6,
      10
     ],
     [
      93,
      1,
      3
     ],
     [
      94,
      1,
      1
     ],
     [
      96,
      1,
      6
     ],
     [
      97,
      1,
      2
     ],
     [
      104,
      1,
      2
     ],
     [
      105,
      194,
      10
     ],
     [
      299,
      1,
      6
     ]
    ],
    "83": [
     [
      86,
      1,
      4
     ],
     [
      87,
      7,
      10
     ],
     [
      96,
      1,
      2
     ],
     [
      97,
      1,
      4
     ],
     [
      98,
      2,
      8
     ],
     [
      100,
      1,
      5
     ],
     [
      104,
      195,
      10
     ],
     [
      299,
      1,
      3
     ]
    ],
    "84": [
     [
      86,
      1,
      5
     ],
     [
      87,
      7,
      10
     ],
     [
      94,
      1,
      7
     ],
     [
      98,
      1,
      7
     ],
     [
      99,
      1,
      10
     ],
     [
      100,
      1,
      1
     ],
     [
      104,
      1,
      6
     ],
     [
      105,
      194,
      10
     ]
    ],
    "85": [
     [
      75,
      1,
      2
     ],
     [
      86,
      1,
      9
     ],
     [
      87,
      8,
      10
     ],
     [
      95,
      1,
      1
     ],
     [
      98,
      1,
      5
     ],
     [
      99,
      1,
      10
     ],
     [
      100,
      1,
      1
     ],
     [
      102,
      1,
      6
     ],
     [
      103,
      1,
      2
     ],
     [
      104,
      1,
      8
     ],
     [
      105,
      193,
      10
     ],
     [
      298,
      1,
      9
     ]
    ],
    "86": [
     [
      71,
      1,
      1
     ],
     [
      84,
      1,
      7
     ],
     [
      85,
      1,
      9
     ],
     [
      86,
      10,
      10
     ],
     [
      96,
      1,
      4
     ],
     [
      97,
      1,
      1
     ],
     [
      99,
      1,
      7
     ],
     [
      100,
      1,
      8
     ],
     [
      101,
      1,
      4
     ],
     [
      102,
      1,
      8
     ],
     [
      103,
      195,
      10
     ],
     [
      298,
      1,
      7
     ]
    ],
    "87": [
     [
      71,
      1,
      4
     ],
     [
      84,
      1,
      3
     ],
     [
      85,
      4,
      10
     ],
     [
      89,
      1,
      8
     ],
     [
      90,
      1,
      7
     ],
     [
      91,
      1,
      9
     ],
     [
      92,
      5,
      10
     ],
     [
      97,
      1,
      2
     ],
     [
      98,
      1,
      1
     ],
     [
      99,
      199,
      10
     ],
     [
      298,
      1,
      3
     ]
    ],
    "88": [
     [
      68,
      1,
      3
     ],
     [
      69,
      1,
      6
     ],
     [
      70,
      1,
      3
     ],
     [
      71,
      1,
      8
     ],
     [
      72,
      1,
      4
     ],
     [
      73,
      1,
      2
     ],
     [
      85,
      1,
      1
     ],
     [
      86,
      1,
      5
     ],
     [
      87,
      1,
      8
     ],
     [
      88,
      1,
      10
     ],
     [
      89,
      1,
      3
     ],
     [
      91,
      1,
      8
     ],
     [
      92,
      6,
      10
     ],
     [
      98,
      1,
      8
     ],
     [
      99,
      199,
      10
     ],
     [
      298,
      1,
      3
     ]
    ],
    "89": [
     [
      69,
      1,
      4
     ],
     [
      70,
      4,
      10
     ],
     [
      91,
      1,
      2
     ],
     [
      92,
      1,
      9
     ],
     [
      93,
      205,
      10
     ],
     [
      298,
      1,
      1
     ]
    ],
    "90": [
     [
      37,
      1,
      1
     ],
     [
      38,
      1,
      5
     ],
     [
      39,
      1,
      6
     ],
     [
      69,
      2,
      6
     ],
     [
      71,
      1,
      5
     ],
     [
      72,
      1,
      1
     ],
     [
      73,
      1,
      2
     ],
     [
      92,
      1,
      5
     ],
     [
      93,
      205,
      10
     ],
     [
      298,
      1,
      2
     ]
    ],
    "91": [
     [
      38,
      1,
      8
     ],
     [
      39,
      2,
      10
     ],
     [
      41,
      1,
      1
     ],
     [
      68,
      2,
      3
     ],
     [
      79,
      1,
      3
     ],
     [
      80,
      1,
      1
     ],
     [
      92,
      1,
      1
     ],
     [
      93,
      1,
      6
     ],
     [
      94,
      4,
      10
     ],
     [
      98,
      1,
      3
     ],
     [
      99,
      1,
      4
     ],
     [
      100,
      198,
      10
     ]
    ],
    "92": [
     [
      37,
      1,
      7
     ],
     [
      38,
      3,
      10
     ],
     [
      41,
      1,
      4
     ],
     [
      54,
      1,
      3
     ],
     [
      68,
      1,
      1
     ],
     [
      94,
      1,
      8
     ],
     [
      95,
      1,
      10
     ],
     [
      96,
      1,
      8
     ],
     [
      97,
      1,
      4
     ],
     [
      99,
      1,
      1
     ],
     [
      100,
      197,
      10
     ],
     [
      297,
      1,
      8
     ]
    ],
    "93": [
     [
      35,
      2,
      1
     ],
     [
      37,
      1,
      7
     ],
     [
      38,
      3,
      10
     ],
     [
      41,
      1,
      9
     ],
     [
      42,
      1,
      6
     ],
     [
      43,
      1,
      8
     ],
     [
      44,
      1,
      6
     ],
     [
      53,
      1,
      3
     ],
     [
      54,
      1,
      10
     ],
     [
      55,
      1,
      5
     ],
     [
      94,
      1,
      3
     ],
     [
      95,
      1,
      4
     ],
     [
      96,
      1,
      2
     ],
     [
      100,
      1,
      5
     ],
     [
      101,
      196,
      10
     ],
     [
      297,
      1,
      6
     ]
    ],
    "94": [
     [
      33,
      1,
      2
     ],
     [
      34,
      1,
      1
     ],
     [
      35,
      1,
      5
     ],
     [
      36,
      9,
      10
     ],
     [
      45,
      1,
      9
     ],
     [
      46,
      1,
      7
     ],
     [
      47,
      1,
      2
     ],
     [
      53,
      1,
      5
     ],
     [
      54,
      1,
      10
     ],
     [
      55,
      1,
      1
     ],
     [
      98,
      1,
      1
     ],
     [
      99,
      1,
      2
     ],
     [
      100,
      1,
      5
     ],
     [
      101,
      196,
      10
     ],
     [
      297,
      1,
      3
     ]
    ],
    "95": [
     [
      32,
      1,
      1
     ],
     [
      33,
      1,
      2
     ],
     [
      34,
      1,
      1
     ],
     [
      35,
      1,
      2
     ],
     [
      36,
      11,
      10
     ],
     [
      47,
      1,
      6
     ],
     [
      53,
      1,
      5
     ],
     [
      54,
      1,
      9
     ],
     [
      99,
      1,
      1
     ],
     [
      101,
      1,
      6
     ],
     [
      102,
      195,
      10
     ],
     [
      297,
      1,
      2
     ]
    ],
    "96": [
     [
      31,
      1,
      2
     ],
     [
      32,
      1,
      8
     ],
     [
      33,
      1,
      2
     ],
     [
      35,
      1,
      4
     ],
     [
      36,
      11,
      10
     ],
     [
      47,
      1,
      8
     ],
     [
      48,
      1,
      5
     ],
     [
      53,
      1,
      1
     ],
     [
      54,
      1,
      8
     ],
     [
      101,
      1,
      7
     ],
     [
      102,
      195,
      10
     ]
    ],
    "97": [
     [
      31,
      1,
      1
     ],
     [
      32,
      1,
      10
     ],
     [
      33,
      1,
      6
     ],
     [
      34,
      2,
      7
     ],
     [
      36,
      1,
      8
     ],
     [
      37,
      12,
      10
     ],
     [
      50,
      2,
      1
     ],
     [
      53,
      1,
      4
     ],
     [
      54,
      1,
      9
     ],
     [
      98,
      1,
      4
     ],
     [
      99,
      1,
      5
     ],
     [
      100,
      1,
      6
     ],
     [
      101,
      1,
      9
     ],
     [
      102,
      194,
      10
     ],
     [
      296,
      1,
      8
     ]
    ],
    "98": [
     [
      32,
      2,
      1
     ],
     [
      36,
      1,
      1
     ],
     [
      37,
      15,
      10
     ],
     [
      52,
      1,
      6
     ],
     [
      53,
      1,
      8
     ],
     [
      54,
      1,
      10
     ],
     [
      55,
      1,
      3
     ],
     [
      98,
      1,
      2
     ],
     [
      99,
      197,
      10
     ],
     [
      296,
      1,
      6
     ]
    ],
    "99": [
     [
      33,
      1,
      6
     ],
     [
      34,
      1,
      8
     ],
     [
      37,
      1,
      7
     ],
     [
      38,
      1,
      10
     ],
     [
      39,
      1,
      6
     ],
     [
      40,
      1,
      7
     ],
     [
      41,
      1,
      9
     ],
     [
      42,
      9,
      10
     ],
     [
      51,
      1,
      7
     ],
     [
      53,
      1,
      3
     ],
     [
      54,
      1,
      10
     ],
     [
      55,
      1,
      9
     ],
     [
      98,
      1,
      1
     ],
     [
      99,
      197,
      10
     ],
     [
      296,
      1,
      4
     ]
    ],
    "100": [
     [
      34,
      1,
      3
     ],
     [
      35,
      1,
      2
     ],
     [
      37,
      1,
      1
     ],
     [
      38,
      1,
      5
     ],
     [
      41,
      1,
      5
     ],
     [
      42,
      10,
      10
     ],
     [
      52,
      1,
      5
     ],
     [
      54,
      1,
      9
     ],
     [
      55,
      1,
      10
     ],
     [
      56,
      1,
      5
     ],
     [
      98,
      1,
      2
     ],
     [
      99,
      197,
      10
     ],
     [
      296,
      1,
      1
     ]
    ],
    "101": [
     [
      31,
      1,
      1
     ],
     [
      34,
      1,
      3
     ],
     [
      35,
      1,
      1
     ],
     [
      41,
      1,
      3
     ],
     [
      42,
      10,
      10
     ],
     [
      52,
      1,
      9
     ],
     [
      53,
      1,
      7
     ],
     [
      54,
      2,
      10
     ],
     [
      56,
      1,
      8
     ],
     [
      98,
      1,
      4
     ],
     [
      99,
      197,
      10
     ]
    ],
    "102": [
     [
      28,
      1,
      2
     ],
     [
      33,
      2,
      1
     ],
     [
      40,
      1,
      2
     ],
     [
      41,
      1,
      8
     ],
     [
      42,
      14,
      10
     ],
     [
      56,
      1,
      6
     ],
     [
      97,
      1,
      1
     ],
     [
      98,
      1,
      8
     ],
     [
      99,
      196,
      10
     ],
     [
      295,
      1,
      7
     ]
    ],
    "103": [
     [
      28,
      1,
      3
     ],
     [
      38,
      1,
      1
     ],
     [
      39,
      1,
      10
     ],
     [
      40,
      1,
      9
     ],
     [
      41,
      15,
      10
     ],
     [
      56,
      1,
      7
     ],
     [
      95,
      1,
      1
     ],
     [
      96,
      1,
      3
     ],
     [
      97,
      1,
      4
     ],
     [
      98,
      197,
      10
     ],
     [
      295,
      1,
      6
     ]
    ],
    "104": [
     [
      40,
      1,
      6
     ],
     [
      41,
      16,
      10
     ],
     [
      57,
      1,
      3
     ],
     [
      95,
      1,
      6
     ],
     [
      96,
      199,
      10
     ],
     [
      295,
      1,
      3
     ]
    ],
    "105": [
     [
      41,
      1,
      3
     ],
     [
      42,
      15,
      10
     ],
     [
      57,
      1,
      5
     ],
     [
      95,
      1,
      9
     ],
     [
      96,
      199,
      10
     ],
     [
      295,
      1,
      1
     ]
    ],
    "106": [
     [
      44,
      14,
      10
     ],
     [
      58,
      1,
      1
     ],
     [
      94,
      1,
      7
     ],
     [
      95,
      200,
      10
     ]
    ],
    "107": [
     [
      42,
      1,
      2
     ],
     [
      43,
      1,
      1
     ],
     [
      44,
      14,
      10
     ],
     [
      58,
      1,
      7
     ],
     [
      92,
      1,
      6
     ],
     [
      93,
      1,
      8
     ],
     [
      94,
      200,
      10
     ],
     [
      294,
      1,
      7
     ]
    ],
    "108": [
     [
      40,
      1,
      2
     ],
     [
      41,
      1,
      8
     ],
     [
      42,
      17,
      10
     ],
     [
      59,
      1,
      3
     ],
     [
      92,
      1,
      1
     ],
     [
      93,
      1,
      9
     ],
     [
      94,
      200,
      10
     ],
     [
      294,
      1,
      6
     ]
    ],
    "109": [
     [
      36,
      2,
      1
     ],
     [
      38,
      1,
      3
     ],
     [
      39,
      1,
      8
     ],
     [
      40,
      1,
      7
     ],
     [
      41,
      18,
      10
     ],
     [
      59,
      1,
      4
     ],
     [
      93,
      1,
      1
     ],
     [
      94,
      1,
      9
     ],
     [
      95,
      199,
      10
     ],
     [
      294,
      1,
      3
     ]
    ],
    "110": [
     [
      37,
      1,
      5
     ],
     [
      38,
      21,
      10
     ],
     [
      94,
      1,
      1
     ],
     [
      95,
      1,
      9
     ],
     [
      96,
      198,
      10
     ],
     [
      294,
      1,
      1
     ]
    ],
    "111": [
     [
      37,
      1,
      7
     ],
     [
      38,
      21,
      10
     ],
     [
      59,
      1,
      3
     ],
     [
      94,
      1,
      1
     ],
     [
      95,
      1,
      7
     ],
     [
      96,
      198,
      10
     ]
    ],
    "112": [
     [
      36,
      1,
      6
     ],
     [
      37,
      22,
      10
     ],
     [
      59,
      1,
      9
     ],
     [
      60,
      1,
      4
     ],
     [
      94,
      1,
      7
     ],
     [
      95,
      198,
      10
     ],
     [
      293,
      1,
      7
     ]
    ],
    "113": [
     [
      33,
      1,
      1
     ],
     [
      34,
      1,
      2
     ],
     [
      35,
      1,
      3
     ],
     [
      36,
      1,
      9
     ],
     [
      37,
      24,
      10
     ],
     [
      93,
      2,
      9
     ],
     [
      95,
      198,
      10
     ],
     [
      293,
      1,
      4
     ]
    ],
    "114": [
     [
      32,
      1,
      2
     ],
     [
      33,
      1,
      1
     ],
     [
      34,
      1,
      2
     ],
     [
      36,
      24,
      10
     ],
     [
      60,
      1,
      8
     ],
     [
      90,
      1,
      2
     ],
     [
      93,
      1,
      5
     ],
     [
      94,
      199,
      10
     ],
     [
      293,
      1,
      3
     ]
    ],
    "115": [
     [
      28,
      1,
      2
     ],
     [
      29,
      1,
      4
     ],
     [
      30,
      1,
      6
     ],
     [
      31,
      2,
      8
     ],
     [
      33,
      1,
      2
     ],
     [
      34,
      1,
      3
     ],
     [
      35,
      1,
      6
     ],
     [
      36,
      25,
      10
     ],
     [
      61,
      1,
      7
     ],
     [
      90,
      1,
      4
     ],
     [
      93,
      1,
      3
     ],
     [
      94,
      199,
      10
     ]
    ],
    "116": [
     [
      26,
      1,
      4
     ],
     [
      27,
      1,
      9
     ],
     [
      28,
      33,
      10
     ],
     [
      61,
      1,
      9
     ],
     [
      62,
      1,
      1
     ],
     [
      88,
      1,
      1
     ],
     [
      89,
      1,
      2
     ],
     [
      90,
      1,
      1
     ],
     [
      94,
      1,
      6
     ],
     [
      95,
      198,
      10
     ]
    ],
    "117": [
     [
      25,
      1,
      2
     ],
     [
      26,
      38,
      10
     ],
     [
      89,
      1,
      3
     ],
     [
      94,
      1,
      2
     ],
     [
      95,
      197,
      10
     ],
     [
      292,
      1,
      6
     ]
    ],
    "118": [
     [
      24,
      1,
      3
     ],
     [
      25,
      1,
      8
     ],
     [
      26,
      38,
      10
     ],
     [
      64,
      1,
      1
     ],
     [
      95,
      1,
      8
     ],
     [
      96,
      196,
      10
     ],
     [
      292,
      1,
      5
     ]
    ],
    "119": [
     [
      23,
      1,
      1
     ],
     [
      24,
      1,
      5
     ],
     [
      25,
      39,
      10
     ],
     [
      64,
      1,
      4
     ],
     [
      65,
      1,
      1
     ],
     [
      95,
      1,
      6
     ],
     [
      96,
      196,
      10
     ],
     [
      292,
      1,
      2
     ]
    ],
    "120": [
     [
      22,
      1,
      4
     ],
     [
      23,
      42,
      10
     ],
     [
      65,
      1,
      6
     ],
     [
      95,
      1,
      3
     ],
     [
      96,
      196,
      10
     ]
    ],
    "121": [
     [
      22,
      1,
      4
     ],
     [
      23,
      1,
      9
     ],
     [
      24,
      42,
      10
     ],
     [
      66,
      1,
      6
     ],
     [
      95,
      1,
      1
     ],
     [
      96,
      1,
      8
     ],
     [
      97,
      194,
      10
     ],
     [
      291,
      1,
      8
     ]
    ],
    "122": [
     [
      23,
      1,
      1
     ],
     [
      24,
      1,
      5
     ],
     [
      25,
      41,
      10
     ],
     [
      66,
      1,
      2
     ],
     [
      96,
      1,
      6
     ],
     [
      97,
      194,
      10
     ],
     [
      291,
      1,
      7
     ]
    ],
    "123": [
     [
      24,
      1,
      4
     ],
     [
      25,
      41,
      10
     ],
     [
      66,
      1,
      8
     ],
     [
      67,
      1,
      2
     ],
     [
      97,
      1,
      8
     ],
     [
      98,
      193,
      10
     ],
     [
      291,
      1,
      4
     ]
    ],
    "124": [
     [
      24,
      1,
      7
     ],
     [
      25,
      42,
      10
     ],
     [
      67,
      1,
      7
     ],
     [
      97,
      1,
      4
     ],
     [
      98,
      193,
      10
     ],
     [
      291,
      1,
      2
     ]
    ],
    "125": [
     [
      23,
      1,
      2
     ],
     [
      24,
      1,
      9
     ],
     [
      25,
      44,
      10
     ],
     [
      69,
      1,
      7
     ],
     [
      70,
      1,
      1
     ],
     [
      97,
      1,
      1
     ],
     [
      98,
      1,
      9
     ],
     [
      99,
      192,
      10
     ]
    ],
    "126": [
     [
      23,
      1,
      1
     ],
     [
      24,
      1,
      9
     ],
     [
      25,
      28,
      10
     ],
     [
      53,
      1,
      9
     ],
     [
      54,
      1,
      7
     ],
     [
      55,
      1,
      3
     ],
     [
      56,
      1,
      2
     ],
     [
      57,
      13,
      10
     ],
     [
      98,
      1,
      8
     ],
     [
      99,
      191,
      10
     ],
     [
      290,
      1,
      8
     ]
    ],
    "127": [
     [
      24,
      29,
      10
     ],
     [
      53,
      1,
      6
     ],
     [
      55,
      1,
      1
     ],
     [
      56,
      1,
      4
     ],
     [
      57,
      10,
      10
     ],
     [
      67,
      1,
      8
     ],
     [
      68,
      2,
      10
     ],
     [
      98,
      1,
      1
     ],
     [
      99,
      1,
      9
     ],
     [
      100,
      190,
      10
     ],
     [
      290,
      1,
      6
     ]
    ],
    "128": [
     [
      25,
      1,
      4
     ],
     [
      26,
      27,
      10
     ],
     [
      53,
      1,
      7
     ],
     [
      54,
      1,
      5
     ],
     [
      55,
      1,
      8
     ],
     [
      56,
      9,
      10
     ],
     [
      65,
      1,
      1
     ],
     [
      68,
      1,
      1
     ],
     [
      69,
      1,
      10
     ],
     [
      70,
      1,
      7
     ],
     [
      71,
      1,
      1
     ],
     [
      99,
      1,
      2
     ],
     [
      100,
      190,
      10
     ],
     [
      290,
      1,
      3
     ]
    ],
    "129": [
     [
      23,
      1,
      1
     ],
     [
      26,
      1,
      8
     ],
     [
      27,
      38,
      10
     ],
     [
      65,
      1,
      3
     ],
     [
      66,
      1,
      4
     ],
     [
      67,
      1,
      7
     ],
     [
      68,
      4,
      10
     ],
     [
      72,
      1,
      6
     ],
     [
      73,
      1,
      2
     ],
     [
      100,
      1,
      6
     ],
     [
      101,
      189,
      10
     ],
     [
      290,
      1,
      2
     ]
    ],
    "130": [
     [
      24,
      1,
      9
     ],
     [
      25,
      1,
      4
     ],
     [
      26,
      1,
      8
     ],
     [
      27,
      46,
      10
     ],
     [
      73,
      1,
      1
     ],
     [
      100,
      1,
      1
     ],
     [
      101,
      189,
      10
     ]
    ],
    "131": [
     [
      25,
      1,
      1
     ],
     [
      26,
      1,
      7
     ],
     [
      27,
      45,
      10
     ],
     [
      72,
      1,
      6
     ],
     [
      101,
      1,
      5
     ],
     [
      102,
      187,
      10
     ],
     [
      289,
      1,
      7
     ]
    ],
    "132": [
     [
      26,
      1,
      9
     ],
     [
      27,
      45,
      10
     ],
     [
      102,
      1,
      7
     ],
     [
      103,
      186,
      10
     ],
     [
      289,
      1,
      6
     ]
    ],
    "133": [
     [
      24,
      2,
      8
     ],
     [
      26,
      46,
      10
     ],
     [
      72,
      1,
      2
     ],
     [
      78,
      2,
      1
     ],
     [
      102,
      1,
      1
     ],
     [
      103,
      1,
      9
     ],
     [
      104,
      185,
      10
     ],
     [
      289,
      1,
      4
     ]
    ],
    "134": [
     [
      24,
      1,
      8
     ],
     [
      25,
      1,
      6
     ],
     [
      26,
      1,
      5
     ],
     [
      27,
      1,
      6
     ],
     [
      28,
      25,
      10
     ],
     [
      53,
      1,
      8
     ],
     [
      54,
      1,
      3
     ],
     [
      55,
      1,
      4
     ],
     [
      56,
      17,
      10
     ],
     [
      73,
      1,
      6
     ],
     [
      77,
      1,
      2
     ],
     [
      78,
      1,
      9
     ],
     [
      103,
      1,
      1
     ],
     [
      104,
      1,
      9
     ],
     [
      105,
      184,
      10
     ],
     [
      289,
      1,
      1
     ]
    ],
    "135": [
     [
      24,
      1,
      3
     ],
     [
      28,
      1,
      5
     ],
     [
      29,
      24,
      10
     ],
     [
      53,
      1,
      7
     ],
     [
      56,
      1,
      8
     ],
     [
      57,
      18,
      10
     ],
     [
      75,
      1,
      7
     ],
     [
      76,
      1,
      10
     ],
     [
      77,
      1,
      9
     ],
     [
      78,
      1,
      10
     ],
     [
      79,
      1,
      5
     ],
     [
      80,
      1,
      4
     ],
     [
      104,
      1,
      1
     ],
     [
      105,
      1,
      9
     ],
     [
      106,
      183,
      10
     ]
    ],
    "136": [
     [
      29,
      1,
      5
     ],
     [
      30,
      23,
      10
     ],
     [
      53,
      1,
      3
     ],
     [
      57,
      1,
      7
     ],
     [
      58,
      22,
      10
     ],
     [
      80,
      1,
      9
     ],
     [
      81,
      1,
      3
     ],
     [
      105,
      1,
      2
     ],
     [
      106,
      1,
      9
     ],
     [
      107,
      181,
      10
     ],
     [
      288,
      1,
      7
     ]
    ],
    "137": [
     [
      29,
      1,
      1
     ],
     [
      30,
      23,
      10
     ],
     [
      53,
      1,
      1
     ],
     [
      57,
      1,
      9
     ],
     [
      58,
      23,
      10
     ],
     [
      81,
      1,
      9
     ],
     [
      106,
      1,
      1
     ],
     [
      107,
      1,
      9
     ],
     [
      108,
      6,
      10
     ],
     [
      114,
      1,
      9
     ],
     [
      115,
      173,
      10
     ],
     [
      288,
      1,
      7
     ]
    ],
    "138": [
     [
      30,
      23,
      10
     ],
     [
      53,
      1,
      3
     ],
     [
      55,
      1,
      1
     ],
     [
      56,
      1,
      9
     ],
     [
      57,
      25,
      10
     ],
     [
      82,
      1,
      2
     ],
     [
      85,
      1,
      1
     ],
     [
      108,
      1,
      7
     ],
     [
      109,
      4,
      10
     ],
     [
      113,
      1,
      8
     ],
     [
      116,
      1,
      4
     ],
     [
      117,
      1,
      9
     ],
     [
      118,
      170,
      10
     ],
     [
      288,
      1,
      3
     ]
    ],
    "139": [
     [
      30,
      1,
      7
     ],
     [
      31,
      22,
      10
     ],
     [
      53,
      1,
      1
     ],
     [
      55,
      1,
      8
     ],
     [
      56,
      26,
      10
     ],
     [
      82,
      1,
      9
     ],
     [
      83,
      1,
      7
     ],
     [
      84,
      1,
      2
     ],
     [
      109,
      1,
      5
     ],
     [
      110,
      1,
      8
     ],
     [
      111,
      2,
      10
     ],
     [
      113,
      1,
      2
     ],
     [
      117,
      1,
      2
     ],
     [
      118,
      1,
      8
     ],
     [
      119,
      169,
      10
     ],
     [
      288,
      1,
      1
     ]
    ],
    "140": [
     [
      30,
      1,
      4
     ],
     [
      31,
      21,
      10
     ],
     [
      52,
      1,
      7
     ],
     [
      54,
      1,
      1
     ],
     [
      55,
      1,
      7
     ],
     [
      56,
      28,
      10
     ],
     [
      84,
      1,
      1
     ],
     [
      112,
      1,
      8
     ],
     [
      113,
      1,
      4
     ],
     [
      118,
      1,
      4
     ],
     [
      119,
      1,
      9
     ],
     [
      120,
      168,
      10
     ]
    ],
    "141": [
     [
      30,
      1,
      1
     ],
     [
      31,
      1,
      9
     ],
     [
      32,
      2,
      10
     ],
     [
      34,
      1,
      7
     ],
     [
      35,
      1,
      2
     ],
     [
      36,
      1,
      5
     ],
     [
      37,
      1,
      8
     ],
     [
      38,
      14,
      10
     ],
     [
      52,
      1,
      6
     ],
     [
      53,
      1,
      1
     ],
     [
      54,
      1,
      8
     ],
     [
      55,
      29,
      10
     ],
     [
      84,
      1,
      6
     ],
     [
      112,
      1,
      4
     ],
     [
      113,
      1,
      6
     ],
     [
      116,
      1,
      1
     ],
     [
      117,
      1,
      3
     ],
     [
      119,
      1,
      1
     ],
     [
      120,
      167,
      10
     ],
     [
      287,
      1,
      7
     ]
    ],
    "142": [
     [
      31,
      1,
      9
     ],
     [
      32,
      2,
      10
     ],
     [
      34,
      1,
      9
     ],
     [
      35,
      1,
      3
     ],
     [
      36,
      1,
      1
     ],
     [
      37,
      26,
      10
     ],
     [
      63,
      1,
      7
     ],
     [
      64,
      1,
      9
     ],
     [
      65,
      18,
      10
     ],
     [
      83,
      1,
      4
     ],
     [
      84,
      1,
      1
     ],
     [
      113,
      1,
      5
     ],
     [
      114,
      1,
      8
     ],
     [
      115,
      1,
      2
     ],
     [
      116,
      1,
      3
     ],
     [
      117,
      1,
      2
     ],
     [
      120,
      1,
      3
     ],
     [
      121,
      166,
      10
     ],
     [
      287,
      1,
      5
     ]
    ],
    "143": [
     [
      30,
      1,
      3
     ],
     [
      31,
      31,
      10
     ],
     [
      62,
      1,
      7
     ],
     [
      65,
      12,
      10
     ],
     [
      77,
      1,
      7
     ],
     [
      78,
      1,
      1
     ],
     [
      81,
      1,
      3
     ],
     [
      82,
      2,
      1
     ],
     [
      114,
      1,
      2
     ],
     [
      121,
      1,
      6
     ],
     [
      122,
      165,
      10
     ],
     [
      287,
      1,
      3
     ]
    ],
    "144": [
     [
      29,
      1,
      6
     ],
     [
      30,
      33,
      10
     ],
     [
      63,
      1,
      2
     ],
     [
      64,
      1,
      1
     ],
     [
      65,
      1,
      4
     ],
     [
      66,
      1,
      9
     ],
     [
      67,
      10,
      10
     ],
     [
      77,
      1,
      7
     ],
     [
      78,
      1,
      4
     ],
     [
      121,
      1,
      1
     ],
     [
      122,
      1,
      9
     ],
     [
      123,
      164,
      10
     ],
     [
      287,
      1,
      1
     ]
    ],
    "145": [
     [
      27,
      1,
      1
     ],
     [
      28,
      1,
      5
     ],
     [
      29,
      21,
      10
     ],
     [
      50,
      1,
      6
     ],
     [
      51,
      1,
      4
     ],
     [
      52,
      1,
      8
     ],
     [
      53,
      10,
      10
     ],
     [
      63,
      1,
      8
     ],
     [
      68,
      1,
      4
     ],
     [
      69,
      1,
      7
     ],
     [
      70,
      9,
      10
     ],
     [
      79,
      1,
      1
     ],
     [
      122,
      1,
      3
     ],
     [
      123,
      164,
      10
     ]
    ],
    "146": [
     [
      25,
      1,
      1
     ],
     [
      26,
      1,
      7
     ],
     [
      27,
      23,
      10
     ],
     [
      50,
      1,
      1
     ],
     [
      52,
      1,
      1
     ],
     [
      53,
      10,
      10
     ],
     [
      63,
      1,
      6
     ],
     [
      70,
      1,
      1
     ],
     [
      71,
      1,
      7
     ],
     [
      72,
      7,
      10
     ],
     [
      79,
      1,
      9
     ],
     [
      80,
      1,
      1
     ],
     [
      123,
      1,
      6
     ],
     [
      124,
      162,
      10
     ],
     [
      286,
      1,
      7
     ]
    ],
    "147": [
     [
      23,
      1,
      2
     ],
     [
      24,
      2,
      9
     ],
     [
      26,
      24,
      10
     ],
     [
      53,
      1,
      8
     ],
     [
      54,
      9,
      10
     ],
     [
      63,
      1,
      9
     ],
     [
      71,
      1,
      1
     ],
     [
      72,
      1,
      4
     ],
     [
      73,
      7,
      10
     ],
     [
      80,
      1,
      9
     ],
     [
      81,
      1,
      1
     ],
     [
      83,
      1,
      2
     ],
     [
      84,
      1,
      3
     ],
     [
      123,
      1,
      1
     ],
     [
      124,
      1,
      9
     ],
     [
      125,
      161,
      10
     ],
     [
      286,
      1,
      4
     ]
    ],
    "148": [
     [
      22,
      1,
      6
     ],
     [
      23,
      26,
      10
     ],
     [
      49,
      1,
      1
     ],
     [
      55,
      1,
      7
     ],
     [
      56,
      7,
      10
     ],
     [
      63,
      1,
      9
     ],
     [
      72,
      1,
      3
     ],
     [
      73,
      9,
      10
     ],
     [
      82,
      1,
      8
     ],
     [
      83,
      2,
      9
     ],
     [
      85,
      1,
      4
     ],
     [
      86,
      1,
      3
     ],
     [
      87,
      1,
      2
     ],
     [
      88,
      2,
      1
     ],
     [
      115,
      1,
      1
     ],
     [
      124,
      1,
      4
     ],
     [
      125,
      161,
      10
     ],
     [
      286,
      1,
      3
     ]
    ],
    "149": [
     [
      21,
      1,
      3
     ],
     [
      22,
      26,
      10
     ],
     [
      48,
      1,
      6
     ],
     [
      55,
      1,
      3
     ],
     [
      56,
      8,
      10
     ],
     [
      64,
      1,
      4
     ],
     [
      65,
      1,
      3
     ],
     [
      66,
      1,
      4
     ],
     [
      74,
      1,
      1
     ],
     [
      75,
      1,
      7
     ],
     [
      76,
      3,
      10
     ],
     [
      79,
      1,
      7
     ],
     [
      80,
      2,
      8
     ],
     [
      82,
      3,
      10
     ],
     [
      85,
      1,
      9
     ],
     [
      86,
      1,
      6
     ],
     [
      87,
      1,
      1
     ],
     [
      89,
      1,
      1
     ],
     [
      111,
      1,
      2
     ],
     [
      112,
      1,
      5
     ],
     [
      113,
      1,
      10
     ],
     [
      114,
      2,
      9
     ],
     [
      116,
      1,
      7
     ],
     [
      117,
      1,
      3
     ],
     [
      125,
      1,
      5
     ],
     [
      126,
      160,
      10
     ]
    ],
    "150": [
     [
      18,
      1,
      2
     ],
     [
      19,
      1,
      5
     ],
     [
      20,
      1,
      10
     ],
     [
      21,
      1,
      9
     ],
     [
      22,
      26,
      10
     ],
     [
      48,
      1,
      5
     ],
     [
      55,
      1,
      5
     ],
     [
      56,
      7,
      10
     ],
     [
      63,
      1,
      8
     ],
     [
      64,
      1,
      2
     ],
     [
      65,
      1,
      1
     ],
     [
      66,
      1,
      2
     ],
     [
      75,
      1,
      1
     ],
     [
      76,
      1,
      3
     ],
     [
      77,
      1,
      1
     ],
     [
      78,
      1,
      3
     ],
     [
      79,
      1,
      1
     ],
     [
      82,
      1,
      4
     ],
     [
      83,
      1,
      1
     ],
     [
      111,
      1,
      2
     ],
     [
      112,
      6,
      10
     ],
     [
      118,
      1,
      9
     ],
     [
      119,
      1,
      1
     ],
     [
      126,
      1,
      8
     ],
     [
      127,
      158,
      10
     ],
     [
      285,
      1,
      9
     ]
    ],
    "151": [
     [
      21,
      27,
      10
     ],
     [
      48,
      1,
      4
     ],
     [
      55,
      1,
      3
     ],
     [
      56,
      7,
      10
     ],
     [
      63,
      1,
      4
     ],
     [
      111,
      1,
      1
     ],
     [
      112,
      1,
      8
     ],
     [
      113,
      6,
      10
     ],
     [
      119,
      1,
      9
     ],
     [
      126,
      1,
      2
     ],
     [
      127,
      1,
      9
     ],
     [
      128,
      157,
      10
     ],
     [
      285,
      1,
      7
     ]
    ],
    "152": [
     [
      28,
      20,
      10
     ],
     [
      48,
      1,
      3
     ],
     [
      56,
      1,
      3
     ],
     [
      57,
      6,
      10
     ],
     [
      63,
      1,
      9
     ],
     [
      64,
      1,
      1
     ],
     [
      114,
      1,
      9
     ],
     [
      115,
      5,
      10
     ],
     [
      120,
      1,
      4
     ],
     [
      121,
      1,
      3
     ],
     [
      122,
      1,
      2
     ],
     [
      127,
      1,
      3
     ],
     [
      128,
      1,
      9
     ],
     [
      129,
      156,
      10
     ],
     [
      285,
      1,
      5
     ]
    ],
    "153": [
     [
      35,
      13,
      10
     ],
     [
      48,
      1,
      2
     ],
     [
      56,
      1,
      3
     ],
     [
      57,
      7,
      10
     ],
     [
      64,
      1,
      3
     ],
     [
      114,
      1,
      5
     ],
     [
      115,
      1,
      8
     ],
     [
      116,
      1,
      9
     ],
     [
      117,
      5,
      10
     ],
     [
      122,
      1,
      8
     ],
     [
      123,
      1,
      2
     ],
     [
      128,
      1,
      4
     ],
     [
      129,
      156,
      10
     ],
     [
      285,
      1,
      2
     ]
    ],
    "154": [
     [
      42,
      6,
      10
     ],
     [
      48,
      1,
      4
     ],
     [
      56,
      1,
      6
     ],
     [
      57,
      7,
      10
     ],
     [
      64,
      1,
      9
     ],
     [
      65,
      1,
      2
     ],
     [
      116,
      1,
      1
     ],
     [
      117,
      1,
      9
     ],
     [
      118,
      6,
      10
     ],
     [
      124,
      1,
      7
     ],
     [
      128,
      1,
      1
     ],
     [
      129,
      1,
      7
     ],
     [
      130,
      155,
      10
     ]
    ],
    "155": [
     [
      56,
      1,
      9
     ],
     [
      57,
      8,
      10
     ],
     [
      65,
      1,
      6
     ],
     [
      117,
      8,
      10
     ],
     [
      125,
      1,
      3
     ],
     [
      129,
      1,
      1
     ],
     [
      130,
      1,
      8
     ],
     [
      131,
      153,
      10
     ],
     [
      284,
      1,
      8
     ]
    ],
    "156": [
     [
      56,
      10,
      10
     ],
     [
      116,
      1,
      2
     ],
     [
      117,
      1,
      1
     ],
     [
      118,
      1,
      3
     ],
     [
      119,
      6,
      10
     ],
     [
      125,
      1,
      9
     ],
     [
      126,
      1,
      2
     ],
     [
      130,
      1,
      2
     ],
     [
      131,
      153,
      10
     ],
     [
      284,
      1,
      7
     ]
    ],
    "157": [
     [
      62,
      3,
      10
     ],
     [
      65,
      1,
      8
     ],
     [
      120,
      1,
      1
     ],
     [
      121,
      1,
      5
     ],
     [
      122,
      5,
      10
     ],
     [
      127,
      1,
      5
     ],
     [
      131,
      1,
      5
     ],
     [
      132,
      152,
      10
     ],
     [
      284,
      1,
      3
     ]
    ],
    "158": [
     [
      121,
      1,
      1
     ],
     [
      122,
      1,
      9
     ],
     [
      123,
      4,
      10
     ],
     [
      127,
      1,
      7
     ],
     [
      132,
      1,
      6
     ],
     [
      133,
      151,
      10
     ],
     [
      284,
      1,
      2
     ]
    ],
    "159": [
     [
      119,
      2,
      1
     ],
     [
      122,
      1,
      2
     ],
     [
      123,
      4,
      10
     ],
     [
      127,
      1,
      6
     ],
     [
      132,
      1,
      1
     ],
     [
      133,
      1,
      9
     ],
     [
      134,
      150,
      10
     ]
    ],
    "160": [
     [
      119,
      1,
      4
     ],
     [
      120,
      1,
      3
     ],
     [
      121,
      1,
      2
     ],
     [
      122,
      1,
      4
     ],
     [
      123,
      5,
      10
     ],
     [
      128,
      1,
      4
     ],
     [
      133,
      1,
      3
     ],
     [
      134,
      149,
      10
     ],
     [
      283,
      1,
      8
     ]
    ],
    "161": [
     [
      121,
      1,
      6
     ],
     [
      122,
      6,
      10
     ],
     [
      128,
      1,
      4
     ],
     [
      130,
      1,
      5
     ],
     [
      131,
      1,
      1
     ],
     [
      134,
      1,
      7
     ],
     [
      135,
      148,
      10
     ],
     [
      283,
      1,
      6
     ]
    ],
    "162": [
     [
      120,
      1,
      1
     ],
     [
      121,
      1,
      8
     ],
     [
      122,
      1,
      7
     ],
     [
      123,
      8,
      10
     ],
     [
      135,
      1,
      9
     ],
     [
      136,
      147,
      10
     ],
     [
      283,
      1,
      3
     ]
    ],
    "163": [
     [
      121,
      1,
      1
     ],
     [
      123,
      1,
      2
     ],
     [
      124,
      1,
      3
     ],
     [
      125,
      1,
      9
     ],
     [
      126,
      4,
      10
     ],
     [
      130,
      1,
      9
     ],
     [
      131,
      1,
      3
     ],
     [
      135,
      1,
      4
     ],
     [
      136,
      147,
      10
     ],
     [
      283,
      1,
      2
     ]
    ],
    "164": [
     [
      125,
      1,
      6
     ],
     [
      126,
      6,
      10
     ],
     [
      132,
      1,
      3
     ],
     [
      136,
      1,
      9
     ],
     [
      137,
      146,
      10
     ]
    ],
    "165": [
     [
      125,
      1,
      6
     ],
     [
      126,
      7,
      10
     ],
     [
      133,
      1,
      3
     ],
     [
      136,
      1,
      2
     ],
     [
      137,
      145,
      10
     ],
     [
      282,
      1,
      7
     ]
    ],
    "166": [
     [
      125,
      8,
      10
     ],
     [
      133,
      1,
      8
     ],
     [
      136,
      1,
      2
     ],
     [
      137,
      145,
      10
     ],
     [
      282,
      1,
      6
     ]
    ],
    "167": [
     [
      132,
      2,
      10
     ],
     [
      136,
      1,
      2
     ],
     [
      137,
      145,
      10
     ],
     [
      282,
      1,
      4
     ]
    ],
    "168": [
     [
      139,
      143,
      10
     ],
     [
      282,
      1,
      1
     ]
    ],
    "169": [
     [
      147,
      135,
      10
     ]
    ],
    "170": [
     [
      154,
      127,
      10
     ],
     [
      281,
      1,
      7
     ]
    ],
    "171": [
     [
      161,
      120,
      10
     ],
     [
      281,
      1,
      6
     ]
    ],
    "172": [
     [
      168,
      113,
      10
     ],
     [
      281,
      1,
      3
     ]
    ],
    "173": [
     [
      176,
      105,
      10
     ],
     [
      281,
      1,
      1
     ]
    ],
    "174": [
     [
      183,
      98,
      10
     ]
    ],
    "175": [
     [
      191,
      89,
      10
     ],
     [
      280,
      1,
      7
     ]
    ],
    "176": [
     [
      198,
      82,
      10
     ],
     [
      280,
      1,
      4
     ]
    ],
    "177": [
     [
      206,
      74,
      10
     ],
     [
      280,
      1,
      3
     ]
    ],
    "178": [
     [
      213,
      67,
      10
     ]
    ],
    "179": [
     [
      221,
      58,
      10
     ],
     [
      279,
      1,
      9
     ]
    ],
    "180": [
     [
      229,
      50,
      10
     ],
     [
      279,
      1,
      6
     ]
    ],
    "181": [
     [
      236,
      43,
      10
     ],
     [
      279,
      1,
      4
     ]
    ],
    "182": [
     [
      244,
      35,
      10
     ],
     [
      279,
      1,
      3
     ]
    ],
    "183": [
     [
      252,
      27,
      10
     ]
    ],
    "184": [
     [
      259,
      19,
      10
     ],
     [
      278,
      1,
      8
     ]
    ],
    "185": [
     [
      267,
      11,
      10
     ],
     [
      278,
      1,
      7
     ]
    ],
    "186": [
     [
      275,
      3,
      10
     ],
     [
      278,
      1,
      6
     ]
    ]
   }
  },
  "clutter_headroom": 27.75,
  "clutter_at_floor": 0.296,
  "clutter_verdict": "vessels present",
  "detection_rate": 0.7143,
  "n_detections": 41,
  "n_reports": 14,
  "n_reports_with_fix": 14,
  "n_matched": 10,
  "n_reports_unsearched": 307,
  "n_reports_marginal": 1,
  "unsearched_by_length": {
   "<25 m": 178,
   "25-50 m": 46,
   "50-100 m": 20,
   "100-200 m": 21,
   ">200 m": 25,
   "unknown": 17
  },
  "k_sigma_match": 3.0,
  "gate_min_snr": 15.0,
  "gate_min_pixels": 6,
  "n_detections_before_gate": 301,
  "ais_window_s": 1800.0,
  "calibration": {
   "detectable_length_m": 25.0,
   "max_chance_match": 0.05,
   "density_per_km2": 0.00145,
   "max_scorable_radius_m": 3356,
   "n_unscorable": 0,
   "n_unscorable_matched": 0,
   "expected_chance_matches": 0.03,
   "strata": {
    ">=25 m": {
     "found": 10,
     "scored": 11,
     "rate": 0.9091,
     "ci95": [
      0.6226,
      0.9838
     ]
    },
    "<25 m": {
     "found": 0,
     "scored": 2,
     "rate": 0.0,
     "ci95": [
      0.0,
      0.6576
     ]
    },
    "unknown length": {
     "found": 0,
     "scored": 1,
     "rate": 0.0,
     "ci95": [
      0.0,
      0.7935
     ]
    },
    "all scored": {
     "found": 10,
     "scored": 14,
     "rate": 0.7143,
     "ci95": [
      0.4535,
      0.8828
     ]
    }
   },
   "curve_edges_m": [
    0.0,
    15.0,
    25.0,
    50.0,
    100.0
   ],
   "curve": {
    "0-15 m": {
     "found": 0,
     "scored": 1,
     "rate": 0.0,
     "ci95": [
      0.0,
      0.7935
     ]
    },
    "15-25 m": {
     "found": 0,
     "scored": 1,
     "rate": 0.0,
     "ci95": [
      0.0,
      0.7935
     ]
    },
    "25-50 m": {
     "found": 4,
     "scored": 5,
     "rate": 0.8,
     "ci95": [
      0.3755,
      0.9638
     ]
    },
    "50-100 m": {
     "found": 1,
     "scored": 1,
     "rate": 1.0,
     "ci95": [
      0.2065,
      1.0
     ]
    },
    ">100 m": {
     "found": 5,
     "scored": 5,
     "rate": 1.0,
     "ci95": [
      0.5655,
      1.0
     ]
    },
    "unknown": {
     "found": 0,
     "scored": 1,
     "rate": 0.0,
     "ci95": [
      0.0,
      0.7935
     ]
    }
   }
  }
 },
 "features": [
  {
   "type": "Feature",
   "geometry": {
    "type": "Point",
    "coordinates": [
     -75.90555011386473,
     36.729308960455754
    ]
   },
   "properties": {
    "kind": "unmatched",
    "domain": "sea",
    "t_start": "2024-09-01T22:58:41+00:00",
    "t_end": "2024-09-01T22:58:41+00:00",
    "duration_s": 0.0,
    "confidence": 0.6785714285714286,
    "platform_ids": [],
    "evidence": {
     "sensor": "sentinel1-vv-cfar",
     "detector_confidence": 0.95,
     "detection_rate_this_pass": 0.714,
     "reports_considered": 14,
     "reports_with_a_fix": 14,
     "search_radius_m": 101.7,
     "snr": 20.77,
     "length_m_approx": 31.6,
     "pixels": 10,
     "scene": "S1A_IW_GRDH_1SDV_20240901T225841_20240901T225906_055478_06C4A7_DF0B_COG.SAFE"
    }
   }
  },
  {
   "type": "Feature",
   "geometry": {
    "type": "Point",
    "coordinates": [
     -74.85211622461065,
     36.8475885598214
    ]
   },
   "properties": {
    "kind": "unmatched",
    "domain": "sea",
    "t_start": "2024-09-01T22:58:41+00:00",
    "t_end": "2024-09-01T22:58:41+00:00",
    "duration_s": 0.0,
    "confidence": 0.6785714285714286,
    "platform_ids": [],
    "evidence": {
     "sensor": "sentinel1-vv-cfar",
     "detector_confidence": 0.95,
     "detection_rate_this_pass": 0.714,
     "reports_considered": 14,
     "reports_with_a_fix": 14,
     "search_radius_m": 137.3,
     "snr": 37.58,
     "length_m_approx": 53.9,
     "pixels": 29,
     "scene": "S1A_IW_GRDH_1SDV_20240901T225841_20240901T225906_055478_06C4A7_DF0B_COG.SAFE"
    }
   }
  },
  {
   "type": "Feature",
   "geometry": {
    "type": "Point",
    "coordinates": [
     -74.85293117529734,
     36.84504757815032
    ]
   },
   "properties": {
    "kind": "unmatched",
    "domain": "sea",
    "t_start": "2024-09-01T22:58:41+00:00",
    "t_end": "2024-09-01T22:58:41+00:00",
    "duration_s": 0.0,
    "confidence": 0.6721428571428572,
    "platform_ids": [],
    "evidence": {
     "sensor": "sentinel1-vv-cfar",
     "detector_confidence": 0.941,
     "detection_rate_this_pass": 0.714,
     "reports_considered": 14,
     "reports_with_a_fix": 14,
     "search_radius_m": 105.8,
     "snr": 18.81,
     "length_m_approx": 34.6,
     "pixels": 12,
     "scene": "S1A_IW_GRDH_1SDV_20240901T225841_20240901T225906_055478_06C4A7_DF0B_COG.SAFE"
    }
   }
  },
  {
   "type": "Feature",
   "geometry": {
    "type": "Point",
    "coordinates": [
     -74.4140477538737,
     37.068677981095774
    ]
   },
   "properties": {
    "kind": "unmatched",
    "domain": "sea",
    "t_start": "2024-09-01T22:58:41+00:00",
    "t_end": "2024-09-01T22:58:41+00:00",
    "duration_s": 0.0,
    "confidence": 0.6785714285714286,
    "platform_ids": [],
    "evidence": {
     "sensor": "sentinel1-vv-cfar",
     "detector_confidence": 0.95,
     "detection_rate_this_pass": 0.714,
     "reports_considered": 14,
     "reports_with_a_fix": 14,
     "search_radius_m": 123.4,
     "snr": 19.37,
     "length_m_approx": 45.8,
     "pixels": 21,
     "scene": "S1A_IW_GRDH_1SDV_20240901T225841_20240901T225906_055478_06C4A7_DF0B_COG.SAFE"
    }
   }
  },
  {
   "type": "Feature",
   "geometry": {
    "type": "Point",
    "coordinates": [
     -73.86050588378865,
     37.32840064748832
    ]
   },
   "properties": {
    "kind": "unmatched",
    "domain": "sea",
    "t_start": "2024-09-01T22:58:41+00:00",
    "t_end": "2024-09-01T22:58:41+00:00",
    "duration_s": 0.0,
    "confidence": 0.6442857142857144,
    "platform_ids": [],
    "evidence": {
     "sensor": "sentinel1-vv-cfar",
     "detector_confidence": 0.902,
     "detection_rate_this_pass": 0.714,
     "reports_considered": 14,
     "reports_with_a_fix": 14,
     "search_radius_m": 130.6,
     "snr": 18.04,
     "length_m_approx": 50.0,
     "pixels": 25,
     "scene": "S1A_IW_GRDH_1SDV_20240901T225841_20240901T225906_055478_06C4A7_DF0B_COG.SAFE"
    }
   }
  },
  {
   "type": "Feature",
   "geometry": {
    "type": "Point",
    "coordinates": [
     -76.26855124576318,
     37.06102732081147
    ]
   },
   "properties": {
    "kind": "unmatched",
    "domain": "sea",
    "t_start": "2024-09-01T22:58:41+00:00",
    "t_end": "2024-09-01T22:58:41+00:00",
    "duration_s": 0.0,
    "confidence": 0.6785714285714286,
    "platform_ids": [],
    "evidence": {
     "sensor": "sentinel1-vv-cfar",
     "detector_confidence": 0.95,
     "detection_rate_this_pass": 0.714,
     "reports_considered": 14,
     "reports_with_a_fix": 14,
     "search_radius_m": 124.1,
     "snr": 21.25,
     "length_m_approx": 34.6,
     "pixels": 12,
     "scene": "S1A_IW_GRDH_1SDV_20240901T225841_20240901T225906_055478_06C4A7_DF0B_COG.SAFE"
    }
   }
  },
  {
   "type": "Feature",
   "geometry": {
    "type": "Point",
    "coordinates": [
     -76.2836796432393,
     37.011399306836424
    ]
   },
   "properties": {
    "kind": "unmatched",
    "domain": "sea",
    "t_start": "2024-09-01T22:58:41+00:00",
    "t_end": "2024-09-01T22:58:41+00:00",
    "duration_s": 0.0,
    "confidence": 0.5521428571428572,
    "platform_ids": [],
    "evidence": {
     "sensor": "sentinel1-vv-cfar",
     "detector_confidence": 0.773,
     "detection_rate_this_pass": 0.714,
     "reports_considered": 14,
     "reports_with_a_fix": 14,
     "search_radius_m": 116.5,
     "snr": 15.45,
     "length_m_approx": 28.3,
     "pixels": 8,
     "scene": "S1A_IW_GRDH_1SDV_20240901T225841_20240901T225906_055478_06C4A7_DF0B_COG.SAFE"
    }
   }
  },
  {
   "type": "Feature",
   "geometry": {
    "type": "Point",
    "coordinates": [
     -74.33013434688166,
     37.345115945969866
    ]
   },
   "properties": {
    "kind": "unmatched",
    "domain": "sea",
    "t_start": "2024-09-01T22:58:41+00:00",
    "t_end": "2024-09-01T22:58:41+00:00",
    "duration_s": 0.0,
    "confidence": 0.5992857142857143,
    "platform_ids": [],
    "evidence": {
     "sensor": "sentinel1-vv-cfar",
     "detector_confidence": 0.839,
     "detection_rate_this_pass": 0.714,
     "reports_considered": 14,
     "reports_with_a_fix": 14,
     "search_radius_m": 151.4,
     "snr": 16.79,
     "length_m_approx": 61.6,
     "pixels": 38,
     "scene": "S1A_IW_GRDH_1SDV_20240901T225841_20240901T225906_055478_06C4A7_DF0B_COG.SAFE"
    }
   }
  },
  {
   "type": "Feature",
   "geometry": {
    "type": "Point",
    "coordinates": [
     -75.03428313422145,
     37.38052550284257
    ]
   },
   "properties": {
    "kind": "unmatched",
    "domain": "sea",
    "t_start": "2024-09-01T22:58:41+00:00",
    "t_end": "2024-09-01T22:58:41+00:00",
    "duration_s": 0.0,
    "confidence": 0.5485714285714286,
    "platform_ids": [],
    "evidence": {
     "sensor": "sentinel1-vv-cfar",
     "detector_confidence": 0.768,
     "detection_rate_this_pass": 0.714,
     "reports_considered": 14,
     "reports_with_a_fix": 14,
     "search_radius_m": 116.1,
     "snr": 15.36,
     "length_m_approx": 41.2,
     "pixels": 17,
     "scene": "S1A_IW_GRDH_1SDV_20240901T225841_20240901T225906_055478_06C4A7_DF0B_COG.SAFE"
    }
   }
  },
  {
   "type": "Feature",
   "geometry": {
    "type": "Point",
    "coordinates": [
     -74.5243266786976,
     37.44876236082594
    ]
   },
   "properties": {
    "kind": "unmatched",
    "domain": "sea",
    "t_start": "2024-09-01T22:58:41+00:00",
    "t_end": "2024-09-01T22:58:41+00:00",
    "duration_s": 0.0,
    "confidence": 0.6785714285714286,
    "platform_ids": [],
    "evidence": {
     "sensor": "sentinel1-vv-cfar",
     "detector_confidence": 0.95,
     "detection_rate_this_pass": 0.714,
     "reports_considered": 14,
     "reports_with_a_fix": 14,
     "search_radius_m": 143.7,
     "snr": 23.17,
     "length_m_approx": 57.4,
     "pixels": 33,
     "scene": "S1A_IW_GRDH_1SDV_20240901T225841_20240901T225906_055478_06C4A7_DF0B_COG.SAFE"
    }
   }
  },
  {
   "type": "Feature",
   "geometry": {
    "type": "Point",
    "coordinates": [
     -76.04167518994784,
     37.53604525594415
    ]
   },
   "properties": {
    "kind": "unmatched",
    "domain": "sea",
    "t_start": "2024-09-01T22:58:41+00:00",
    "t_end": "2024-09-01T22:58:41+00:00",
    "duration_s": 0.0,
    "confidence": 0.6785714285714286,
    "platform_ids": [],
    "evidence": {
     "sensor": "sentinel1-vv-cfar",
     "detector_confidence": 0.95,
     "detection_rate_this_pass": 0.714,
     "reports_considered": 14,
     "reports_with_a_fix": 14,
     "search_radius_m": 106.7,
     "snr": 21.06,
     "length_m_approx": 34.6,
     "pixels": 12,
     "scene": "S1A_IW_GRDH_1SDV_20240901T225841_20240901T225906_055478_06C4A7_DF0B_COG.SAFE"
    }
   }
  },
  {
   "type": "Feature",
   "geometry": {
    "type": "Point",
    "coordinates": [
     -76.04089498914524,
     37.54843063680929
    ]
   },
   "properties": {
    "kind": "unmatched",
    "domain": "sea",
    "t_start": "2024-09-01T22:58:41+00:00",
    "t_end": "2024-09-01T22:58:41+00:00",
    "duration_s": 0.0,
    "confidence": 0.6535714285714286,
    "platform_ids": [],
    "evidence": {
     "sensor": "sentinel1-vv-cfar",
     "detector_confidence": 0.915,
     "detection_rate_this_pass": 0.714,
     "reports_considered": 14,
     "reports_with_a_fix": 14,
     "search_radius_m": 95.4,
     "snr": 18.3,
     "length_m_approx": 26.5,
     "pixels": 7,
     "scene": "S1A_IW_GRDH_1SDV_20240901T225841_20240901T225906_055478_06C4A7_DF0B_COG.SAFE"
    }
   }
  },
  {
   "type": "Feature",
   "geometry": {
    "type": "Point",
    "coordinates": [
     -76.10013241904187,
     37.61928231253311
    ]
   },
   "properties": {
    "kind": "unmatched",
    "domain": "sea",
    "t_start": "2024-09-01T22:58:41+00:00",
    "t_end": "2024-09-01T22:58:41+00:00",
    "duration_s": 0.0,
    "confidence": 0.6785714285714286,
    "platform_ids": [],
    "evidence": {
     "sensor": "sentinel1-vv-cfar",
     "detector_confidence": 0.95,
     "detection_rate_this_pass": 0.714,
     "reports_considered": 14,
     "reports_with_a_fix": 14,
     "search_radius_m": 107.0,
     "snr": 23.31,
     "length_m_approx": 34.6,
     "pixels": 12,
     "scene": "S1A_IW_GRDH_1SDV_20240901T225841_20240901T225906_055478_06C4A7_DF0B_COG.SAFE"
    }
   }
  },
  {
   "type": "Feature",
   "geometry": {
    "type": "Point",
    "coordinates": [
     -76.13703637206623,
     37.65437058206721
    ]
   },
   "properties": {
    "kind": "unmatched",
    "domain": "sea",
    "t_start": "2024-09-01T22:58:41+00:00",
    "t_end": "2024-09-01T22:58:41+00:00",
    "duration_s": 0.0,
    "confidence": 0.6678571428571429,
    "platform_ids": [],
    "evidence": {
     "sensor": "sentinel1-vv-cfar",
     "detector_confidence": 0.935,
     "detection_rate_this_pass": 0.714,
     "reports_considered": 14,
     "reports_with_a_fix": 14,
     "search_radius_m": 98.1,
     "snr": 18.7,
     "length_m_approx": 28.3,
     "pixels": 8,
     "scene": "S1A_IW_GRDH_1SDV_20240901T225841_20240901T225906_055478_06C4A7_DF0B_COG.SAFE"
    }
   }
  },
  {
   "type": "Feature",
   "geometry": {
    "type": "Point",
    "coordinates": [
     -76.15383008926783,
     37.67444535698021
    ]
   },
   "properties": {
    "kind": "unmatched",
    "domain": "sea",
    "t_start": "2024-09-01T22:58:41+00:00",
    "t_end": "2024-09-01T22:58:41+00:00",
    "duration_s": 0.0,
    "confidence": 0.5607142857142857,
    "platform_ids": [],
    "evidence": {
     "sensor": "sentinel1-vv-cfar",
     "detector_confidence": 0.785,
     "detection_rate_this_pass": 0.714,
     "reports_considered": 14,
     "reports_with_a_fix": 14,
     "search_radius_m": 100.3,
     "snr": 15.69,
     "length_m_approx": 30.0,
     "pixels": 9,
     "scene": "S1A_IW_GRDH_1SDV_20240901T225841_20240901T225906_055478_06C4A7_DF0B_COG.SAFE"
    }
   }
  },
  {
   "type": "Feature",
   "geometry": {
    "type": "Point",
    "coordinates": [
     -75.89319515008137,
     37.80026151038964
    ]
   },
   "properties": {
    "kind": "unmatched",
    "domain": "sea",
    "t_start": "2024-09-01T22:58:41+00:00",
    "t_end": "2024-09-01T22:58:41+00:00",
    "duration_s": 0.0,
    "confidence": 0.6292857142857143,
    "platform_ids": [],
    "evidence": {
     "sensor": "sentinel1-vv-cfar",
     "detector_confidence": 0.881,
     "detection_rate_this_pass": 0.714,
     "reports_considered": 14,
     "reports_with_a_fix": 14,
     "search_radius_m": 348.0,
     "snr": 17.62,
     "length_m_approx": 160.0,
     "pixels": 256,
     "scene": "S1A_IW_GRDH_1SDV_20240901T225841_20240901T225906_055478_06C4A7_DF0B_COG.SAFE"
    }
   }
  },
  {
   "type": "Feature",
   "geometry": {
    "type": "Point",
    "coordinates": [
     -73.8908679693526,
     37.90945729741015
    ]
   },
   "properties": {
    "kind": "unmatched",
    "domain": "sea",
    "t_start": "2024-09-01T22:58:41+00:00",
    "t_end": "2024-09-01T22:58:41+00:00",
    "duration_s": 0.0,
    "confidence": 0.6785714285714286,
    "platform_ids": [],
    "evidence": {
     "sensor": "sentinel1-vv-cfar",
     "detector_confidence": 0.95,
     "detection_rate_this_pass": 0.714,
     "reports_considered": 14,
     "reports_with_a_fix": 14,
     "search_radius_m": 130.6,
     "snr": 33.57,
     "length_m_approx": 50.0,
     "pixels": 25,
     "scene": "S1A_IW_GRDH_1SDV_20240901T225841_20240901T225906_055478_06C4A7_DF0B_COG.SAFE"
    }
   }
  },
  {
   "type": "Feature",
   "geometry": {
    "type": "Point",
    "coordinates": [
     -76.19089129400994,
     37.908931805906974
    ]
   },
   "properties": {
    "kind": "unmatched",
    "domain": "sea",
    "t_start": "2024-09-01T22:58:41+00:00",
    "t_end": "2024-09-01T22:58:41+00:00",
    "duration_s": 0.0,
    "confidence": 0.6785714285714286,
    "platform_ids": [],
    "evidence": {
     "sensor": "sentinel1-vv-cfar",
     "detector_confidence": 0.95,
     "detection_rate_this_pass": 0.714,
     "reports_considered": 14,
     "reports_with_a_fix": 14,
     "search_radius_m": 133.0,
     "snr": 39.92,
     "length_m_approx": 51.0,
     "pixels": 26,
     "scene": "S1A_IW_GRDH_1SDV_20240901T225841_20240901T225906_055478_06C4A7_DF0B_COG.SAFE"
    }
   }
  },
  {
   "type": "Feature",
   "geometry": {
    "type": "Point",
    "coordinates": [
     -76.19372135151576,
     37.94013683031334
    ]
   },
   "properties": {
    "kind": "unmatched",
    "domain": "sea",
    "t_start": "2024-09-01T22:58:41+00:00",
    "t_end": "2024-09-01T22:58:41+00:00",
    "duration_s": 0.0,
    "confidence": 0.6785714285714286,
    "platform_ids": [],
    "evidence": {
     "sensor": "sentinel1-vv-cfar",
     "detector_confidence": 0.95,
     "detection_rate_this_pass": 0.714,
     "reports_considered": 14,
     "reports_with_a_fix": 14,
     "search_radius_m": 118.7,
     "snr": 38.09,
     "length_m_approx": 42.4,
     "pixels": 18,
     "scene": "S1A_IW_GRDH_1SDV_20240901T225841_20240901T225906_055478_06C4A7_DF0B_COG.SAFE"
    }
   }
  },
  {
   "type": "Feature",
   "geometry": {
    "type": "Point",
    "coordinates": [
     -75.91780020419601,
     37.96344010367655
    ]
   },
   "properties": {
    "kind": "unmatched",
    "domain": "sea",
    "t_start": "2024-09-01T22:58:41+00:00",
    "t_end": "2024-09-01T22:58:41+00:00",
    "duration_s": 0.0,
    "confidence": 0.6785714285714286,
    "platform_ids": [],
    "evidence": {
     "sensor": "sentinel1-vv-cfar",
     "detector_confidence": 0.95,
     "detection_rate_this_pass": 0.714,
     "reports_considered": 14,
     "reports_with_a_fix": 14,
     "search_radius_m": 108.9,
     "snr": 30.19,
     "length_m_approx": 36.1,
     "pixels": 13,
     "scene": "S1A_IW_GRDH_1SDV_20240901T225841_20240901T225906_055478_06C4A7_DF0B_COG.SAFE"
    }
   }
  },
  {
   "type": "Feature",
   "geometry": {
    "type": "Point",
    "coordinates": [
     -75.91505668500064,
     38.00015461115976
    ]
   },
   "properties": {
    "kind": "unmatched",
    "domain": "sea",
    "t_start": "2024-09-01T22:58:41+00:00",
    "t_end": "2024-09-01T22:58:41+00:00",
    "duration_s": 0.0,
    "confidence": 0.6785714285714286,
    "platform_ids": [],
    "evidence": {
     "sensor": "sentinel1-vv-cfar",
     "detector_confidence": 0.95,
     "detection_rate_this_pass": 0.714,
     "reports_considered": 14,
     "reports_with_a_fix": 14,
     "search_radius_m": 102.6,
     "snr": 25.68,
     "length_m_approx": 31.6,
     "pixels": 10,
     "scene": "S1A_IW_GRDH_1SDV_20240901T225841_20240901T225906_055478_06C4A7_DF0B_COG.SAFE"
    }
   }
  },
  {
   "type": "Feature",
   "geometry": {
    "type": "Point",
    "coordinates": [
     -75.90061749172781,
     37.96588870833735
    ]
   },
   "properties": {
    "kind": "unmatched",
    "domain": "sea",
    "t_start": "2024-09-01T22:58:41+00:00",
    "t_end": "2024-09-01T22:58:41+00:00",
    "duration_s": 0.0,
    "confidence": 0.6785714285714286,
    "platform_ids": [],
    "evidence": {
     "sensor": "sentinel1-vv-cfar",
     "detector_confidence": 0.95,
     "detection_rate_this_pass": 0.714,
     "reports_considered": 14,
     "reports_with_a_fix": 14,
     "search_radius_m": 107.0,
     "snr": 25.29,
     "length_m_approx": 34.6,
     "pixels": 12,
     "scene": "S1A_IW_GRDH_1SDV_20240901T225841_20240901T225906_055478_06C4A7_DF0B_COG.SAFE"
    }
   }
  },
  {
   "type": "Feature",
   "geometry": {
    "type": "Point",
    "coordinates": [
     -75.93966670386251,
     37.90699172180765
    ]
   },
   "properties": {
    "kind": "unmatched",
    "domain": "sea",
    "t_start": "2024-09-01T22:58:41+00:00",
    "t_end": "2024-09-01T22:58:41+00:00",
    "duration_s": 0.0,
    "confidence": 0.6785714285714286,
    "platform_ids": [],
    "evidence": {
     "sensor": "sentinel1-vv-cfar",
     "detector_confidence": 0.95,
     "detection_rate_this_pass": 0.714,
     "reports_considered": 14,
     "reports_with_a_fix": 14,
     "search_radius_m": 107.0,
     "snr": 24.98,
     "length_m_approx": 34.6,
     "pixels": 12,
     "scene": "S1A_IW_GRDH_1SDV_20240901T225841_20240901T225906_055478_06C4A7_DF0B_COG.SAFE"
    }
   }
  },
  {
   "type": "Feature",
   "geometry": {
    "type": "Point",
    "coordinates": [
     -76.00240285185751,
     37.884814068420695
    ]
   },
   "properties": {
    "kind": "unmatched",
    "domain": "sea",
    "t_start": "2024-09-01T22:58:41+00:00",
    "t_end": "2024-09-01T22:58:41+00:00",
    "duration_s": 0.0,
    "confidence": 0.6378571428571429,
    "platform_ids": [],
    "evidence": {
     "sensor": "sentinel1-vv-cfar",
     "detector_confidence": 0.893,
     "detection_rate_this_pass": 0.714,
     "reports_considered": 14,
     "reports_with_a_fix": 14,
     "search_radius_m": 172.8,
     "snr": 17.85,
     "length_m_approx": 72.8,
     "pixels": 53,
     "scene": "S1A_IW_GRDH_1SDV_20240901T225841_20240901T225906_055478_06C4A7_DF0B_COG.SAFE"
    }
   }
  },
  {
   "type": "Feature",
   "geometry": {
    "type": "Point",
    "coordinates": [
     -76.06592123226572,
     37.804369454309295
    ]
   },
   "properties": {
    "kind": "unmatched",
    "domain": "sea",
    "t_start": "2024-09-01T22:58:41+00:00",
    "t_end": "2024-09-01T22:58:41+00:00",
    "duration_s": 0.0,
    "confidence": 0.5692857142857143,
    "platform_ids": [],
    "evidence": {
     "sensor": "sentinel1-vv-cfar",
     "detector_confidence": 0.797,
     "detection_rate_this_pass": 0.714,
     "reports_considered": 14,
     "reports_with_a_fix": 14,
     "search_radius_m": 102.6,
     "snr": 15.94,
     "length_m_approx": 31.6,
     "pixels": 10,
     "scene": "S1A_IW_GRDH_1SDV_20240901T225841_20240901T225906_055478_06C4A7_DF0B_COG.SAFE"
    }
   }
  },
  {
   "type": "Feature",
   "geometry": {
    "type": "Point",
    "coordinates": [
     -75.72912376002202,
     37.86110818153182
    ]
   },
   "properties": {
    "kind": "unmatched",
    "domain": "sea",
    "t_start": "2024-09-01T22:58:41+00:00",
    "t_end": "2024-09-01T22:58:41+00:00",
    "duration_s": 0.0,
    "confidence": 0.6785714285714286,
    "platform_ids": [],
    "evidence": {
     "sensor": "sentinel1-vv-cfar",
     "detector_confidence": 0.95,
     "detection_rate_this_pass": 0.714,
     "reports_considered": 14,
     "reports_with_a_fix": 14,
     "search_radius_m": 147.7,
     "snr": 20.38,
     "length_m_approx": 59.2,
     "pixels": 35,
     "scene": "S1A_IW_GRDH_1SDV_20240901T225841_20240901T225906_055478_06C4A7_DF0B_COG.SAFE"
    }
   }
  },
  {
   "type": "Feature",
   "geometry": {
    "type": "Point",
    "coordinates": [
     -75.02125821720732,
     37.95672465238468
    ]
   },
   "properties": {
    "kind": "unmatched",
    "domain": "sea",
    "t_start": "2024-09-01T22:58:41+00:00",
    "t_end": "2024-09-01T22:58:41+00:00",
    "duration_s": 0.0,
    "confidence": 0.6785714285714286,
    "platform_ids": [],
    "evidence": {
     "sensor": "sentinel1-vv-cfar",
     "detector_confidence": 0.95,
     "detection_rate_this_pass": 0.714,
     "reports_considered": 14,
     "reports_with_a_fix": 14,
     "search_radius_m": 108.3,
     "snr": 28.28,
     "length_m_approx": 36.1,
     "pixels": 13,
     "scene": "S1A_IW_GRDH_1SDV_20240901T225841_20240901T225906_055478_06C4A7_DF0B_COG.SAFE"
    }
   }
  },
  {
   "type": "Feature",
   "geometry": {
    "type": "Point",
    "coordinates": [
     -75.1729565987269,
     38.06744362273259
    ]
   },
   "properties": {
    "kind": "unmatched",
    "domain": "sea",
    "t_start": "2024-09-01T22:58:41+00:00",
    "t_end": "2024-09-01T22:58:41+00:00",
    "duration_s": 0.0,
    "confidence": 0.6235714285714286,
    "platform_ids": [],
    "evidence": {
     "sensor": "sentinel1-vv-cfar",
     "detector_confidence": 0.873,
     "detection_rate_this_pass": 0.714,
     "reports_considered": 14,
     "reports_with_a_fix": 14,
     "search_radius_m": 114.2,
     "snr": 17.46,
     "length_m_approx": 40.0,
     "pixels": 16,
     "scene": "S1A_IW_GRDH_1SDV_20240901T225841_20240901T225906_055478_06C4A7_DF0B_COG.SAFE"
    }
   }
  },
  {
   "type": "Feature",
   "geometry": {
    "type": "Point",
    "coordinates": [
     -75.07699088466285,
     38.10580623758343
    ]
   },
   "properties": {
    "kind": "unmatched",
    "domain": "sea",
    "t_start": "2024-09-01T22:58:41+00:00",
    "t_end": "2024-09-01T22:58:41+00:00",
    "duration_s": 0.0,
    "confidence": 0.5607142857142857,
    "platform_ids": [],
    "evidence": {
     "sensor": "sentinel1-vv-cfar",
     "detector_confidence": 0.785,
     "detection_rate_this_pass": 0.714,
     "reports_considered": 14,
     "reports_with_a_fix": 14,
     "search_radius_m": 154.4,
     "snr": 15.7,
     "length_m_approx": 63.2,
     "pixels": 40,
     "scene": "S1A_IW_GRDH_1SDV_20240901T225841_20240901T225906_055478_06C4A7_DF0B_COG.SAFE"
    }
   }
  },
  {
   "type": "Feature",
   "geometry": {
    "type": "Point",
    "coordinates": [
     -73.96504038320589,
     38.16616146438599
    ]
   },
   "properties": {
    "kind": "unmatched",
    "domain": "sea",
    "t_start": "2024-09-01T22:58:41+00:00",
    "t_end": "2024-09-01T22:58:41+00:00",
    "duration_s": 0.0,
    "confidence": 0.6785714285714286,
    "platform_ids": [],
    "evidence": {
     "sensor": "sentinel1-vv-cfar",
     "detector_confidence": 0.95,
     "detection_rate_this_pass": 0.714,
     "reports_considered": 14,
     "reports_with_a_fix": 14,
     "search_radius_m": 132.3,
     "snr": 86.26,
     "length_m_approx": 51.0,
     "pixels": 26,
     "scene": "S1A_IW_GRDH_1SDV_20240901T225841_20240901T225906_055478_06C4A7_DF0B_COG.SAFE"
    }
   }
  },
  {
   "type": "Feature",
   "geometry": {
    "type": "Point",
    "coordinates": [
     -76.08469208111876,
     37.99858615607799
    ]
   },
   "properties": {
    "kind": "unmatched",
    "domain": "sea",
    "t_start": "2024-09-01T22:58:41+00:00",
    "t_end": "2024-09-01T22:58:41+00:00",
    "duration_s": 0.0,
    "confidence": 0.6214285714285714,
    "platform_ids": [],
    "evidence": {
     "sensor": "sentinel1-vv-cfar",
     "detector_confidence": 0.87,
     "detection_rate_this_pass": 0.714,
     "reports_considered": 14,
     "reports_with_a_fix": 14,
     "search_radius_m": 100.3,
     "snr": 17.4,
     "length_m_approx": 30.0,
     "pixels": 9,
     "scene": "S1A_IW_GRDH_1SDV_20240901T225841_20240901T225906_055478_06C4A7_DF0B_COG.SAFE"
    }
   }
  }
 ]
}