{
 "type": "FeatureCollection",
 "properties": {
  "scene": "S1A_IW_GRDH_1SDV_20240621T225813_20240621T225842_054428_069F67_E12F_COG.SAFE",
  "acquired": "2024-06-21T22:58:13+00:00",
  "geolocation_rms_m": 2.6,
  "geolocation_holdout_m": 8.2,
  "geolocation_median_m": 9.4,
  "geolocation_p90_m": 9.7,
  "geolocation_worst_m": 14.8,
  "geolocation_uneven": false,
  "geolocation_convergence": 3.55,
  "geolocation_method": "geolocation grid (bilinear)",
  "geolocation_validation": "holdout at 2x spacing",
  "tiles": 130,
  "tiles_skipped": 0,
  "k_sigma": 6.0,
  "land_masked": true,
  "water_fraction": 0.489,
  "land_sea_contrast": 2.41,
  "coast_blind_m": 605.0,
  "searched_km2": 23023.1,
  "refused_km2": 0.0,
  "tiles_without_water": 46,
  "outside_aoi": 126,
  "aoi_sea": [
   -77.2,
   36.0,
   -71.0,
   39.6
  ],
  "footprint": [
   [
    -75.80642,
    34.68173
   ],
   [
    -75.57757,
    34.71766
   ],
   [
    -75.34852,
    34.75319
   ],
   [
    -75.11929,
    34.7883
   ],
   [
    -74.88985,
    34.82294
   ],
   [
    -74.66022,
    34.85717
   ],
   [
    -74.43041,
    34.89099
   ],
   [
    -74.20041,
    34.92433
   ],
   [
    -73.97022,
    34.95726
   ],
   [
    -73.73986,
    34.98977
   ],
   [
    -73.5093,
    35.02181
   ],
   [
    -73.27858,
    35.05343
   ],
   [
    -73.04768,
    35.08462
   ],
   [
    -73.07701,
    35.23005
   ],
   [
    -73.10636,
    35.37546
   ],
   [
    -73.13573,
    35.52088
   ],
   [
    -73.16513,
    35.66628
   ],
   [
    -73.19457,
    35.81168
   ],
   [
    -73.22402,
    35.95708
   ],
   [
    -73.25351,
    36.10247
   ],
   [
    -73.28303,
    36.24786
   ],
   [
    -73.31257,
    36.39324
   ],
   [
    -73.34214,
    36.53861
   ],
   [
    -73.37174,
    36.68398
   ],
   [
    -73.40136,
    36.82935
   ],
   [
    -73.63746,
    36.79849
   ],
   [
    -73.87337,
    36.76718
   ],
   [
    -74.1091,
    36.73542
   ],
   [
    -74.34462,
    36.70317
   ],
   [
    -74.57995,
    36.67046
   ],
   [
    -74.81508,
    36.63731
   ],
   [
    -75.05,
    36.60366
   ],
   [
    -75.28472,
    36.56957
   ],
   [
    -75.51924,
    36.53504
   ],
   [
    -75.75353,
    36.50001
   ],
   [
    -75.98761,
    36.46454
   ],
   [
    -76.22145,
    36.42863
   ],
   [
    -76.18652,
    36.2831
   ],
   [
    -76.15168,
    36.13755
   ],
   [
    -76.11686,
    35.992
   ],
   [
    -76.08212,
    35.84644
   ],
   [
    -76.04743,
    35.70088
   ],
   [
    -76.01279,
    35.55531
   ],
   [
    -75.97826,
    35.40973
   ],
   [
    -75.94378,
    35.26414
   ],
   [
    -75.90935,
    35.11855
   ],
   [
    -75.87499,
    34.97295
   ],
   [
    -75.84068,
    34.82734
   ]
  ],
  "searched_grid": {
   "cell_deg": 0.01,
   "lon0": -75.63,
   "lat0": 34.88,
   "levels": 10,
   "rows": {
    "10": [
     [
      125,
      1,
      6
     ],
     [
      133,
      1,
      1
     ],
     [
      134,
      1,
      7
     ],
     [
      135,
      1,
      9
     ],
     [
      136,
      1,
      3
     ],
     [
      139,
      1,
      2
     ],
     [
      140,
      1,
      3
     ]
    ],
    "11": [
     [
      124,
      1,
      4
     ],
     [
      125,
      1,
      10
     ],
     [
      126,
      1,
      5
     ],
     [
      127,
      1,
      3
     ],
     [
      130,
      2,
      2
     ],
     [
      134,
      1,
      8
     ],
     [
      135,
      2,
      10
     ],
     [
      137,
      2,
      5
     ],
     [
      139,
      1,
      8
     ],
     [
      140,
      1,
      10
     ],
     [
      141,
      1,
      9
     ],
     [
      142,
      1,
      10
     ],
     [
      143,
      1,
      8
     ],
     [
      144,
      1,
      6
     ],
     [
      145,
      1,
      5
     ],
     [
      146,
      2,
      3
     ]
    ],
    "12": [
     [
      124,
      1,
      2
     ],
     [
      125,
      3,
      10
     ],
     [
      128,
      1,
      7
     ],
     [
      130,
      1,
      3
     ],
     [
      131,
      1,
      6
     ],
     [
      132,
      1,
      10
     ],
     [
      133,
      1,
      9
     ],
     [
      134,
      2,
      10
     ],
     [
      136,
      1,
      9
     ],
     [
      137,
      1,
      1
     ],
     [
      139,
      2,
      10
     ],
     [
      141,
      1,
      1
     ],
     [
      143,
      1,
      8
     ],
     [
      144,
      6,
      10
     ],
     [
      150,
      1,
      8
     ],
     [
      151,
      1,
      7
     ],
     [
      152,
      1,
      6
     ],
     [
      153,
      1,
      2
     ],
     [
      154,
      1,
      3
     ],
     [
      155,
      1,
      1
     ]
    ],
    "13": [
     [
      125,
      1,
      4
     ],
     [
      126,
      1,
      7
     ],
     [
      127,
      1,
      10
     ],
     [
      128,
      1,
      9
     ],
     [
      129,
      1,
      4
     ],
     [
      130,
      2,
      3
     ],
     [
      132,
      4,
      10
     ],
     [
      136,
      1,
      6
     ],
     [
      139,
      2,
      10
     ],
     [
      141,
      1,
      3
     ],
     [
      142,
      1,
      1
     ],
     [
      143,
      1,
      2
     ],
     [
      144,
      1,
      9
     ],
     [
      145,
      12,
      10
     ],
     [
      157,
      2,
      7
     ],
     [
      159,
      1,
      5
     ],
     [
      160,
      1,
      4
     ],
     [
      161,
      1,
      3
     ]
    ],
    "14": [
     [
      126,
      1,
      4
     ],
     [
      127,
      1,
      9
     ],
     [
      128,
      1,
      4
     ],
     [
      130,
      6,
      10
     ],
     [
      136,
      1,
      8
     ],
     [
      137,
      1,
      5
     ],
     [
      138,
      1,
      6
     ],
     [
      139,
      3,
      10
     ],
     [
      142,
      1,
      4
     ],
     [
      144,
      1,
      8
     ],
     [
      145,
      19,
      10
     ],
     [
      164,
      1,
      8
     ],
     [
      165,
      1,
      6
     ],
     [
      166,
      1,
      5
     ],
     [
      167,
      1,
      3
     ]
    ],
    "15": [
     [
      126,
      1,
      1
     ],
     [
      127,
      1,
      7
     ],
     [
      128,
      1,
      1
     ],
     [
      129,
      1,
      5
     ],
     [
      130,
      12,
      10
     ],
     [
      142,
      1,
      8
     ],
     [
      143,
      1,
      7
     ],
     [
      144,
      23,
      10
     ],
     [
      167,
      1,
      9
     ]
    ],
    "16": [
     [
      127,
      1,
      6
     ],
     [
      128,
      39,
      10
     ],
     [
      167,
      1,
      6
     ]
    ],
    "17": [
     [
      127,
      1,
      1
     ],
     [
      128,
      6,
      10
     ],
     [
      134,
      1,
      7
     ],
     [
      137,
      1,
      9
     ],
     [
      138,
      7,
      10
     ],
     [
      145,
      1,
      8
     ],
     [
      146,
      1,
      6
     ],
     [
      147,
      20,
      10
     ],
     [
      167,
      1,
      4
     ]
    ],
    "18": [
     [
      129,
      1,
      6
     ],
     [
      130,
      1,
      9
     ],
     [
      131,
      3,
      10
     ],
     [
      134,
      1,
      7
     ],
     [
      135,
      2,
      4
     ],
     [
      137,
      7,
      10
     ],
     [
      144,
      1,
      6
     ],
     [
      145,
      1,
      2
     ],
     [
      147,
      1,
      7
     ],
     [
      148,
      1,
      9
     ],
     [
      149,
      18,
      10
     ],
     [
      167,
      1,
      2
     ]
    ],
    "19": [
     [
      130,
      1,
      5
     ],
     [
      131,
      1,
      10
     ],
     [
      132,
      1,
      8
     ],
     [
      134,
      1,
      8
     ],
     [
      135,
      9,
      10
     ],
     [
      144,
      1,
      2
     ],
     [
      148,
      1,
      8
     ],
     [
      149,
      18,
      10
     ]
    ],
    "20": [
     [
      131,
      1,
      5
     ],
     [
      132,
      1,
      8
     ],
     [
      133,
      2,
      3
     ],
     [
      135,
      8,
      10
     ],
     [
      143,
      1,
      6
     ],
     [
      148,
      1,
      7
     ],
     [
      149,
      18,
      10
     ],
     [
      167,
      1,
      4
     ],
     [
      168,
      2,
      2
     ]
    ],
    "21": [
     [
      131,
      1,
      1
     ],
     [
      132,
      1,
      2
     ],
     [
      133,
      1,
      8
     ],
     [
      134,
      1,
      9
     ],
     [
      135,
      7,
      10
     ],
     [
      142,
      1,
      9
     ],
     [
      143,
      1,
      2
     ],
     [
      148,
      23,
      10
     ],
     [
      171,
      1,
      9
     ],
     [
      172,
      1,
      7
     ],
     [
      173,
      1,
      6
     ],
     [
      174,
      1,
      5
     ],
     [
      175,
      1,
      3
     ],
     [
      176,
      1,
      2
     ]
    ],
    "22": [
     [
      131,
      1,
      1
     ],
     [
      132,
      1,
      2
     ],
     [
      133,
      1,
      7
     ],
     [
      134,
      8,
      10
     ],
     [
      142,
      1,
      1
     ],
     [
      144,
      1,
      1
     ],
     [
      145,
      1,
      2
     ],
     [
      147,
      1,
      2
     ],
     [
      148,
      31,
      10
     ],
     [
      179,
      1,
      7
     ],
     [
      180,
      1,
      6
     ],
     [
      181,
      1,
      5
     ],
     [
      182,
      1,
      3
     ],
     [
      183,
      1,
      2
     ]
    ],
    "23": [
     [
      132,
      1,
      2
     ],
     [
      133,
      1,
      6
     ],
     [
      134,
      8,
      10
     ],
     [
      142,
      1,
      3
     ],
     [
      144,
      1,
      2
     ],
     [
      145,
      1,
      9
     ],
     [
      146,
      1,
      1
     ],
     [
      148,
      1,
      7
     ],
     [
      149,
      37,
      10
     ],
     [
      186,
      2,
      7
     ],
     [
      188,
      1,
      5
     ],
     [
      189,
      1,
      3
     ],
     [
      190,
      1,
      2
     ]
    ],
    "24": [
     [
      134,
      1,
      2
     ],
     [
      135,
      1,
      6
     ],
     [
      136,
      6,
      10
     ],
     [
      142,
      1,
      4
     ],
     [
      145,
      1,
      2
     ],
     [
      146,
      1,
      3
     ],
     [
      147,
      1,
      5
     ],
     [
      148,
      1,
      9
     ],
     [
      149,
      44,
      10
     ],
     [
      193,
      2,
      8
     ],
     [
      195,
      1,
      5
     ],
     [
      196,
      2,
      3
     ],
     [
      198,
      1,
      1
     ]
    ],
    "25": [
     [
      137,
      1,
      6
     ],
     [
      138,
      4,
      10
     ],
     [
      142,
      1,
      8
     ],
     [
      143,
      1,
      3
     ],
     [
      145,
      1,
      3
     ],
     [
      146,
      2,
      10
     ],
     [
      148,
      1,
      8
     ],
     [
      149,
      2,
      3
     ],
     [
      151,
      1,
      8
     ],
     [
      152,
      48,
      10
     ],
     [
      200,
      1,
      8
     ],
     [
      201,
      1,
      7
     ],
     [
      202,
      1,
      6
     ],
     [
      203,
      1,
      4
     ],
     [
      204,
      2,
      2
     ]
    ],
    "26": [
     [
      137,
      1,
      3
     ],
     [
      138,
      1,
      8
     ],
     [
      139,
      5,
      10
     ],
     [
      144,
      2,
      8
     ],
     [
      146,
      2,
      10
     ],
     [
      149,
      1,
      1
     ],
     [
      150,
      1,
      3
     ],
     [
      151,
      1,
      8
     ],
     [
      152,
      55,
      10
     ],
     [
      207,
      1,
      9
     ],
     [
      208,
      1,
      7
     ],
     [
      209,
      1,
      6
     ],
     [
      210,
      1,
      4
     ],
     [
      211,
      1,
      3
     ],
     [
      212,
      1,
      1
     ]
    ],
    "27": [
     [
      138,
      1,
      5
     ],
     [
      139,
      9,
      10
     ],
     [
      148,
      1,
      7
     ],
     [
      149,
      1,
      6
     ],
     [
      150,
      65,
      10
     ],
     [
      215,
      2,
      7
     ],
     [
      217,
      1,
      5
     ],
     [
      218,
      2,
      3
     ]
    ],
    "28": [
     [
      139,
      1,
      4
     ],
     [
      140,
      7,
      10
     ],
     [
      147,
      1,
      7
     ],
     [
      149,
      1,
      3
     ],
     [
      150,
      72,
      10
     ],
     [
      222,
      1,
      8
     ],
     [
      223,
      1,
      7
     ],
     [
      224,
      1,
      5
     ],
     [
      225,
      1,
      4
     ],
     [
      226,
      1,
      3
     ],
     [
      227,
      1,
      1
     ]
    ],
    "29": [
     [
      139,
      1,
      1
     ],
     [
      140,
      1,
      7
     ],
     [
      141,
      4,
      10
     ],
     [
      145,
      1,
      6
     ],
     [
      146,
      1,
      5
     ],
     [
      147,
      1,
      6
     ],
     [
      149,
      1,
      8
     ],
     [
      150,
      79,
      10
     ],
     [
      229,
      1,
      9
     ],
     [
      230,
      1,
      7
     ],
     [
      231,
      1,
      6
     ],
     [
      232,
      1,
      4
     ],
     [
      233,
      1,
      3
     ],
     [
      234,
      1,
      2
     ]
    ],
    "30": [
     [
      141,
      1,
      4
     ],
     [
      142,
      3,
      10
     ],
     [
      145,
      1,
      1
     ],
     [
      146,
      1,
      3
     ],
     [
      147,
      89,
      10
     ],
     [
      236,
      1,
      9
     ],
     [
      237,
      1,
      7
     ],
     [
      238,
      1,
      8
     ],
     [
      239,
      1,
      4
     ],
     [
      240,
      1,
      3
     ],
     [
      241,
      1,
      2
     ]
    ],
    "31": [
     [
      133,
      1,
      1
     ],
     [
      141,
      1,
      2
     ],
     [
      142,
      1,
      8
     ],
     [
      143,
      1,
      10
     ],
     [
      144,
      1,
      9
     ],
     [
      145,
      1,
      2
     ],
     [
      147,
      1,
      8
     ],
     [
      148,
      96,
      10
     ],
     [
      244,
      1,
      8
     ],
     [
      245,
      1,
      7
     ],
     [
      246,
      1,
      6
     ],
     [
      247,
      1,
      4
     ],
     [
      248,
      2,
      2
     ]
    ],
    "32": [
     [
      140,
      1,
      2
     ],
     [
      142,
      1,
      6
     ],
     [
      143,
      1,
      10
     ],
     [
      144,
      1,
      6
     ],
     [
      147,
      1,
      9
     ],
     [
      148,
      102,
      10
     ],
     [
      250,
      1,
      9
     ]
    ],
    "33": [
     [
      133,
      1,
      1
     ],
     [
      140,
      1,
      1
     ],
     [
      142,
      1,
      3
     ],
     [
      143,
      2,
      10
     ],
     [
      145,
      1,
      8
     ],
     [
      146,
      104,
      10
     ],
     [
      250,
      1,
      6
     ]
    ],
    "34": [
     [
      143,
      107,
      10
     ],
     [
      250,
      1,
      4
     ]
    ],
    "35": [
     [
      143,
      1,
      9
     ],
     [
      144,
      106,
      10
     ],
     [
      250,
      1,
      3
     ]
    ],
    "36": [
     [
      143,
      1,
      9
     ],
     [
      144,
      106,
      10
     ]
    ],
    "37": [
     [
      143,
      1,
      6
     ],
     [
      144,
      105,
      10
     ],
     [
      249,
      1,
      8
     ]
    ],
    "38": [
     [
      143,
      1,
      6
     ],
     [
      144,
      105,
      10
     ],
     [
      249,
      1,
      7
     ]
    ],
    "39": [
     [
      143,
      1,
      7
     ],
     [
      144,
      105,
      10
     ],
     [
      249,
      1,
      5
     ]
    ],
    "40": [
     [
      136,
      1,
      1
     ],
     [
      143,
      1,
      7
     ],
     [
      144,
      105,
      10
     ],
     [
      249,
      1,
      3
     ]
    ],
    "41": [
     [
      136,
      1,
      1
     ],
     [
      143,
      1,
      6
     ],
     [
      144,
      105,
      10
     ]
    ],
    "42": [
     [
      136,
      1,
      3
     ],
     [
      143,
      1,
      4
     ],
     [
      144,
      104,
      10
     ],
     [
      248,
      1,
      8
     ]
    ],
    "43": [
     [
      142,
      1,
      3
     ],
     [
      143,
      1,
      9
     ],
     [
      144,
      104,
      10
     ],
     [
      248,
      1,
      7
     ]
    ],
    "44": [
     [
      142,
      106,
      10
     ],
     [
      248,
      1,
      3
     ]
    ],
    "45": [
     [
      142,
      1,
      4
     ],
     [
      143,
      1,
      9
     ],
     [
      144,
      104,
      10
     ],
     [
      248,
      1,
      3
     ]
    ],
    "46": [
     [
      143,
      105,
      10
     ]
    ],
    "47": [
     [
      142,
      1,
      9
     ],
     [
      143,
      104,
      10
     ],
     [
      247,
      1,
      9
     ]
    ],
    "48": [
     [
      141,
      1,
      4
     ],
     [
      142,
      105,
      10
     ],
     [
      247,
      1,
      6
     ]
    ],
    "49": [
     [
      140,
      1,
      3
     ],
     [
      141,
      1,
      9
     ],
     [
      142,
      105,
      10
     ],
     [
      247,
      1,
      4
     ]
    ],
    "50": [
     [
      140,
      1,
      4
     ],
     [
      141,
      106,
      10
     ],
     [
      247,
      1,
      3
     ]
    ],
    "51": [
     [
      139,
      1,
      1
     ],
     [
      140,
      1,
      6
     ],
     [
      141,
      106,
      10
     ]
    ],
    "52": [
     [
      139,
      1,
      1
     ],
     [
      140,
      106,
      10
     ],
     [
      246,
      1,
      8
     ]
    ],
    "53": [
     [
      140,
      106,
      10
     ],
     [
      246,
      1,
      7
     ]
    ],
    "54": [
     [
      138,
      1,
      9
     ],
     [
      139,
      1,
      7
     ],
     [
      140,
      106,
      10
     ],
     [
      246,
      1,
      4
     ]
    ],
    "55": [
     [
      136,
      1,
      4
     ],
     [
      137,
      1,
      3
     ],
     [
      138,
      108,
      10
     ],
     [
      246,
      1,
      2
     ]
    ],
    "56": [
     [
      136,
      1,
      6
     ],
     [
      137,
      109,
      10
     ]
    ],
    "57": [
     [
      136,
      1,
      4
     ],
     [
      137,
      1,
      2
     ],
     [
      138,
      1,
      8
     ],
     [
      139,
      106,
      10
     ],
     [
      245,
      1,
      8
     ]
    ],
    "58": [
     [
      136,
      1,
      5
     ],
     [
      137,
      1,
      1
     ],
     [
      138,
      1,
      2
     ],
     [
      139,
      106,
      10
     ],
     [
      245,
      1,
      7
     ]
    ],
    "59": [
     [
      137,
      1,
      6
     ],
     [
      138,
      1,
      1
     ],
     [
      139,
      1,
      9
     ],
     [
      140,
      105,
      10
     ],
     [
      245,
      1,
      3
     ]
    ],
    "60": [
     [
      139,
      1,
      5
     ],
     [
      140,
      1,
      1
     ],
     [
      141,
      1,
      3
     ],
     [
      142,
      103,
      10
     ],
     [
      245,
      1,
      2
     ]
    ],
    "61": [
     [
      139,
      1,
      2
     ],
     [
      140,
      1,
      3
     ],
     [
      143,
      11,
      10
     ],
     [
      154,
      1,
      5
     ],
     [
      155,
      1,
      1
     ],
     [
      156,
      1,
      2
     ],
     [
      157,
      88,
      10
     ]
    ],
    "62": [
     [
      140,
      1,
      2
     ],
     [
      141,
      2,
      1
     ],
     [
      143,
      1,
      9
     ],
     [
      144,
      10,
      10
     ],
     [
      154,
      1,
      8
     ],
     [
      155,
      1,
      5
     ],
     [
      156,
      1,
      6
     ],
     [
      157,
      87,
      10
     ],
     [
      244,
      1,
      8
     ]
    ],
    "63": [
     [
      140,
      2,
      8
     ],
     [
      143,
      1,
      4
     ],
     [
      144,
      1,
      3
     ],
     [
      145,
      8,
      10
     ],
     [
      153,
      1,
      7
     ],
     [
      154,
      1,
      2
     ],
     [
      155,
      1,
      8
     ],
     [
      156,
      88,
      10
     ],
     [
      244,
      1,
      6
     ]
    ],
    "64": [
     [
      139,
      1,
      1
     ],
     [
      140,
      1,
      10
     ],
     [
      141,
      1,
      4
     ],
     [
      144,
      1,
      4
     ],
     [
      145,
      8,
      10
     ],
     [
      153,
      1,
      8
     ],
     [
      155,
      1,
      3
     ],
     [
      156,
      88,
      10
     ],
     [
      244,
      1,
      3
     ]
    ],
    "65": [
     [
      139,
      1,
      1
     ],
     [
      140,
      1,
      8
     ],
     [
      141,
      1,
      4
     ],
     [
      144,
      1,
      6
     ],
     [
      145,
      1,
      9
     ],
     [
      146,
      1,
      10
     ],
     [
      147,
      1,
      4
     ],
     [
      148,
      1,
      3
     ],
     [
      149,
      6,
      10
     ],
     [
      155,
      1,
      9
     ],
     [
      156,
      88,
      10
     ],
     [
      244,
      1,
      2
     ]
    ],
    "66": [
     [
      136,
      2,
      2
     ],
     [
      140,
      1,
      9
     ],
     [
      141,
      1,
      8
     ],
     [
      142,
      1,
      2
     ],
     [
      145,
      1,
      8
     ],
     [
      146,
      1,
      3
     ],
     [
      149,
      1,
      7
     ],
     [
      150,
      94,
      10
     ]
    ],
    "67": [
     [
      138,
      1,
      1
     ],
     [
      139,
      1,
      2
     ],
     [
      140,
      1,
      8
     ],
     [
      141,
      1,
      3
     ],
     [
      145,
      1,
      4
     ],
     [
      146,
      1,
      2
     ],
     [
      149,
      1,
      3
     ],
     [
      150,
      4,
      10
     ],
     [
      154,
      1,
      7
     ],
     [
      155,
      1,
      3
     ],
     [
      156,
      87,
      10
     ],
     [
      243,
      1,
      7
     ]
    ],
    "68": [
     [
      141,
      1,
      3
     ],
     [
      142,
      1,
      6
     ],
     [
      143,
      2,
      10
     ],
     [
      145,
      1,
      9
     ],
     [
      146,
      1,
      6
     ],
     [
      148,
      1,
      3
     ],
     [
      149,
      1,
      9
     ],
     [
      150,
      4,
      10
     ],
     [
      154,
      1,
      7
     ],
     [
      155,
      1,
      1
     ],
     [
      156,
      1,
      7
     ],
     [
      157,
      86,
      10
     ],
     [
      243,
      1,
      6
     ]
    ],
    "69": [
     [
      138,
      1,
      1
     ],
     [
      139,
      1,
      4
     ],
     [
      141,
      1,
      7
     ],
     [
      142,
      2,
      10
     ],
     [
      144,
      2,
      4
     ],
     [
      146,
      1,
      6
     ],
     [
      147,
      1,
      7
     ],
     [
      148,
      1,
      8
     ],
     [
      149,
      1,
      7
     ],
     [
      150,
      1,
      6
     ],
     [
      151,
      2,
      7
     ],
     [
      153,
      2,
      10
     ],
     [
      155,
      1,
      6
     ],
     [
      156,
      1,
      5
     ],
     [
      157,
      86,
      10
     ],
     [
      243,
      1,
      4
     ]
    ],
    "70": [
     [
      88,
      3,
      1
     ],
     [
      131,
      1,
      1
     ],
     [
      139,
      2,
      8
     ],
     [
      141,
      3,
      10
     ],
     [
      144,
      1,
      3
     ],
     [
      145,
      1,
      1
     ],
     [
      146,
      1,
      3
     ],
     [
      147,
      1,
      10
     ],
     [
      148,
      1,
      7
     ],
     [
      153,
      1,
      3
     ],
     [
      154,
      89,
      10
     ],
     [
      243,
      1,
      1
     ]
    ],
    "71": [
     [
      90,
      1,
      1
     ],
     [
      131,
      1,
      2
     ],
     [
      136,
      1,
      2
     ],
     [
      137,
      1,
      4
     ],
     [
      139,
      1,
      5
     ],
     [
      140,
      5,
      10
     ],
     [
      145,
      1,
      8
     ],
     [
      146,
      1,
      3
     ],
     [
      147,
      1,
      10
     ],
     [
      148,
      1,
      8
     ],
     [
      149,
      1,
      6
     ],
     [
      150,
      1,
      1
     ],
     [
      152,
      1,
      2
     ],
     [
      155,
      1,
      8
     ],
     [
      156,
      87,
      10
     ]
    ],
    "72": [
     [
      132,
      1,
      2
     ],
     [
      135,
      1,
      1
     ],
     [
      136,
      1,
      10
     ],
     [
      137,
      1,
      9
     ],
     [
      138,
      1,
      7
     ],
     [
      139,
      1,
      9
     ],
     [
      140,
      9,
      10
     ],
     [
      149,
      1,
      3
     ],
     [
      155,
      87,
      10
     ],
     [
      242,
      1,
      7
     ]
    ],
    "73": [
     [
      132,
      1,
      3
     ],
     [
      135,
      1,
      2
     ],
     [
      136,
      1,
      10
     ],
     [
      137,
      2,
      8
     ],
     [
      139,
      1,
      3
     ],
     [
      140,
      1,
      6
     ],
     [
      141,
      7,
      10
     ],
     [
      148,
      1,
      8
     ],
     [
      149,
      1,
      5
     ],
     [
      150,
      1,
      9
     ],
     [
      151,
      1,
      7
     ],
     [
      152,
      3,
      8
     ],
     [
      155,
      87,
      10
     ],
     [
      242,
      1,
      6
     ]
    ],
    "74": [
     [
      13,
      2,
      2
     ],
     [
      94,
      1,
      3
     ],
     [
      95,
      1,
      1
     ],
     [
      132,
      1,
      3
     ],
     [
      135,
      1,
      4
     ],
     [
      136,
      1,
      8
     ],
     [
      141,
      10,
      10
     ],
     [
      151,
      1,
      6
     ],
     [
      152,
      1,
      5
     ],
     [
      153,
      89,
      10
     ],
     [
      242,
      1,
      3
     ]
    ],
    "75": [
     [
      13,
      1,
      3
     ],
     [
      92,
      2,
      2
     ],
     [
      95,
      1,
      4
     ],
     [
      135,
      2,
      1
     ],
     [
      137,
      1,
      2
     ],
     [
      138,
      1,
      4
     ],
     [
      139,
      1,
      3
     ],
     [
      140,
      1,
      5
     ],
     [
      141,
      10,
      10
     ],
     [
      151,
      1,
      2
     ],
     [
      152,
      1,
      1
     ],
     [
      153,
      89,
      10
     ],
     [
      242,
      1,
      1
     ]
    ],
    "76": [
     [
      13,
      1,
      3
     ],
     [
      93,
      1,
      3
     ],
     [
      95,
      2,
      3
     ],
     [
      133,
      1,
      1
     ],
     [
      137,
      1,
      3
     ],
     [
      138,
      3,
      10
     ],
     [
      141,
      1,
      9
     ],
     [
      142,
      1,
      2
     ],
     [
      144,
      1,
      6
     ],
     [
      145,
      97,
      10
     ]
    ],
    "77": [
     [
      12,
      1,
      1
     ],
     [
      95,
      1,
      6
     ],
     [
      135,
      1,
      3
     ],
     [
      136,
      1,
      9
     ],
     [
      137,
      4,
      10
     ],
     [
      145,
      96,
      10
     ],
     [
      241,
      1,
      7
     ]
    ],
    "78": [
     [
      10,
      1,
      1
     ],
     [
      12,
      1,
      1
     ],
     [
      95,
      1,
      8
     ],
     [
      96,
      1,
      5
     ],
     [
      98,
      1,
      6
     ],
     [
      99,
      1,
      1
     ],
     [
      136,
      1,
      9
     ],
     [
      137,
      2,
      10
     ],
     [
      139,
      2,
      8
     ],
     [
      141,
      1,
      6
     ],
     [
      142,
      1,
      5
     ],
     [
      143,
      1,
      6
     ],
     [
      144,
      1,
      8
     ],
     [
      145,
      96,
      10
     ],
     [
      241,
      1,
      5
     ]
    ],
    "79": [
     [
      9,
      1,
      1
     ],
     [
      10,
      1,
      10
     ],
     [
      11,
      1,
      7
     ],
     [
      12,
      1,
      1
     ],
     [
      92,
      1,
      2
     ],
     [
      95,
      1,
      8
     ],
     [
      96,
      1,
      10
     ],
     [
      97,
      1,
      8
     ],
     [
      98,
      1,
      9
     ],
     [
      99,
      1,
      10
     ],
     [
      131,
      1,
      4
     ],
     [
      132,
      1,
      2
     ],
     [
      135,
      1,
      2
     ],
     [
      136,
      1,
      8
     ],
     [
      137,
      1,
      10
     ],
     [
      138,
      1,
      8
     ],
     [
      140,
      1,
      4
     ],
     [
      141,
      100,
      10
     ],
     [
      241,
      1,
      4
     ]
    ],
    "80": [
     [
      10,
      2,
      7
     ],
     [
      92,
      1,
      3
     ],
     [
      93,
      1,
      4
     ],
     [
      94,
      1,
      2
     ],
     [
      96,
      1,
      4
     ],
     [
      97,
      1,
      7
     ],
     [
      98,
      1,
      9
     ],
     [
      99,
      1,
      10
     ],
     [
      100,
      1,
      5
     ],
     [
      125,
      2,
      2
     ],
     [
      136,
      1,
      6
     ],
     [
      137,
      1,
      10
     ],
     [
      138,
      1,
      6
     ],
     [
      141,
      1,
      7
     ],
     [
      142,
      1,
      9
     ],
     [
      143,
      1,
      1
     ],
     [
      144,
      1,
      5
     ],
     [
      145,
      96,
      10
     ],
     [
      241,
      1,
      1
     ]
    ],
    "81": [
     [
      10,
      1,
      1
     ],
     [
      11,
      1,
      4
     ],
     [
      92,
      1,
      1
     ],
     [
      93,
      2,
      7
     ],
     [
      98,
      1,
      4
     ],
     [
      99,
      2,
      10
     ],
     [
      124,
      1,
      2
     ],
     [
      125,
      1,
      8
     ],
     [
      126,
      1,
      10
     ],
     [
      127,
      1,
      9
     ],
     [
      128,
      1,
      5
     ],
     [
      130,
      1,
      1
     ],
     [
      131,
      1,
      9
     ],
     [
      136,
      1,
      7
     ],
     [
      137,
      1,
      10
     ],
     [
      138,
      1,
      5
     ],
     [
      140,
      1,
      7
     ],
     [
      141,
      2,
      9
     ],
     [
      144,
      1,
      2
     ],
     [
      145,
      96,
      10
     ]
    ],
    "82": [
     [
      93,
      1,
      3
     ],
     [
      94,
      1,
      9
     ],
     [
      95,
      1,
      5
     ],
     [
      96,
      1,
      6
     ],
     [
      97,
      1,
      5
     ],
     [
      98,
      1,
      6
     ],
     [
      99,
      1,
      10
     ],
     [
      100,
      1,
      8
     ],
     [
      117,
      1,
      2
     ],
     [
      118,
      1,
      9
     ],
     [
      119,
      1,
      3
     ],
     [
      120,
      1,
      1
     ],
     [
      123,
      1,
      2
     ],
     [
      124,
      1,
      9
     ],
     [
      125,
      4,
      10
     ],
     [
      130,
      1,
      2
     ],
     [
      131,
      2,
      6
     ],
     [
      133,
      1,
      2
     ],
     [
      135,
      1,
      2
     ],
     [
      136,
      1,
      4
     ],
     [
      137,
      1,
      10
     ],
     [
      138,
      1,
      4
     ],
     [
      139,
      1,
      3
     ],
     [
      140,
      1,
      6
     ],
     [
      141,
      2,
      10
     ],
     [
      143,
      2,
      8
     ],
     [
      145,
      2,
      10
     ],
     [
      147,
      1,
      4
     ],
     [
      149,
      1,
      7
     ],
     [
      150,
      90,
      10
     ],
     [
      240,
      1,
      7
     ]
    ],
    "83": [
     [
      22,
      1,
      2
     ],
     [
      94,
      1,
      3
     ],
     [
      95,
      5,
      10
     ],
     [
      100,
      1,
      9
     ],
     [
      115,
      1,
      2
     ],
     [
      117,
      1,
      4
     ],
     [
      118,
      1,
      7
     ],
     [
      119,
      1,
      10
     ],
     [
      120,
      1,
      9
     ],
     [
      121,
      1,
      8
     ],
     [
      122,
      1,
      10
     ],
     [
      123,
      1,
      9
     ],
     [
      124,
      5,
      10
     ],
     [
      129,
      1,
      3
     ],
     [
      131,
      1,
      6
     ],
     [
      132,
      2,
      10
     ],
     [
      135,
      1,
      1
     ],
     [
      136,
      1,
      2
     ],
     [
      137,
      1,
      10
     ],
     [
      138,
      1,
      2
     ],
     [
      139,
      1,
      1
     ],
     [
      140,
      1,
      7
     ],
     [
      141,
      6,
      10
     ],
     [
      147,
      1,
      6
     ],
     [
      148,
      1,
      2
     ],
     [
      149,
      91,
      10
     ],
     [
      240,
      1,
      6
     ]
    ],
    "84": [
     [
      22,
      1,
      2
     ],
     [
      49,
      1,
      3
     ],
     [
      50,
      1,
      1
     ],
     [
      95,
      1,
      10
     ],
     [
      96,
      1,
      7
     ],
     [
      97,
      1,
      8
     ],
     [
      98,
      4,
      10
     ],
     [
      102,
      1,
      9
     ],
     [
      103,
      1,
      5
     ],
     [
      104,
      1,
      1
     ],
     [
      114,
      1,
      3
     ],
     [
      115,
      2,
      10
     ],
     [
      117,
      1,
      3
     ],
     [
      119,
      15,
      10
     ],
     [
      134,
      2,
      8
     ],
     [
      136,
      104,
      10
     ],
     [
      240,
      1,
      3
     ]
    ],
    "85": [
     [
      94,
      1,
      3
     ],
     [
      95,
      1,
      1
     ],
     [
      97,
      1,
      1
     ],
     [
      98,
      6,
      10
     ],
     [
      104,
      1,
      3
     ],
     [
      114,
      1,
      1
     ],
     [
      115,
      2,
      10
     ],
     [
      119,
      1,
      9
     ],
     [
      120,
      9,
      10
     ],
     [
      129,
      1,
      3
     ],
     [
      130,
      1,
      1
     ],
     [
      132,
      1,
      6
     ],
     [
      133,
      107,
      10
     ],
     [
      240,
      1,
      1
     ]
    ],
    "86": [
     [
      66,
      1,
      1
     ],
     [
      69,
      1,
      2
     ],
     [
      94,
      2,
      1
     ],
     [
      97,
      1,
      3
     ],
     [
      98,
      1,
      9
     ],
     [
      99,
      5,
      10
     ],
     [
      104,
      1,
      5
     ],
     [
      105,
      1,
      2
     ],
     [
      107,
      1,
      2
     ],
     [
      113,
      1,
      2
     ],
     [
      114,
      1,
      8
     ],
     [
      115,
      2,
      10
     ],
     [
      117,
      1,
      5
     ],
     [
      118,
      1,
      3
     ],
     [
      119,
      4,
      10
     ],
     [
      123,
      1,
      9
     ],
     [
      124,
      5,
      10
     ],
     [
      129,
      1,
      5
     ],
     [
      130,
      1,
      1
     ],
     [
      132,
      1,
      3
     ],
     [
      133,
      107,
      10
     ]
    ],
    "87": [
     [
      42,
      1,
      1
     ],
     [
      53,
      1,
      6
     ],
     [
      54,
      1,
      4
     ],
     [
      63,
      1,
      2
     ],
     [
      64,
      1,
      5
     ],
     [
      66,
      1,
      3
     ],
     [
      67,
      1,
      9
     ],
     [
      68,
      1,
      6
     ],
     [
      80,
      1,
      3
     ],
     [
      81,
      1,
      1
     ],
     [
      84,
      1,
      2
     ],
     [
      85,
      1,
      9
     ],
     [
      86,
      1,
      3
     ],
     [
      88,
      2,
      1
     ],
     [
      93,
      1,
      1
     ],
     [
      94,
      1,
      2
     ],
     [
      98,
      1,
      2
     ],
     [
      99,
      1,
      7
     ],
     [
      100,
      1,
      10
     ],
     [
      101,
      1,
      9
     ],
     [
      102,
      2,
      8
     ],
     [
      104,
      1,
      3
     ],
     [
      106,
      1,
      4
     ],
     [
      107,
      1,
      8
     ],
     [
      108,
      1,
      1
     ],
     [
      112,
      1,
      2
     ],
     [
      113,
      10,
      10
     ],
     [
      123,
      1,
      3
     ],
     [
      125,
      1,
      9
     ],
     [
      126,
      113,
      10
     ],
     [
      239,
      1,
      7
     ]
    ],
    "88": [
     [
      63,
      1,
      8
     ],
     [
      64,
      1,
      10
     ],
     [
      65,
      1,
      1
     ],
     [
      67,
      1,
      10
     ],
     [
      68,
      1,
      6
     ],
     [
      80,
      1,
      2
     ],
     [
      81,
      2,
      6
     ],
     [
      83,
      1,
      7
     ],
     [
      84,
      2,
      8
     ],
     [
      86,
      1,
      10
     ],
     [
      87,
      2,
      8
     ],
     [
      89,
      1,
      10
     ],
     [
      90,
      1,
      6
     ],
     [
      91,
      1,
      4
     ],
     [
      93,
      2,
      10
     ],
     [
      95,
      1,
      6
     ],
     [
      100,
      2,
      2
     ],
     [
      104,
      1,
      4
     ],
     [
      105,
      1,
      2
     ],
     [
      106,
      2,
      10
     ],
     [
      111,
      1,
      2
     ],
     [
      112,
      1,
      9
     ],
     [
      113,
      3,
      10
     ],
     [
      116,
      1,
      5
     ],
     [
      118,
      1,
      9
     ],
     [
      119,
      1,
      10
     ],
     [
      120,
      1,
      7
     ],
     [
      121,
      1,
      9
     ],
     [
      122,
      1,
      10
     ],
     [
      123,
      1,
      6
     ],
     [
      125,
      1,
      5
     ],
     [
      126,
      2,
      2
     ],
     [
      129,
      14,
      10
     ],
     [
      143,
      2,
      9
     ],
     [
      145,
      94,
      10
     ],
     [
      239,
      1,
      6
     ]
    ],
    "89": [
     [
      39,
      1,
      2
     ],
     [
      40,
      1,
      1
     ],
     [
      63,
      1,
      5
     ],
     [
      64,
      1,
      10
     ],
     [
      65,
      1,
      8
     ],
     [
      67,
      2,
      8
     ],
     [
      73,
      1,
      4
     ],
     [
      74,
      1,
      6
     ],
     [
      81,
      1,
      3
     ],
     [
      82,
      2,
      10
     ],
     [
      84,
      1,
      1
     ],
     [
      86,
      1,
      8
     ],
     [
      87,
      1,
      10
     ],
     [
      88,
      1,
      8
     ],
     [
      89,
      1,
      7
     ],
     [
      92,
      1,
      2
     ],
     [
      93,
      1,
      4
     ],
     [
      94,
      2,
      9
     ],
     [
      96,
      1,
      6
     ],
     [
      97,
      1,
      5
     ],
     [
      98,
      1,
      8
     ],
     [
      99,
      2,
      3
     ],
     [
      101,
      1,
      1
     ],
     [
      105,
      1,
      7
     ],
     [
      106,
      2,
      10
     ],
     [
      108,
      1,
      9
     ],
     [
      109,
      1,
      7
     ],
     [
      110,
      1,
      3
     ],
     [
      111,
      1,
      2
     ],
     [
      113,
      1,
      2
     ],
     [
      114,
      2,
      8
     ],
     [
      117,
      1,
      1
     ],
     [
      118,
      1,
      4
     ],
     [
      119,
      1,
      2
     ],
     [
      122,
      1,
      1
     ],
     [
      123,
      1,
      2
     ],
     [
      124,
      1,
      9
     ],
     [
      125,
      1,
      4
     ],
     [
      128,
      1,
      3
     ],
     [
      129,
      14,
      10
     ],
     [
      143,
      2,
      1
     ],
     [
      145,
      94,
      10
     ],
     [
      239,
      1,
      3
     ]
    ],
    "90": [
     [
      36,
      1,
      2
     ],
     [
      38,
      1,
      3
     ],
     [
      39,
      2,
      10
     ],
     [
      41,
      1,
      1
     ],
     [
      59,
      1,
      9
     ],
     [
      60,
      1,
      1
     ],
     [
      63,
      1,
      3
     ],
     [
      64,
      1,
      6
     ],
     [
      65,
      1,
      5
     ],
     [
      67,
      1,
      6
     ],
     [
      68,
      1,
      10
     ],
     [
      69,
      1,
      6
     ],
     [
      71,
      1,
      2
     ],
     [
      72,
      1,
      6
     ],
     [
      73,
      1,
      9
     ],
     [
      74,
      1,
      10
     ],
     [
      78,
      2,
      1
     ],
     [
      81,
      2,
      3
     ],
     [
      83,
      1,
      7
     ],
     [
      84,
      1,
      6
     ],
     [
      85,
      1,
      5
     ],
     [
      86,
      2,
      10
     ],
     [
      88,
      1,
      8
     ],
     [
      89,
      1,
      2
     ],
     [
      90,
      2,
      4
     ],
     [
      93,
      1,
      2
     ],
     [
      94,
      9,
      10
     ],
     [
      103,
      2,
      8
     ],
     [
      105,
      1,
      9
     ],
     [
      106,
      5,
      10
     ],
     [
      111,
      1,
      9
     ],
     [
      112,
      1,
      5
     ],
     [
      115,
      1,
      3
     ],
     [
      117,
      1,
      1
     ],
     [
      118,
      1,
      3
     ],
     [
      124,
      1,
      4
     ],
     [
      125,
      1,
      3
     ],
     [
      127,
      1,
      8
     ],
     [
      128,
      1,
      7
     ],
     [
      129,
      14,
      10
     ],
     [
      143,
      1,
      5
     ],
     [
      144,
      1,
      7
     ],
     [
      145,
      94,
      10
     ],
     [
      239,
      1,
      1
     ]
    ],
    "91": [
     [
      35,
      2,
      2
     ],
     [
      39,
      1,
      8
     ],
     [
      40,
      2,
      1
     ],
     [
      60,
      1,
      1
     ],
     [
      67,
      1,
      5
     ],
     [
      68,
      1,
      4
     ],
     [
      69,
      1,
      1
     ],
     [
      71,
      1,
      7
     ],
     [
      72,
      2,
      10
     ],
     [
      74,
      1,
      9
     ],
     [
      78,
      1,
      1
     ],
     [
      79,
      1,
      9
     ],
     [
      80,
      1,
      4
     ],
     [
      81,
      1,
      6
     ],
     [
      83,
      1,
      4
     ],
     [
      84,
      29,
      10
     ],
     [
      113,
      1,
      6
     ],
     [
      114,
      1,
      4
     ],
     [
      118,
      1,
      8
     ],
     [
      119,
      1,
      6
     ],
     [
      126,
      1,
      1
     ],
     [
      127,
      112,
      10
     ]
    ],
    "92": [
     [
      71,
      1,
      6
     ],
     [
      72,
      2,
      10
     ],
     [
      74,
      1,
      4
     ],
     [
      76,
      2,
      2
     ],
     [
      79,
      1,
      2
     ],
     [
      80,
      2,
      10
     ],
     [
      82,
      2,
      8
     ],
     [
      84,
      30,
      10
     ],
     [
      114,
      1,
      7
     ],
     [
      126,
      112,
      10
     ],
     [
      238,
      1,
      7
     ]
    ],
    "93": [
     [
      24,
      2,
      1
     ],
     [
      71,
      1,
      5
     ],
     [
      72,
      2,
      10
     ],
     [
      78,
      1,
      5
     ],
     [
      79,
      1,
      6
     ],
     [
      80,
      35,
      10
     ],
     [
      115,
      1,
      2
     ],
     [
      125,
      1,
      3
     ],
     [
      126,
      33,
      10
     ],
     [
      159,
      2,
      8
     ],
     [
      161,
      77,
      10
     ],
     [
      238,
      1,
      5
     ]
    ],
    "94": [
     [
      71,
      1,
      6
     ],
     [
      72,
      1,
      10
     ],
     [
      73,
      1,
      5
     ],
     [
      74,
      2,
      1
     ],
     [
      77,
      1,
      1
     ],
     [
      78,
      38,
      10
     ],
     [
      116,
      1,
      4
     ],
     [
      122,
      1,
      3
     ],
     [
      123,
      1,
      4
     ],
     [
      125,
      1,
      8
     ],
     [
      126,
      33,
      10
     ],
     [
      159,
      2,
      3
     ],
     [
      161,
      77,
      10
     ],
     [
      238,
      1,
      4
     ]
    ],
    "95": [
     [
      21,
      1,
      1
     ],
     [
      22,
      2,
      3
     ],
     [
      24,
      1,
      1
     ],
     [
      72,
      1,
      3
     ],
     [
      77,
      1,
      2
     ],
     [
      78,
      39,
      10
     ],
     [
      117,
      1,
      5
     ],
     [
      118,
      1,
      1
     ],
     [
      122,
      1,
      6
     ],
     [
      123,
      37,
      10
     ],
     [
      160,
      1,
      8
     ],
     [
      161,
      77,
      10
     ]
    ],
    "96": [
     [
      21,
      1,
      4
     ],
     [
      22,
      1,
      8
     ],
     [
      23,
      1,
      10
     ],
     [
      24,
      1,
      7
     ],
     [
      76,
      1,
      2
     ],
     [
      77,
      1,
      6
     ],
     [
      78,
      40,
      10
     ],
     [
      118,
      1,
      8
     ],
     [
      119,
      1,
      4
     ],
     [
      122,
      2,
      1
     ],
     [
      124,
      1,
      5
     ],
     [
      125,
      113,
      10
     ]
    ],
    "97": [
     [
      23,
      1,
      8
     ],
     [
      24,
      1,
      9
     ],
     [
      25,
      1,
      2
     ],
     [
      40,
      1,
      1
     ],
     [
      41,
      1,
      3
     ],
     [
      42,
      1,
      7
     ],
     [
      43,
      2,
      6
     ],
     [
      45,
      1,
      4
     ],
     [
      76,
      1,
      5
     ],
     [
      77,
      43,
      10
     ],
     [
      120,
      1,
      1
     ],
     [
      122,
      1,
      3
     ],
     [
      123,
      1,
      1
     ],
     [
      125,
      1,
      9
     ],
     [
      126,
      111,
      10
     ],
     [
      237,
      1,
      6
     ]
    ],
    "98": [
     [
      23,
      1,
      1
     ],
     [
      24,
      1,
      6
     ],
     [
      25,
      1,
      10
     ],
     [
      26,
      1,
      6
     ],
     [
      39,
      2,
      4
     ],
     [
      45,
      2,
      7
     ],
     [
      76,
      1,
      4
     ],
     [
      77,
      46,
      10
     ],
     [
      123,
      1,
      2
     ],
     [
      125,
      1,
      9
     ],
     [
      126,
      111,
      10
     ],
     [
      237,
      1,
      7
     ]
    ],
    "99": [
     [
      25,
      2,
      2
     ],
     [
      27,
      1,
      1
     ],
     [
      41,
      2,
      3
     ],
     [
      45,
      1,
      4
     ],
     [
      46,
      1,
      10
     ],
     [
      47,
      1,
      7
     ],
     [
      71,
      1,
      6
     ],
     [
      72,
      1,
      2
     ],
     [
      73,
      1,
      5
     ],
     [
      75,
      1,
      1
     ],
     [
      76,
      2,
      6
     ],
     [
      79,
      1,
      8
     ],
     [
      80,
      43,
      10
     ],
     [
      123,
      1,
      2
     ],
     [
      125,
      1,
      9
     ],
     [
      126,
      111,
      10
     ],
     [
      237,
      1,
      6
     ]
    ],
    "100": [
     [
      41,
      1,
      5
     ],
     [
      46,
      1,
      3
     ],
     [
      47,
      1,
      4
     ],
     [
      52,
      1,
      1
     ],
     [
      53,
      1,
      2
     ],
     [
      54,
      1,
      1
     ],
     [
      71,
      6,
      10
     ],
     [
      77,
      1,
      4
     ],
     [
      79,
      1,
      4
     ],
     [
      80,
      48,
      10
     ],
     [
      128,
      1,
      3
     ],
     [
      129,
      1,
      6
     ],
     [
      130,
      6,
      10
     ],
     [
      136,
      1,
      8
     ],
     [
      137,
      1,
      6
     ],
     [
      138,
      1,
      5
     ],
     [
      139,
      98,
      10
     ],
     [
      237,
      1,
      4
     ]
    ],
    "101": [
     [
      46,
      1,
      4
     ],
     [
      47,
      1,
      2
     ],
     [
      53,
      1,
      1
     ],
     [
      54,
      1,
      2
     ],
     [
      55,
      1,
      1
     ],
     [
      66,
      1,
      1
     ],
     [
      68,
      1,
      1
     ],
     [
      69,
      1,
      10
     ],
     [
      70,
      1,
      9
     ],
     [
      71,
      7,
      10
     ],
     [
      78,
      2,
      9
     ],
     [
      80,
      48,
      10
     ],
     [
      129,
      1,
      2
     ],
     [
      130,
      5,
      10
     ],
     [
      135,
      1,
      9
     ],
     [
      138,
      1,
      6
     ],
     [
      139,
      98,
      10
     ],
     [
      237,
      1,
      3
     ]
    ],
    "102": [
     [
      55,
      2,
      1
     ],
     [
      65,
      1,
      7
     ],
     [
      66,
      1,
      10
     ],
     [
      67,
      1,
      7
     ],
     [
      68,
      1,
      8
     ],
     [
      69,
      58,
      10
     ],
     [
      127,
      1,
      9
     ],
     [
      130,
      1,
      4
     ],
     [
      131,
      1,
      5
     ],
     [
      132,
      3,
      10
     ],
     [
      135,
      1,
      8
     ],
     [
      136,
      1,
      4
     ],
     [
      137,
      1,
      7
     ],
     [
      138,
      99,
      10
     ]
    ],
    "103": [
     [
      55,
      1,
      1
     ],
     [
      56,
      2,
      3
     ],
     [
      59,
      1,
      2
     ],
     [
      60,
      1,
      3
     ],
     [
      61,
      1,
      4
     ],
     [
      62,
      1,
      1
     ],
     [
      64,
      1,
      2
     ],
     [
      65,
      63,
      10
     ],
     [
      128,
      1,
      2
     ],
     [
      132,
      1,
      5
     ],
     [
      133,
      103,
      10
     ],
     [
      236,
      1,
      8
     ]
    ],
    "104": [
     [
      61,
      1,
      4
     ],
     [
      62,
      1,
      2
     ],
     [
      64,
      1,
      3
     ],
     [
      65,
      1,
      9
     ],
     [
      66,
      1,
      10
     ],
     [
      67,
      1,
      3
     ],
     [
      68,
      1,
      4
     ],
     [
      69,
      1,
      9
     ],
     [
      70,
      59,
      10
     ],
     [
      129,
      1,
      9
     ],
     [
      130,
      1,
      2
     ],
     [
      132,
      1,
      4
     ],
     [
      133,
      103,
      10
     ],
     [
      236,
      1,
      7
     ]
    ],
    "105": [
     [
      66,
      1,
      3
     ],
     [
      69,
      1,
      3
     ],
     [
      70,
      3,
      10
     ],
     [
      73,
      1,
      4
     ],
     [
      74,
      1,
      3
     ],
     [
      75,
      1,
      9
     ],
     [
      76,
      55,
      10
     ],
     [
      131,
      1,
      6
     ],
     [
      132,
      1,
      7
     ],
     [
      133,
      103,
      10
     ],
     [
      236,
      1,
      4
     ]
    ],
    "106": [
     [
      66,
      1,
      2
     ],
     [
      71,
      1,
      6
     ],
     [
      72,
      1,
      8
     ],
     [
      73,
      1,
      1
     ],
     [
      76,
      1,
      5
     ],
     [
      77,
      159,
      10
     ],
     [
      236,
      1,
      2
     ]
    ],
    "107": [
     [
      73,
      1,
      4
     ],
     [
      74,
      1,
      7
     ],
     [
      75,
      1,
      4
     ],
     [
      77,
      1,
      3
     ],
     [
      78,
      1,
      4
     ],
     [
      79,
      2,
      6
     ],
     [
      81,
      155,
      10
     ]
    ],
    "108": [
     [
      74,
      2,
      2
     ],
     [
      81,
      1,
      2
     ],
     [
      82,
      1,
      9
     ],
     [
      83,
      152,
      10
     ],
     [
      235,
      1,
      8
     ]
    ],
    "109": [
     [
      84,
      1,
      6
     ],
     [
      85,
      150,
      10
     ],
     [
      235,
      1,
      7
     ]
    ],
    "110": [
     [
      84,
      1,
      1
     ],
     [
      85,
      150,
      10
     ],
     [
      235,
      1,
      3
     ]
    ],
    "111": [
     [
      49,
      1,
      5
     ],
     [
      76,
      1,
      3
     ],
     [
      77,
      1,
      9
     ],
     [
      78,
      1,
      7
     ],
     [
      79,
      1,
      1
     ],
     [
      84,
      1,
      3
     ],
     [
      85,
      150,
      10
     ],
     [
      235,
      1,
      2
     ]
    ],
    "112": [
     [
      50,
      1,
      1
     ],
     [
      61,
      2,
      1
     ],
     [
      74,
      2,
      1
     ],
     [
      76,
      1,
      9
     ],
     [
      77,
      1,
      10
     ],
     [
      78,
      1,
      3
     ],
     [
      82,
      1,
      1
     ],
     [
      83,
      1,
      3
     ],
     [
      84,
      1,
      9
     ],
     [
      85,
      150,
      10
     ]
    ],
    "113": [
     [
      48,
      1,
      2
     ],
     [
      49,
      1,
      1
     ],
     [
      51,
      1,
      2
     ],
     [
      55,
      1,
      4
     ],
     [
      56,
      1,
      8
     ],
     [
      57,
      1,
      9
     ],
     [
      58,
      1,
      8
     ],
     [
      59,
      1,
      1
     ],
     [
      71,
      1,
      2
     ],
     [
      72,
      1,
      7
     ],
     [
      73,
      1,
      6
     ],
     [
      74,
      1,
      8
     ],
     [
      75,
      4,
      10
     ],
     [
      79,
      1,
      8
     ],
     [
      80,
      1,
      10
     ],
     [
      81,
      1,
      8
     ],
     [
      82,
      152,
      10
     ],
     [
      234,
      1,
      8
     ]
    ],
    "114": [
     [
      49,
      1,
      7
     ],
     [
      50,
      1,
      10
     ],
     [
      51,
      1,
      4
     ],
     [
      53,
      1,
      5
     ],
     [
      54,
      1,
      6
     ],
     [
      56,
      1,
      1
     ],
     [
      57,
      1,
      8
     ],
     [
      71,
      1,
      7
     ],
     [
      72,
      3,
      10
     ],
     [
      75,
      1,
      8
     ],
     [
      76,
      1,
      3
     ],
     [
      77,
      1,
      4
     ],
     [
      78,
      1,
      5
     ],
     [
      79,
      1,
      3
     ],
     [
      80,
      1,
      4
     ],
     [
      81,
      153,
      10
     ],
     [
      234,
      1,
      6
     ]
    ],
    "115": [
     [
      48,
      1,
      1
     ],
     [
      49,
      1,
      9
     ],
     [
      50,
      1,
      10
     ],
     [
      51,
      1,
      8
     ],
     [
      52,
      1,
      2
     ],
     [
      53,
      1,
      6
     ],
     [
      54,
      1,
      10
     ],
     [
      55,
      1,
      3
     ],
     [
      56,
      1,
      5
     ],
     [
      58,
      1,
      4
     ],
     [
      70,
      1,
      6
     ],
     [
      71,
      1,
      9
     ],
     [
      72,
      1,
      10
     ],
     [
      73,
      1,
      9
     ],
     [
      74,
      1,
      3
     ],
     [
      80,
      1,
      6
     ],
     [
      81,
      153,
      10
     ],
     [
      234,
      1,
      3
     ]
    ],
    "116": [
     [
      48,
      1,
      2
     ],
     [
      49,
      2,
      10
     ],
     [
      51,
      1,
      8
     ],
     [
      52,
      1,
      1
     ],
     [
      54,
      5,
      10
     ],
     [
      59,
      1,
      5
     ],
     [
      68,
      1,
      1
     ],
     [
      69,
      1,
      7
     ],
     [
      70,
      1,
      9
     ],
     [
      71,
      2,
      10
     ],
     [
      73,
      1,
      4
     ],
     [
      77,
      1,
      6
     ],
     [
      78,
      1,
      9
     ],
     [
      79,
      1,
      5
     ],
     [
      80,
      1,
      8
     ],
     [
      81,
      153,
      10
     ],
     [
      234,
      1,
      2
     ]
    ],
    "117": [
     [
      49,
      2,
      10
     ],
     [
      51,
      1,
      7
     ],
     [
      52,
      1,
      1
     ],
     [
      53,
      1,
      3
     ],
     [
      54,
      3,
      10
     ],
     [
      57,
      1,
      8
     ],
     [
      58,
      1,
      9
     ],
     [
      59,
      1,
      8
     ],
     [
      60,
      1,
      4
     ],
     [
      66,
      1,
      1
     ],
     [
      67,
      1,
      5
     ],
     [
      68,
      1,
      9
     ],
     [
      69,
      4,
      10
     ],
     [
      73,
      1,
      8
     ],
     [
      74,
      1,
      5
     ],
     [
      75,
      1,
      3
     ],
     [
      76,
      158,
      10
     ]
    ],
    "118": [
     [
      48,
      1,
      5
     ],
     [
      49,
      1,
      8
     ],
     [
      50,
      1,
      7
     ],
     [
      51,
      1,
      6
     ],
     [
      52,
      1,
      7
     ],
     [
      53,
      1,
      4
     ],
     [
      54,
      1,
      5
     ],
     [
      55,
      1,
      3
     ],
     [
      56,
      1,
      8
     ],
     [
      57,
      1,
      1
     ],
     [
      58,
      1,
      4
     ],
     [
      59,
      1,
      7
     ],
     [
      61,
      1,
      4
     ],
     [
      62,
      1,
      8
     ],
     [
      63,
      1,
      4
     ],
     [
      66,
      1,
      6
     ],
     [
      67,
      166,
      10
     ],
     [
      233,
      1,
      7
     ]
    ],
    "119": [
     [
      48,
      1,
      8
     ],
     [
      49,
      1,
      2
     ],
     [
      56,
      1,
      6
     ],
     [
      57,
      1,
      2
     ],
     [
      58,
      1,
      1
     ],
     [
      59,
      1,
      5
     ],
     [
      60,
      1,
      6
     ],
     [
      61,
      1,
      9
     ],
     [
      62,
      2,
      10
     ],
     [
      64,
      1,
      7
     ],
     [
      65,
      1,
      3
     ],
     [
      66,
      1,
      7
     ],
     [
      67,
      166,
      10
     ],
     [
      233,
      1,
      6
     ]
    ],
    "120": [
     [
      48,
      1,
      1
     ],
     [
      56,
      1,
      4
     ],
     [
      58,
      1,
      1
     ],
     [
      61,
      1,
      7
     ],
     [
      62,
      8,
      10
     ],
     [
      70,
      1,
      9
     ],
     [
      71,
      1,
      10
     ],
     [
      72,
      1,
      8
     ],
     [
      74,
      1,
      8
     ],
     [
      75,
      158,
      10
     ],
     [
      233,
      1,
      4
     ]
    ],
    "121": [
     [
      62,
      1,
      8
     ],
     [
      63,
      7,
      10
     ],
     [
      70,
      1,
      5
     ],
     [
      72,
      1,
      1
     ],
     [
      74,
      1,
      1
     ],
     [
      75,
      158,
      10
     ],
     [
      233,
      1,
      1
     ]
    ],
    "122": [
     [
      61,
      1,
      5
     ],
     [
      62,
      8,
      10
     ],
     [
      70,
      1,
      7
     ],
     [
      71,
      1,
      3
     ],
     [
      72,
      1,
      7
     ],
     [
      73,
      2,
      6
     ],
     [
      75,
      158,
      10
     ]
    ],
    "123": [
     [
      58,
      1,
      5
     ],
     [
      59,
      1,
      4
     ],
     [
      60,
      1,
      3
     ],
     [
      61,
      1,
      9
     ],
     [
      62,
      170,
      10
     ],
     [
      232,
      1,
      7
     ]
    ],
    "124": [
     [
      51,
      1,
      1
     ],
     [
      52,
      1,
      3
     ],
     [
      55,
      1,
      2
     ],
     [
      56,
      1,
      4
     ],
     [
      58,
      1,
      1
     ],
     [
      59,
      1,
      3
     ],
     [
      61,
      1,
      8
     ],
     [
      62,
      170,
      10
     ],
     [
      232,
      1,
      7
     ]
    ],
    "125": [
     [
      51,
      1,
      5
     ],
     [
      52,
      1,
      10
     ],
     [
      53,
      1,
      3
     ],
     [
      54,
      1,
      2
     ],
     [
      55,
      1,
      9
     ],
     [
      57,
      1,
      1
     ],
     [
      59,
      1,
      1
     ],
     [
      60,
      1,
      4
     ],
     [
      61,
      1,
      8
     ],
     [
      62,
      170,
      10
     ],
     [
      232,
      1,
      3
     ]
    ],
    "126": [
     [
      51,
      1,
      7
     ],
     [
      52,
      3,
      10
     ],
     [
      55,
      1,
      9
     ],
     [
      56,
      1,
      2
     ],
     [
      58,
      1,
      7
     ],
     [
      59,
      1,
      8
     ],
     [
      61,
      1,
      5
     ],
     [
      62,
      170,
      10
     ],
     [
      232,
      1,
      1
     ]
    ],
    "127": [
     [
      46,
      1,
      3
     ],
     [
      47,
      1,
      4
     ],
     [
      49,
      1,
      2
     ],
     [
      50,
      1,
      8
     ],
     [
      51,
      1,
      9
     ],
     [
      52,
      1,
      1
     ],
     [
      53,
      1,
      5
     ],
     [
      54,
      3,
      10
     ],
     [
      57,
      1,
      7
     ],
     [
      58,
      1,
      10
     ],
     [
      59,
      1,
      9
     ],
     [
      60,
      1,
      4
     ],
     [
      61,
      1,
      5
     ],
     [
      62,
      170,
      10
     ]
    ],
    "128": [
     [
      46,
      1,
      7
     ],
     [
      47,
      1,
      9
     ],
     [
      48,
      1,
      7
     ],
     [
      49,
      1,
      9
     ],
     [
      50,
      1,
      10
     ],
     [
      51,
      2,
      2
     ],
     [
      53,
      1,
      9
     ],
     [
      54,
      177,
      10
     ],
     [
      231,
      1,
      7
     ]
    ],
    "129": [
     [
      46,
      1,
      5
     ],
     [
      47,
      5,
      10
     ],
     [
      52,
      1,
      9
     ],
     [
      53,
      178,
      10
     ],
     [
      231,
      1,
      4
     ]
    ],
    "130": [
     [
      40,
      1,
      2
     ],
     [
      46,
      1,
      1
     ],
     [
      47,
      184,
      10
     ],
     [
      231,
      1,
      3
     ]
    ],
    "131": [
     [
      47,
      1,
      9
     ],
     [
      48,
      183,
      10
     ],
     [
      231,
      1,
      1
     ]
    ],
    "132": [
     [
      42,
      1,
      2
     ],
     [
      48,
      1,
      6
     ],
     [
      49,
      1,
      9
     ],
     [
      50,
      1,
      7
     ],
     [
      51,
      180,
      10
     ]
    ],
    "133": [
     [
      43,
      1,
      2
     ],
     [
      47,
      1,
      5
     ],
     [
      48,
      1,
      9
     ],
     [
      49,
      1,
      5
     ],
     [
      51,
      1,
      6
     ],
     [
      52,
      178,
      10
     ],
     [
      230,
      1,
      6
     ]
    ],
    "134": [
     [
      45,
      1,
      2
     ],
     [
      46,
      1,
      1
     ],
     [
      47,
      3,
      10
     ],
     [
      50,
      1,
      4
     ],
     [
      51,
      1,
      8
     ],
     [
      52,
      178,
      10
     ],
     [
      230,
      1,
      5
     ]
    ],
    "135": [
     [
      43,
      1,
      4
     ],
     [
      44,
      1,
      5
     ],
     [
      45,
      1,
      7
     ],
     [
      46,
      1,
      1
     ],
     [
      47,
      1,
      9
     ],
     [
      48,
      182,
      10
     ],
     [
      230,
      1,
      3
     ]
    ],
    "136": [
     [
      43,
      1,
      5
     ],
     [
      44,
      1,
      10
     ],
     [
      45,
      1,
      5
     ],
     [
      47,
      1,
      5
     ],
     [
      48,
      182,
      10
     ]
    ],
    "137": [
     [
      44,
      1,
      2
     ],
     [
      45,
      1,
      6
     ],
     [
      47,
      1,
      1
     ],
     [
      48,
      181,
      10
     ],
     [
      229,
      1,
      9
     ]
    ],
    "138": [
     [
      48,
      1,
      8
     ],
     [
      49,
      180,
      10
     ],
     [
      229,
      1,
      7
     ]
    ],
    "139": [
     [
      45,
      1,
      2
     ],
     [
      46,
      1,
      1
     ],
     [
      47,
      1,
      4
     ],
     [
      48,
      1,
      8
     ],
     [
      49,
      180,
      10
     ],
     [
      229,
      1,
      5
     ]
    ],
    "140": [
     [
      38,
      1,
      1
     ],
     [
      41,
      1,
      7
     ],
     [
      44,
      1,
      1
     ],
     [
      45,
      1,
      6
     ],
     [
      46,
      1,
      5
     ],
     [
      49,
      1,
      3
     ],
     [
      50,
      179,
      10
     ],
     [
      229,
      1,
      3
     ]
    ],
    "141": [
     [
      40,
      1,
      4
     ],
     [
      41,
      1,
      10
     ],
     [
      42,
      1,
      4
     ],
     [
      43,
      1,
      1
     ],
     [
      44,
      1,
      7
     ],
     [
      45,
      2,
      10
     ],
     [
      47,
      1,
      8
     ],
     [
      48,
      1,
      1
     ],
     [
      50,
      4,
      10
     ],
     [
      55,
      1,
      5
     ],
     [
      56,
      173,
      10
     ]
    ],
    "142": [
     [
      40,
      1,
      3
     ],
     [
      41,
      1,
      7
     ],
     [
      42,
      5,
      10
     ],
     [
      47,
      1,
      6
     ],
     [
      49,
      1,
      3
     ],
     [
      50,
      4,
      10
     ],
     [
      54,
      1,
      2
     ],
     [
      55,
      1,
      4
     ],
     [
      56,
      172,
      10
     ],
     [
      228,
      1,
      9
     ]
    ],
    "143": [
     [
      43,
      1,
      1
     ],
     [
      44,
      1,
      10
     ],
     [
      45,
      1,
      8
     ],
     [
      46,
      1,
      2
     ],
     [
      49,
      1,
      3
     ],
     [
      50,
      1,
      8
     ],
     [
      51,
      3,
      10
     ],
     [
      54,
      1,
      8
     ],
     [
      55,
      1,
      9
     ],
     [
      56,
      172,
      10
     ],
     [
      228,
      1,
      7
     ]
    ],
    "144": [
     [
      42,
      1,
      1
     ],
     [
      43,
      1,
      5
     ],
     [
      44,
      1,
      10
     ],
     [
      45,
      1,
      4
     ],
     [
      53,
      1,
      2
     ],
     [
      54,
      1,
      8
     ],
     [
      55,
      173,
      10
     ],
     [
      228,
      1,
      3
     ]
    ],
    "145": [
     [
      43,
      1,
      7
     ],
     [
      44,
      1,
      10
     ],
     [
      45,
      1,
      7
     ],
     [
      47,
      1,
      2
     ],
     [
      48,
      1,
      3
     ],
     [
      54,
      1,
      3
     ],
     [
      55,
      173,
      10
     ],
     [
      228,
      1,
      3
     ]
    ],
    "146": [
     [
      43,
      1,
      8
     ],
     [
      44,
      1,
      9
     ],
     [
      45,
      1,
      1
     ],
     [
      47,
      1,
      8
     ],
     [
      48,
      1,
      4
     ],
     [
      53,
      1,
      1
     ],
     [
      54,
      1,
      9
     ],
     [
      55,
      173,
      10
     ]
    ],
    "147": [
     [
      35,
      1,
      1
     ],
     [
      42,
      1,
      2
     ],
     [
      43,
      1,
      10
     ],
     [
      44,
      1,
      3
     ],
     [
      46,
      1,
      1
     ],
     [
      47,
      1,
      10
     ],
     [
      52,
      1,
      2
     ],
     [
      53,
      1,
      7
     ],
     [
      54,
      173,
      10
     ],
     [
      227,
      1,
      9
     ]
    ],
    "148": [
     [
      42,
      1,
      6
     ],
     [
      43,
      1,
      10
     ],
     [
      44,
      1,
      4
     ],
     [
      46,
      1,
      6
     ],
     [
      47,
      1,
      9
     ],
     [
      52,
      1,
      6
     ],
     [
      53,
      174,
      10
     ],
     [
      227,
      1,
      6
     ]
    ],
    "149": [
     [
      41,
      1,
      4
     ],
     [
      44,
      1,
      2
     ],
     [
      45,
      1,
      3
     ],
     [
      46,
      1,
      1
     ],
     [
      47,
      1,
      6
     ],
     [
      52,
      1,
      7
     ],
     [
      53,
      174,
      10
     ],
     [
      227,
      1,
      4
     ]
    ],
    "150": [
     [
      39,
      1,
      2
     ],
     [
      40,
      1,
      5
     ],
     [
      41,
      1,
      4
     ],
     [
      44,
      1,
      1
     ],
     [
      47,
      1,
      3
     ],
     [
      48,
      1,
      1
     ],
     [
      50,
      1,
      3
     ],
     [
      51,
      1,
      8
     ],
     [
      52,
      175,
      10
     ],
     [
      227,
      1,
      3
     ]
    ],
    "151": [
     [
      39,
      1,
      1
     ],
     [
      40,
      1,
      2
     ],
     [
      45,
      1,
      2
     ],
     [
      50,
      1,
      7
     ],
     [
      51,
      176,
      10
     ]
    ],
    "152": [
     [
      44,
      1,
      3
     ],
     [
      47,
      2,
      6
     ],
     [
      49,
      1,
      4
     ],
     [
      50,
      1,
      9
     ],
     [
      51,
      175,
      10
     ],
     [
      226,
      1,
      8
     ]
    ],
    "153": [
     [
      43,
      1,
      3
     ],
     [
      44,
      1,
      9
     ],
     [
      45,
      1,
      3
     ],
     [
      46,
      1,
      1
     ],
     [
      47,
      179,
      10
     ],
     [
      226,
      1,
      7
     ]
    ],
    "154": [
     [
      43,
      1,
      1
     ],
     [
      44,
      1,
      7
     ],
     [
      45,
      181,
      10
     ],
     [
      226,
      1,
      4
     ]
    ],
    "155": [
     [
      39,
      1,
      10
     ],
     [
      42,
      1,
      1
     ],
     [
      43,
      1,
      3
     ],
     [
      44,
      1,
      8
     ],
     [
      45,
      181,
      10
     ],
     [
      226,
      1,
      3
     ]
    ],
    "156": [
     [
      38,
      1,
      2
     ],
     [
      39,
      1,
      3
     ],
     [
      43,
      1,
      2
     ],
     [
      44,
      182,
      10
     ]
    ],
    "157": [
     [
      38,
      1,
      3
     ],
     [
      42,
      1,
      3
     ],
     [
      43,
      1,
      5
     ],
     [
      44,
      181,
      10
     ],
     [
      225,
      1,
      9
     ]
    ],
    "158": [
     [
      36,
      1,
      2
     ],
     [
      37,
      1,
      6
     ],
     [
      42,
      1,
      7
     ],
     [
      43,
      182,
      10
     ],
     [
      225,
      1,
      7
     ]
    ],
    "159": [
     [
      36,
      2,
      2
     ],
     [
      42,
      183,
      10
     ],
     [
      225,
      1,
      4
     ]
    ],
    "160": [
     [
      40,
      1,
      3
     ],
     [
      41,
      1,
      10
     ],
     [
      42,
      1,
      1
     ],
     [
      44,
      1,
      7
     ],
     [
      45,
      180,
      10
     ],
     [
      225,
      1,
      3
     ]
    ],
    "161": [
     [
      40,
      1,
      5
     ],
     [
      41,
      1,
      10
     ],
     [
      43,
      1,
      1
     ],
     [
      44,
      1,
      9
     ],
     [
      45,
      1,
      8
     ],
     [
      46,
      179,
      10
     ]
    ],
    "162": [
     [
      40,
      2,
      5
     ],
     [
      43,
      1,
      3
     ],
     [
      44,
      1,
      9
     ],
     [
      46,
      1,
      3
     ],
     [
      47,
      177,
      10
     ],
     [
      224,
      1,
      9
     ]
    ],
    "163": [
     [
      47,
      177,
      10
     ],
     [
      224,
      1,
      6
     ]
    ],
    "164": [
     [
      42,
      1,
      2
     ],
     [
      46,
      1,
      2
     ],
     [
      47,
      177,
      10
     ],
     [
      224,
      1,
      4
     ]
    ],
    "165": [
     [
      48,
      1,
      5
     ],
     [
      49,
      1,
      3
     ],
     [
      50,
      1,
      7
     ],
     [
      51,
      173,
      10
     ],
     [
      224,
      1,
      2
     ]
    ],
    "166": [
     [
      52,
      172,
      10
     ]
    ],
    "167": [
     [
      47,
      1,
      2
     ],
     [
      51,
      1,
      3
     ],
     [
      52,
      171,
      10
     ],
     [
      223,
      1,
      8
     ]
    ],
    "168": [
     [
      51,
      1,
      7
     ],
     [
      52,
      171,
      10
     ],
     [
      223,
      1,
      7
     ]
    ],
    "169": [
     [
      51,
      1,
      5
     ],
     [
      52,
      1,
      8
     ],
     [
      53,
      2,
      10
     ],
     [
      55,
      1,
      9
     ],
     [
      56,
      167,
      10
     ],
     [
      223,
      1,
      4
     ]
    ],
    "170": [
     [
      52,
      1,
      1
     ],
     [
      53,
      1,
      7
     ],
     [
      54,
      1,
      2
     ],
     [
      57,
      166,
      10
     ],
     [
      223,
      1,
      2
     ]
    ],
    "171": [
     [
      53,
      1,
      4
     ],
     [
      56,
      1,
      3
     ],
     [
      57,
      166,
      10
     ]
    ],
    "172": [
     [
      57,
      165,
      10
     ],
     [
      222,
      1,
      8
     ]
    ],
    "173": [
     [
      64,
      158,
      10
     ],
     [
      222,
      1,
      6
     ]
    ],
    "174": [
     [
      71,
      151,
      10
     ],
     [
      222,
      1,
      3
     ]
    ],
    "175": [
     [
      78,
      144,
      10
     ],
     [
      222,
      1,
      2
     ]
    ],
    "176": [
     [
      85,
      137,
      10
     ]
    ],
    "177": [
     [
      92,
      129,
      10
     ],
     [
      221,
      1,
      7
     ]
    ],
    "178": [
     [
      99,
      122,
      10
     ],
     [
      221,
      1,
      6
     ]
    ],
    "179": [
     [
      106,
      115,
      10
     ],
     [
      221,
      1,
      4
     ]
    ],
    "180": [
     [
      113,
      108,
      10
     ],
     [
      221,
      1,
      1
     ]
    ],
    "181": [
     [
      120,
      101,
      10
     ]
    ],
    "182": [
     [
      128,
      92,
      10
     ],
     [
      220,
      1,
      7
     ]
    ],
    "183": [
     [
      135,
      85,
      10
     ],
     [
      220,
      1,
      7
     ]
    ],
    "184": [
     [
      142,
      78,
      10
     ],
     [
      220,
      1,
      3
     ]
    ],
    "185": [
     [
      150,
      70,
      10
     ],
     [
      220,
      1,
      1
     ]
    ],
    "186": [
     [
      157,
      63,
      10
     ]
    ],
    "187": [
     [
      165,
      54,
      10
     ],
     [
      219,
      1,
      7
     ]
    ],
    "188": [
     [
      172,
      47,
      10
     ],
     [
      219,
      1,
      5
     ]
    ],
    "189": [
     [
      179,
      40,
      10
     ],
     [
      219,
      1,
      3
     ]
    ],
    "190": [
     [
      187,
      32,
      10
     ],
     [
      219,
      1,
      1
     ]
    ],
    "191": [
     [
      194,
      25,
      10
     ]
    ],
    "192": [
     [
      202,
      16,
      10
     ],
     [
      218,
      1,
      7
     ]
    ],
    "193": [
     [
      210,
      8,
      10
     ],
     [
      218,
      1,
      5
     ]
    ],
    "194": [
     [
      217,
      1,
      10
     ],
     [
      218,
      1,
      3
     ]
    ]
   }
  },
  "clutter_headroom": 31.9,
  "clutter_at_floor": 0.543,
  "clutter_verdict": "vessels present",
  "detection_rate": 1.0,
  "n_detections": 6,
  "n_reports": 3,
  "n_reports_with_fix": 3,
  "n_matched": 3,
  "n_reports_unsearched": 8,
  "n_reports_marginal": 0,
  "unsearched_by_length": {
   "<25 m": 4,
   "25-50 m": 2,
   "50-100 m": 0,
   "100-200 m": 1,
   ">200 m": 1,
   "unknown": 0
  },
  "k_sigma_match": 3.0,
  "gate_min_snr": 15.0,
  "gate_min_pixels": 6,
  "n_detections_before_gate": 549,
  "ais_window_s": 1800.0,
  "calibration": {
   "detectable_length_m": 25.0,
   "max_chance_match": 0.05,
   "density_per_km2": 0.00026,
   "max_scorable_radius_m": 7915,
   "n_unscorable": 0,
   "n_unscorable_matched": 0,
   "expected_chance_matches": 0.0,
   "strata": {
    ">=25 m": {
     "found": 3,
     "scored": 3,
     "rate": 1.0,
     "ci95": [
      0.4385,
      1.0
     ]
    },
    "<25 m": {
     "found": 0,
     "scored": 0,
     "rate": null,
     "ci95": [
      null,
      null
     ]
    },
    "unknown length": {
     "found": 0,
     "scored": 0,
     "rate": null,
     "ci95": [
      null,
      null
     ]
    },
    "all scored": {
     "found": 3,
     "scored": 3,
     "rate": 1.0,
     "ci95": [
      0.4385,
      1.0
     ]
    }
   },
   "curve_edges_m": [
    0.0,
    15.0,
    25.0,
    50.0,
    100.0
   ],
   "curve": {
    "0-15 m": {
     "found": 0,
     "scored": 0,
     "rate": null,
     "ci95": [
      null,
      null
     ]
    },
    "15-25 m": {
     "found": 0,
     "scored": 0,
     "rate": null,
     "ci95": [
      null,
      null
     ]
    },
    "25-50 m": {
     "found": 1,
     "scored": 1,
     "rate": 1.0,
     "ci95": [
      0.2065,
      1.0
     ]
    },
    "50-100 m": {
     "found": 0,
     "scored": 0,
     "rate": null,
     "ci95": [
      null,
      null
     ]
    },
    ">100 m": {
     "found": 2,
     "scored": 2,
     "rate": 1.0,
     "ci95": [
      0.3424,
      1.0
     ]
    },
    "unknown": {
     "found": 0,
     "scored": 0,
     "rate": null,
     "ci95": [
      null,
      null
     ]
    }
   }
  }
 },
 "features": [
  {
   "type": "Feature",
   "geometry": {
    "type": "Point",
    "coordinates": [
     -74.02658457717084,
     36.011918948653125
    ]
   },
   "properties": {
    "kind": "unmatched",
    "domain": "sea",
    "t_start": "2024-06-21T22:58:13+00:00",
    "t_end": "2024-06-21T22:58:13+00:00",
    "duration_s": 0.0,
    "confidence": 0.95,
    "platform_ids": [],
    "evidence": {
     "sensor": "sentinel1-vv-cfar",
     "detector_confidence": 0.95,
     "detection_rate_this_pass": 1.0,
     "reports_considered": 3,
     "reports_with_a_fix": 3,
     "search_radius_m": 155.5,
     "snr": 25.51,
     "length_m_approx": 64.0,
     "pixels": 41,
     "scene": "S1A_IW_GRDH_1SDV_20240621T225813_20240621T225842_054428_069F67_E12F_COG.SAFE"
    }
   }
  },
  {
   "type": "Feature",
   "geometry": {
    "type": "Point",
    "coordinates": [
     -74.026743894499,
     36.01261901624565
    ]
   },
   "properties": {
    "kind": "unmatched",
    "domain": "sea",
    "t_start": "2024-06-21T22:58:13+00:00",
    "t_end": "2024-06-21T22:58:13+00:00",
    "duration_s": 0.0,
    "confidence": 0.799,
    "platform_ids": [],
    "evidence": {
     "sensor": "sentinel1-vv-cfar",
     "detector_confidence": 0.799,
     "detection_rate_this_pass": 1.0,
     "reports_considered": 3,
     "reports_with_a_fix": 3,
     "search_radius_m": 109.8,
     "snr": 15.99,
     "length_m_approx": 37.4,
     "pixels": 14,
     "scene": "S1A_IW_GRDH_1SDV_20240621T225813_20240621T225842_054428_069F67_E12F_COG.SAFE"
    }
   }
  },
  {
   "type": "Feature",
   "geometry": {
    "type": "Point",
    "coordinates": [
     -75.15997117850101,
     36.37033202337557
    ]
   },
   "properties": {
    "kind": "unmatched",
    "domain": "sea",
    "t_start": "2024-06-21T22:58:13+00:00",
    "t_end": "2024-06-21T22:58:13+00:00",
    "duration_s": 0.0,
    "confidence": 0.95,
    "platform_ids": [],
    "evidence": {
     "sensor": "sentinel1-vv-cfar",
     "detector_confidence": 0.95,
     "detection_rate_this_pass": 1.0,
     "reports_considered": 3,
     "reports_with_a_fix": 3,
     "search_radius_m": 133.7,
     "snr": 21.48,
     "length_m_approx": 52.0,
     "pixels": 27,
     "scene": "S1A_IW_GRDH_1SDV_20240621T225813_20240621T225842_054428_069F67_E12F_COG.SAFE"
    }
   }
  }
 ]
}