{
 "type": "FeatureCollection",
 "properties": {
  "scene": "S1A_IW_GRDH_1SDV_20240715T225812_20240715T225841_054778_06AB8D_C664_COG.SAFE",
  "acquired": "2024-07-15T22:58:12+00:00",
  "geolocation_rms_m": 2.6,
  "geolocation_holdout_m": 8.2,
  "geolocation_median_m": 9.4,
  "geolocation_p90_m": 9.7,
  "geolocation_worst_m": 14.8,
  "geolocation_uneven": false,
  "geolocation_convergence": 3.56,
  "geolocation_method": "geolocation grid (bilinear)",
  "geolocation_validation": "holdout at 2x spacing",
  "tiles": 130,
  "tiles_skipped": 0,
  "k_sigma": 6.0,
  "land_masked": true,
  "water_fraction": 0.777,
  "land_sea_contrast": 2.1,
  "coast_blind_m": 605.0,
  "searched_km2": 36621.6,
  "refused_km2": 0.0,
  "tiles_without_water": 11,
  "outside_aoi": 80,
  "aoi_sea": [
   -77.2,
   36.0,
   -71.0,
   39.6
  ],
  "footprint": [
   [
    -75.80793,
    34.68062
   ],
   [
    -75.57906,
    34.71657
   ],
   [
    -75.35,
    34.7521
   ],
   [
    -75.12076,
    34.78722
   ],
   [
    -74.8913,
    34.82188
   ],
   [
    -74.66166,
    34.85612
   ],
   [
    -74.43184,
    34.88994
   ],
   [
    -74.20182,
    34.9233
   ],
   [
    -73.97162,
    34.95624
   ],
   [
    -73.74125,
    34.98876
   ],
   [
    -73.51068,
    35.0208
   ],
   [
    -73.27994,
    35.05243
   ],
   [
    -73.04903,
    35.08364
   ],
   [
    -73.07838,
    35.22914
   ],
   [
    -73.10775,
    35.37464
   ],
   [
    -73.13715,
    35.52014
   ],
   [
    -73.16657,
    35.66563
   ],
   [
    -73.19603,
    35.81111
   ],
   [
    -73.22551,
    35.95659
   ],
   [
    -73.25502,
    36.10206
   ],
   [
    -73.28456,
    36.24753
   ],
   [
    -73.31412,
    36.39299
   ],
   [
    -73.34372,
    36.53845
   ],
   [
    -73.37334,
    36.6839
   ],
   [
    -73.40299,
    36.82935
   ],
   [
    -73.6391,
    36.79848
   ],
   [
    -73.87503,
    36.76716
   ],
   [
    -74.11078,
    36.73539
   ],
   [
    -74.34631,
    36.70313
   ],
   [
    -74.58166,
    36.67041
   ],
   [
    -74.81681,
    36.63725
   ],
   [
    -75.05174,
    36.60359
   ],
   [
    -75.28648,
    36.56949
   ],
   [
    -75.52101,
    36.53494
   ],
   [
    -75.75532,
    36.4999
   ],
   [
    -75.98942,
    36.46442
   ],
   [
    -76.22328,
    36.42851
   ],
   [
    -76.18831,
    36.28289
   ],
   [
    -76.15345,
    36.13726
   ],
   [
    -76.11861,
    35.99163
   ],
   [
    -76.08384,
    35.84599
   ],
   [
    -76.04912,
    35.70035
   ],
   [
    -76.01446,
    35.5547
   ],
   [
    -75.9799,
    35.40903
   ],
   [
    -75.94539,
    35.26336
   ],
   [
    -75.91094,
    35.11769
   ],
   [
    -75.87655,
    34.97201
   ],
   [
    -75.84221,
    34.82632
   ]
  ],
  "searched_grid": {
   "cell_deg": 0.01,
   "lon0": -76.23,
   "lat0": 34.74,
   "levels": 10,
   "rows": {
    "5": [
     [
      111,
      1,
      1
     ],
     [
      115,
      1,
      1
     ],
     [
      116,
      2,
      4
     ]
    ],
    "6": [
     [
      116,
      1,
      6
     ],
     [
      117,
      1,
      1
     ],
     [
      118,
      2,
      8
     ],
     [
      120,
      2,
      7
     ],
     [
      122,
      2,
      5
     ]
    ],
    "7": [
     [
      118,
      1,
      2
     ],
     [
      119,
      1,
      10
     ],
     [
      120,
      1,
      8
     ],
     [
      121,
      3,
      10
     ],
     [
      124,
      1,
      3
     ],
     [
      125,
      1,
      6
     ],
     [
      126,
      1,
      7
     ],
     [
      127,
      2,
      6
     ]
    ],
    "8": [
     [
      121,
      1,
      3
     ],
     [
      122,
      1,
      10
     ],
     [
      123,
      1,
      8
     ],
     [
      124,
      2,
      1
     ],
     [
      126,
      1,
      8
     ],
     [
      127,
      1,
      10
     ],
     [
      128,
      1,
      6
     ],
     [
      131,
      2,
      9
     ],
     [
      133,
      1,
      7
     ],
     [
      134,
      1,
      2
     ]
    ],
    "9": [
     [
      120,
      1,
      2
     ],
     [
      121,
      1,
      6
     ],
     [
      122,
      2,
      10
     ],
     [
      124,
      1,
      8
     ],
     [
      125,
      1,
      3
     ],
     [
      126,
      2,
      7
     ],
     [
      128,
      1,
      5
     ],
     [
      131,
      1,
      5
     ],
     [
      132,
      2,
      10
     ],
     [
      134,
      1,
      2
     ]
    ],
    "10": [
     [
      120,
      1,
      5
     ],
     [
      121,
      1,
      6
     ],
     [
      122,
      4,
      10
     ],
     [
      126,
      1,
      2
     ],
     [
      128,
      1,
      4
     ],
     [
      129,
      1,
      3
     ],
     [
      130,
      1,
      2
     ],
     [
      131,
      1,
      6
     ],
     [
      132,
      2,
      10
     ]
    ],
    "11": [
     [
      119,
      1,
      3
     ],
     [
      120,
      6,
      10
     ],
     [
      126,
      2,
      1
     ],
     [
      128,
      1,
      9
     ],
     [
      129,
      4,
      10
     ],
     [
      133,
      1,
      7
     ]
    ],
    "12": [
     [
      119,
      1,
      3
     ],
     [
      121,
      1,
      7
     ],
     [
      122,
      4,
      10
     ],
     [
      126,
      1,
      4
     ],
     [
      128,
      1,
      9
     ],
     [
      129,
      3,
      10
     ],
     [
      132,
      1,
      8
     ],
     [
      133,
      1,
      3
     ]
    ],
    "13": [
     [
      109,
      1,
      1
     ],
     [
      122,
      1,
      9
     ],
     [
      123,
      3,
      10
     ],
     [
      126,
      1,
      8
     ],
     [
      127,
      1,
      3
     ],
     [
      128,
      4,
      10
     ],
     [
      132,
      1,
      2
     ]
    ],
    "14": [
     [
      108,
      1,
      1
     ],
     [
      115,
      1,
      2
     ],
     [
      118,
      1,
      4
     ],
     [
      119,
      1,
      10
     ],
     [
      120,
      1,
      7
     ],
     [
      122,
      1,
      8
     ],
     [
      123,
      8,
      10
     ],
     [
      131,
      1,
      7
     ]
    ],
    "15": [
     [
      107,
      1,
      2
     ],
     [
      111,
      1,
      3
     ],
     [
      112,
      1,
      1
     ],
     [
      114,
      1,
      2
     ],
     [
      115,
      1,
      10
     ],
     [
      116,
      2,
      2
     ],
     [
      118,
      2,
      10
     ],
     [
      120,
      1,
      7
     ],
     [
      122,
      1,
      5
     ],
     [
      123,
      8,
      10
     ],
     [
      131,
      1,
      1
     ],
     [
      133,
      1,
      3
     ],
     [
      135,
      1,
      5
     ],
     [
      136,
      2,
      7
     ],
     [
      138,
      1,
      4
     ],
     [
      139,
      1,
      2
     ],
     [
      140,
      1,
      1
     ]
    ],
    "16": [
     [
      107,
      1,
      1
     ],
     [
      112,
      1,
      3
     ],
     [
      113,
      1,
      1
     ],
     [
      114,
      1,
      4
     ],
     [
      115,
      5,
      10
     ],
     [
      120,
      1,
      8
     ],
     [
      121,
      1,
      2
     ],
     [
      122,
      1,
      8
     ],
     [
      123,
      8,
      10
     ],
     [
      131,
      1,
      4
     ],
     [
      133,
      9,
      10
     ],
     [
      142,
      1,
      8
     ],
     [
      143,
      1,
      7
     ],
     [
      144,
      1,
      5
     ],
     [
      145,
      1,
      4
     ],
     [
      146,
      1,
      3
     ]
    ],
    "17": [
     [
      111,
      1,
      7
     ],
     [
      113,
      1,
      4
     ],
     [
      115,
      1,
      1
     ],
     [
      116,
      1,
      6
     ],
     [
      117,
      14,
      10
     ],
     [
      133,
      1,
      5
     ],
     [
      134,
      15,
      10
     ],
     [
      149,
      2,
      7
     ],
     [
      151,
      1,
      5
     ],
     [
      152,
      1,
      3
     ],
     [
      153,
      1,
      2
     ]
    ],
    "18": [
     [
      108,
      1,
      1
     ],
     [
      111,
      1,
      5
     ],
     [
      112,
      1,
      3
     ],
     [
      113,
      1,
      1
     ],
     [
      114,
      1,
      5
     ],
     [
      116,
      1,
      5
     ],
     [
      117,
      13,
      10
     ],
     [
      130,
      1,
      9
     ],
     [
      131,
      1,
      1
     ],
     [
      133,
      1,
      8
     ],
     [
      134,
      21,
      10
     ],
     [
      155,
      1,
      9
     ],
     [
      156,
      1,
      7
     ],
     [
      157,
      1,
      8
     ],
     [
      158,
      1,
      4
     ],
     [
      159,
      2,
      2
     ]
    ],
    "19": [
     [
      107,
      1,
      4
     ],
     [
      108,
      1,
      3
     ],
     [
      112,
      1,
      7
     ],
     [
      113,
      1,
      2
     ],
     [
      115,
      1,
      6
     ],
     [
      116,
      1,
      9
     ],
     [
      117,
      14,
      10
     ],
     [
      131,
      1,
      8
     ],
     [
      132,
      1,
      5
     ],
     [
      133,
      29,
      10
     ],
     [
      162,
      1,
      9
     ],
     [
      163,
      1,
      7
     ],
     [
      164,
      1,
      5
     ],
     [
      165,
      1,
      4
     ],
     [
      166,
      1,
      3
     ],
     [
      167,
      1,
      1
     ]
    ],
    "20": [
     [
      107,
      1,
      4
     ],
     [
      108,
      1,
      10
     ],
     [
      109,
      1,
      8
     ],
     [
      110,
      1,
      10
     ],
     [
      111,
      1,
      9
     ],
     [
      112,
      1,
      10
     ],
     [
      113,
      1,
      5
     ],
     [
      115,
      1,
      3
     ],
     [
      116,
      53,
      10
     ],
     [
      169,
      1,
      8
     ],
     [
      170,
      1,
      7
     ],
     [
      171,
      1,
      5
     ],
     [
      172,
      1,
      4
     ],
     [
      173,
      1,
      3
     ]
    ],
    "21": [
     [
      105,
      1,
      2
     ],
     [
      106,
      1,
      4
     ],
     [
      107,
      1,
      6
     ],
     [
      108,
      5,
      10
     ],
     [
      113,
      1,
      9
     ],
     [
      114,
      2,
      5
     ],
     [
      116,
      60,
      10
     ],
     [
      176,
      2,
      8
     ],
     [
      178,
      1,
      5
     ],
     [
      179,
      1,
      2
     ],
     [
      180,
      1,
      3
     ]
    ],
    "22": [
     [
      102,
      1,
      1
     ],
     [
      103,
      1,
      4
     ],
     [
      104,
      1,
      3
     ],
     [
      105,
      1,
      8
     ],
     [
      106,
      35,
      10
     ],
     [
      141,
      1,
      9
     ],
     [
      142,
      1,
      7
     ],
     [
      143,
      1,
      9
     ],
     [
      144,
      39,
      10
     ],
     [
      183,
      2,
      7
     ],
     [
      185,
      1,
      5
     ],
     [
      186,
      1,
      3
     ],
     [
      187,
      1,
      2
     ]
    ],
    "23": [
     [
      103,
      1,
      8
     ],
     [
      104,
      37,
      10
     ],
     [
      141,
      1,
      3
     ],
     [
      143,
      1,
      9
     ],
     [
      144,
      46,
      10
     ],
     [
      190,
      1,
      7
     ],
     [
      191,
      1,
      6
     ],
     [
      192,
      1,
      5
     ],
     [
      193,
      1,
      3
     ],
     [
      194,
      1,
      2
     ]
    ],
    "24": [
     [
      103,
      38,
      10
     ],
     [
      141,
      1,
      8
     ],
     [
      142,
      1,
      2
     ],
     [
      143,
      53,
      10
     ],
     [
      196,
      1,
      9
     ],
     [
      197,
      1,
      8
     ],
     [
      198,
      1,
      7
     ],
     [
      199,
      2,
      3
     ],
     [
      201,
      1,
      2
     ]
    ],
    "25": [
     [
      102,
      1,
      2
     ],
     [
      103,
      100,
      10
     ],
     [
      203,
      1,
      9
     ],
     [
      204,
      2,
      7
     ],
     [
      206,
      1,
      5
     ],
     [
      207,
      1,
      4
     ],
     [
      208,
      1,
      1
     ]
    ],
    "26": [
     [
      103,
      1,
      7
     ],
     [
      104,
      1,
      3
     ],
     [
      105,
      1,
      8
     ],
     [
      106,
      104,
      10
     ],
     [
      210,
      1,
      9
     ],
     [
      211,
      1,
      7
     ],
     [
      212,
      1,
      6
     ],
     [
      213,
      1,
      5
     ],
     [
      214,
      1,
      4
     ],
     [
      215,
      1,
      2
     ]
    ],
    "27": [
     [
      103,
      1,
      1
     ],
     [
      105,
      1,
      8
     ],
     [
      106,
      111,
      10
     ],
     [
      217,
      1,
      9
     ],
     [
      218,
      1,
      7
     ],
     [
      219,
      1,
      6
     ],
     [
      220,
      1,
      5
     ],
     [
      221,
      1,
      3
     ],
     [
      222,
      1,
      2
     ]
    ],
    "28": [
     [
      105,
      1,
      7
     ],
     [
      106,
      118,
      10
     ],
     [
      224,
      1,
      9
     ],
     [
      225,
      1,
      7
     ],
     [
      226,
      1,
      8
     ],
     [
      227,
      1,
      3
     ]
    ],
    "29": [
     [
      105,
      1,
      4
     ],
     [
      106,
      1,
      9
     ],
     [
      107,
      120,
      10
     ],
     [
      227,
      1,
      6
     ]
    ],
    "30": [
     [
      106,
      1,
      5
     ],
     [
      107,
      120,
      10
     ],
     [
      227,
      1,
      4
     ]
    ],
    "31": [
     [
      105,
      1,
      4
     ],
     [
      106,
      1,
      9
     ],
     [
      107,
      120,
      10
     ],
     [
      227,
      1,
      3
     ]
    ],
    "32": [
     [
      105,
      1,
      9
     ],
     [
      106,
      121,
      10
     ]
    ],
    "33": [
     [
      105,
      1,
      7
     ],
     [
      106,
      120,
      10
     ],
     [
      226,
      1,
      8
     ]
    ],
    "34": [
     [
      105,
      1,
      2
     ],
     [
      106,
      120,
      10
     ],
     [
      226,
      1,
      9
     ],
     [
      227,
      1,
      5
     ],
     [
      228,
      2,
      3
     ]
    ],
    "35": [
     [
      104,
      1,
      8
     ],
     [
      105,
      1,
      6
     ],
     [
      106,
      1,
      8
     ],
     [
      107,
      1,
      7
     ],
     [
      108,
      1,
      5
     ],
     [
      109,
      1,
      2
     ],
     [
      110,
      1,
      6
     ],
     [
      111,
      121,
      10
     ],
     [
      232,
      1,
      8
     ],
     [
      233,
      1,
      7
     ],
     [
      234,
      1,
      5
     ],
     [
      235,
      1,
      4
     ],
     [
      236,
      1,
      3
     ],
     [
      237,
      1,
      1
     ]
    ],
    "36": [
     [
      104,
      1,
      7
     ],
     [
      105,
      1,
      10
     ],
     [
      110,
      1,
      4
     ],
     [
      111,
      128,
      10
     ],
     [
      239,
      2,
      8
     ],
     [
      241,
      1,
      6
     ],
     [
      242,
      2,
      3
     ],
     [
      244,
      1,
      1
     ]
    ],
    "37": [
     [
      103,
      1,
      1
     ],
     [
      104,
      2,
      7
     ],
     [
      106,
      1,
      6
     ],
     [
      107,
      1,
      5
     ],
     [
      108,
      1,
      2
     ],
     [
      110,
      136,
      10
     ],
     [
      246,
      1,
      8
     ],
     [
      247,
      1,
      7
     ],
     [
      248,
      1,
      6
     ],
     [
      249,
      1,
      4
     ],
     [
      250,
      2,
      2
     ]
    ],
    "38": [
     [
      103,
      1,
      6
     ],
     [
      104,
      1,
      9
     ],
     [
      106,
      1,
      2
     ],
     [
      107,
      1,
      7
     ],
     [
      109,
      1,
      2
     ],
     [
      110,
      143,
      10
     ],
     [
      253,
      1,
      9
     ],
     [
      254,
      1,
      7
     ],
     [
      255,
      1,
      6
     ],
     [
      256,
      1,
      5
     ],
     [
      257,
      1,
      3
     ],
     [
      258,
      1,
      2
     ]
    ],
    "39": [
     [
      103,
      1,
      4
     ],
     [
      104,
      1,
      8
     ],
     [
      106,
      1,
      3
     ],
     [
      107,
      1,
      5
     ],
     [
      109,
      1,
      6
     ],
     [
      110,
      151,
      10
     ],
     [
      261,
      2,
      7
     ],
     [
      263,
      1,
      5
     ],
     [
      264,
      2,
      3
     ]
    ],
    "40": [
     [
      96,
      1,
      1
     ],
     [
      97,
      1,
      2
     ],
     [
      102,
      1,
      8
     ],
     [
      103,
      1,
      10
     ],
     [
      104,
      1,
      9
     ],
     [
      105,
      1,
      7
     ],
     [
      106,
      1,
      8
     ],
     [
      107,
      1,
      2
     ],
     [
      109,
      159,
      10
     ],
     [
      268,
      1,
      8
     ],
     [
      269,
      1,
      7
     ],
     [
      270,
      1,
      5
     ],
     [
      271,
      1,
      4
     ],
     [
      272,
      1,
      3
     ],
     [
      273,
      1,
      1
     ]
    ],
    "41": [
     [
      96,
      1,
      1
     ],
     [
      97,
      1,
      10
     ],
     [
      98,
      1,
      1
     ],
     [
      102,
      5,
      10
     ],
     [
      108,
      1,
      5
     ],
     [
      109,
      166,
      10
     ],
     [
      275,
      2,
      8
     ],
     [
      277,
      1,
      6
     ],
     [
      278,
      1,
      4
     ],
     [
      279,
      1,
      3
     ],
     [
      280,
      1,
      2
     ]
    ],
    "42": [
     [
      96,
      1,
      1
     ],
     [
      97,
      2,
      10
     ],
     [
      99,
      1,
      7
     ],
     [
      100,
      1,
      1
     ],
     [
      102,
      1,
      9
     ],
     [
      103,
      3,
      10
     ],
     [
      106,
      1,
      7
     ],
     [
      108,
      1,
      4
     ],
     [
      109,
      173,
      10
     ],
     [
      282,
      1,
      9
     ],
     [
      283,
      2,
      7
     ],
     [
      285,
      1,
      5
     ],
     [
      286,
      2,
      2
     ]
    ],
    "43": [
     [
      97,
      1,
      7
     ],
     [
      98,
      2,
      10
     ],
     [
      100,
      1,
      8
     ],
     [
      101,
      1,
      7
     ],
     [
      102,
      4,
      10
     ],
     [
      106,
      1,
      7
     ],
     [
      108,
      1,
      6
     ],
     [
      109,
      181,
      10
     ],
     [
      290,
      1,
      8
     ],
     [
      291,
      1,
      7
     ],
     [
      292,
      1,
      5
     ],
     [
      293,
      1,
      4
     ],
     [
      294,
      1,
      3
     ]
    ],
    "44": [
     [
      97,
      1,
      4
     ],
     [
      98,
      199,
      10
     ],
     [
      297,
      1,
      8
     ],
     [
      298,
      1,
      7
     ],
     [
      299,
      1,
      5
     ],
     [
      300,
      1,
      4
     ],
     [
      301,
      1,
      3
     ],
     [
      302,
      1,
      1
     ]
    ],
    "45": [
     [
      97,
      1,
      5
     ],
     [
      98,
      207,
      10
     ],
     [
      305,
      2,
      7
     ],
     [
      307,
      1,
      5
     ],
     [
      308,
      2,
      3
     ]
    ],
    "46": [
     [
      97,
      1,
      7
     ],
     [
      98,
      212,
      10
     ],
     [
      310,
      1,
      7
     ]
    ],
    "47": [
     [
      95,
      1,
      1
     ],
     [
      96,
      1,
      6
     ],
     [
      97,
      1,
      10
     ],
     [
      98,
      1,
      4
     ],
     [
      99,
      1,
      7
     ],
     [
      100,
      1,
      8
     ],
     [
      101,
      209,
      10
     ],
     [
      310,
      1,
      4
     ]
    ],
    "48": [
     [
      95,
      1,
      3
     ],
     [
      96,
      2,
      10
     ],
     [
      98,
      1,
      2
     ],
     [
      100,
      1,
      3
     ],
     [
      101,
      23,
      10
     ],
     [
      125,
      1,
      4
     ],
     [
      126,
      1,
      10
     ],
     [
      127,
      1,
      8
     ],
     [
      128,
      182,
      10
     ],
     [
      310,
      1,
      4
     ]
    ],
    "49": [
     [
      96,
      1,
      8
     ],
     [
      97,
      1,
      10
     ],
     [
      98,
      2,
      8
     ],
     [
      100,
      1,
      7
     ],
     [
      101,
      22,
      10
     ],
     [
      123,
      1,
      6
     ],
     [
      125,
      1,
      2
     ],
     [
      126,
      1,
      4
     ],
     [
      129,
      1,
      8
     ],
     [
      130,
      180,
      10
     ]
    ],
    "50": [
     [
      96,
      1,
      1
     ],
     [
      97,
      25,
      10
     ],
     [
      122,
      1,
      8
     ],
     [
      123,
      1,
      2
     ],
     [
      127,
      1,
      1
     ],
     [
      128,
      1,
      4
     ],
     [
      129,
      1,
      8
     ],
     [
      130,
      180,
      10
     ]
    ],
    "51": [
     [
      97,
      15,
      10
     ],
     [
      112,
      1,
      3
     ],
     [
      113,
      1,
      2
     ],
     [
      114,
      8,
      10
     ],
     [
      122,
      1,
      3
     ],
     [
      126,
      1,
      2
     ],
     [
      127,
      1,
      7
     ],
     [
      128,
      181,
      10
     ],
     [
      309,
      1,
      6
     ]
    ],
    "52": [
     [
      97,
      1,
      6
     ],
     [
      98,
      14,
      10
     ],
     [
      112,
      1,
      2
     ],
     [
      115,
      1,
      4
     ],
     [
      116,
      1,
      9
     ],
     [
      117,
      3,
      10
     ],
     [
      120,
      1,
      7
     ],
     [
      126,
      1,
      9
     ],
     [
      127,
      182,
      10
     ],
     [
      309,
      1,
      6
     ]
    ],
    "53": [
     [
      97,
      1,
      1
     ],
     [
      98,
      14,
      10
     ],
     [
      112,
      1,
      7
     ],
     [
      113,
      1,
      3
     ],
     [
      116,
      1,
      1
     ],
     [
      117,
      1,
      9
     ],
     [
      118,
      2,
      10
     ],
     [
      120,
      1,
      7
     ],
     [
      121,
      1,
      1
     ],
     [
      125,
      1,
      2
     ],
     [
      126,
      183,
      10
     ],
     [
      309,
      1,
      3
     ]
    ],
    "54": [
     [
      97,
      1,
      3
     ],
     [
      98,
      15,
      10
     ],
     [
      113,
      1,
      8
     ],
     [
      114,
      1,
      1
     ],
     [
      117,
      1,
      1
     ],
     [
      118,
      1,
      7
     ],
     [
      119,
      1,
      10
     ],
     [
      120,
      1,
      8
     ],
     [
      125,
      1,
      2
     ],
     [
      126,
      183,
      10
     ]
    ],
    "55": [
     [
      97,
      1,
      6
     ],
     [
      98,
      17,
      10
     ],
     [
      115,
      1,
      3
     ],
     [
      119,
      1,
      5
     ],
     [
      120,
      1,
      8
     ],
     [
      124,
      1,
      7
     ],
     [
      125,
      183,
      10
     ],
     [
      308,
      1,
      9
     ]
    ],
    "56": [
     [
      97,
      1,
      1
     ],
     [
      98,
      17,
      10
     ],
     [
      115,
      1,
      5
     ],
     [
      116,
      1,
      6
     ],
     [
      117,
      1,
      2
     ],
     [
      121,
      1,
      9
     ],
     [
      122,
      1,
      8
     ],
     [
      123,
      1,
      4
     ],
     [
      124,
      184,
      10
     ],
     [
      308,
      1,
      7
     ]
    ],
    "57": [
     [
      95,
      2,
      1
     ],
     [
      97,
      1,
      7
     ],
     [
      98,
      19,
      10
     ],
     [
      117,
      1,
      6
     ],
     [
      118,
      1,
      4
     ],
     [
      119,
      1,
      3
     ],
     [
      122,
      1,
      6
     ],
     [
      123,
      1,
      9
     ],
     [
      124,
      1,
      7
     ],
     [
      125,
      1,
      4
     ],
     [
      126,
      1,
      9
     ],
     [
      127,
      181,
      10
     ],
     [
      308,
      1,
      4
     ]
    ],
    "58": [
     [
      93,
      1,
      1
     ],
     [
      95,
      1,
      3
     ],
     [
      96,
      24,
      10
     ],
     [
      120,
      1,
      5
     ],
     [
      123,
      1,
      3
     ],
     [
      124,
      1,
      5
     ],
     [
      126,
      182,
      10
     ],
     [
      308,
      1,
      3
     ]
    ],
    "59": [
     [
      93,
      1,
      4
     ],
     [
      94,
      1,
      3
     ],
     [
      95,
      1,
      8
     ],
     [
      96,
      24,
      10
     ],
     [
      120,
      1,
      9
     ],
     [
      121,
      1,
      3
     ],
     [
      123,
      1,
      4
     ],
     [
      124,
      1,
      9
     ],
     [
      125,
      1,
      8
     ],
     [
      126,
      182,
      10
     ]
    ],
    "60": [
     [
      93,
      1,
      4
     ],
     [
      94,
      26,
      10
     ],
     [
      120,
      1,
      7
     ],
     [
      123,
      1,
      2
     ],
     [
      124,
      1,
      5
     ],
     [
      126,
      1,
      4
     ],
     [
      127,
      180,
      10
     ],
     [
      307,
      1,
      9
     ]
    ],
    "61": [
     [
      92,
      1,
      4
     ],
     [
      93,
      1,
      7
     ],
     [
      94,
      26,
      10
     ],
     [
      120,
      1,
      8
     ],
     [
      125,
      1,
      4
     ],
     [
      126,
      1,
      8
     ],
     [
      127,
      180,
      10
     ],
     [
      307,
      1,
      7
     ]
    ],
    "62": [
     [
      92,
      1,
      4
     ],
     [
      93,
      1,
      7
     ],
     [
      94,
      26,
      10
     ],
     [
      120,
      1,
      6
     ],
     [
      122,
      1,
      1
     ],
     [
      125,
      1,
      2
     ],
     [
      126,
      1,
      4
     ],
     [
      127,
      180,
      10
     ],
     [
      307,
      1,
      4
     ]
    ],
    "63": [
     [
      94,
      1,
      5
     ],
     [
      95,
      25,
      10
     ],
     [
      120,
      1,
      5
     ],
     [
      122,
      1,
      9
     ],
     [
      127,
      1,
      3
     ],
     [
      128,
      179,
      10
     ],
     [
      307,
      1,
      3
     ]
    ],
    "64": [
     [
      93,
      1,
      1
     ],
     [
      94,
      1,
      4
     ],
     [
      95,
      1,
      8
     ],
     [
      96,
      27,
      10
     ],
     [
      123,
      1,
      3
     ],
     [
      128,
      179,
      10
     ]
    ],
    "65": [
     [
      95,
      25,
      10
     ],
     [
      120,
      1,
      2
     ],
     [
      121,
      1,
      3
     ],
     [
      122,
      1,
      9
     ],
     [
      123,
      1,
      6
     ],
     [
      127,
      1,
      8
     ],
     [
      128,
      178,
      10
     ],
     [
      306,
      1,
      8
     ]
    ],
    "66": [
     [
      93,
      1,
      1
     ],
     [
      94,
      1,
      5
     ],
     [
      95,
      25,
      10
     ],
     [
      120,
      1,
      6
     ],
     [
      121,
      1,
      3
     ],
     [
      122,
      1,
      9
     ],
     [
      123,
      1,
      6
     ],
     [
      124,
      1,
      3
     ],
     [
      125,
      1,
      5
     ],
     [
      126,
      1,
      6
     ],
     [
      127,
      179,
      10
     ],
     [
      306,
      1,
      7
     ]
    ],
    "67": [
     [
      95,
      1,
      5
     ],
     [
      96,
      23,
      10
     ],
     [
      119,
      1,
      6
     ],
     [
      120,
      1,
      2
     ],
     [
      121,
      1,
      3
     ],
     [
      122,
      1,
      1
     ],
     [
      124,
      1,
      2
     ],
     [
      125,
      1,
      9
     ],
     [
      126,
      3,
      7
     ],
     [
      130,
      1,
      7
     ],
     [
      131,
      175,
      10
     ],
     [
      306,
      1,
      4
     ]
    ],
    "68": [
     [
      95,
      1,
      1
     ],
     [
      96,
      23,
      10
     ],
     [
      119,
      1,
      1
     ],
     [
      121,
      1,
      1
     ],
     [
      125,
      1,
      2
     ],
     [
      131,
      175,
      10
     ],
     [
      306,
      1,
      2
     ]
    ],
    "69": [
     [
      96,
      1,
      2
     ],
     [
      97,
      1,
      4
     ],
     [
      98,
      21,
      10
     ],
     [
      121,
      1,
      8
     ],
     [
      122,
      1,
      6
     ],
     [
      123,
      1,
      1
     ],
     [
      130,
      1,
      6
     ],
     [
      131,
      175,
      10
     ]
    ],
    "70": [
     [
      85,
      1,
      2
     ],
     [
      98,
      1,
      6
     ],
     [
      99,
      19,
      10
     ],
     [
      118,
      1,
      6
     ],
     [
      121,
      2,
      3
     ],
     [
      129,
      1,
      2
     ],
     [
      130,
      175,
      10
     ],
     [
      305,
      1,
      8
     ]
    ],
    "71": [
     [
      87,
      2,
      4
     ],
     [
      89,
      1,
      2
     ],
     [
      99,
      1,
      7
     ],
     [
      100,
      19,
      10
     ],
     [
      119,
      1,
      6
     ],
     [
      121,
      1,
      10
     ],
     [
      122,
      1,
      4
     ],
     [
      129,
      1,
      7
     ],
     [
      130,
      175,
      10
     ],
     [
      305,
      1,
      7
     ]
    ],
    "72": [
     [
      86,
      1,
      2
     ],
     [
      87,
      2,
      10
     ],
     [
      89,
      1,
      9
     ],
     [
      92,
      1,
      1
     ],
     [
      94,
      1,
      1
     ],
     [
      100,
      23,
      10
     ],
     [
      123,
      1,
      4
     ],
     [
      129,
      176,
      10
     ],
     [
      305,
      1,
      3
     ]
    ],
    "73": [
     [
      86,
      1,
      2
     ],
     [
      87,
      2,
      10
     ],
     [
      89,
      1,
      8
     ],
     [
      90,
      1,
      3
     ],
     [
      91,
      1,
      5
     ],
     [
      92,
      1,
      3
     ],
     [
      94,
      1,
      1
     ],
     [
      95,
      1,
      4
     ],
     [
      99,
      1,
      4
     ],
     [
      100,
      23,
      10
     ],
     [
      123,
      1,
      1
     ],
     [
      129,
      1,
      7
     ],
     [
      130,
      175,
      10
     ],
     [
      305,
      1,
      2
     ]
    ],
    "74": [
     [
      84,
      1,
      1
     ],
     [
      87,
      1,
      7
     ],
     [
      88,
      5,
      10
     ],
     [
      93,
      1,
      7
     ],
     [
      94,
      2,
      3
     ],
     [
      96,
      1,
      1
     ],
     [
      99,
      1,
      2
     ],
     [
      100,
      23,
      10
     ],
     [
      129,
      1,
      4
     ],
     [
      130,
      175,
      10
     ]
    ],
    "75": [
     [
      85,
      1,
      2
     ],
     [
      86,
      1,
      8
     ],
     [
      87,
      7,
      10
     ],
     [
      94,
      1,
      7
     ],
     [
      95,
      1,
      1
     ],
     [
      98,
      1,
      1
     ],
     [
      99,
      1,
      3
     ],
     [
      100,
      22,
      10
     ],
     [
      122,
      1,
      5
     ],
     [
      128,
      1,
      1
     ],
     [
      129,
      1,
      9
     ],
     [
      130,
      174,
      10
     ],
     [
      304,
      1,
      8
     ]
    ],
    "76": [
     [
      86,
      1,
      3
     ],
     [
      87,
      8,
      10
     ],
     [
      96,
      1,
      1
     ],
     [
      97,
      1,
      2
     ],
     [
      98,
      24,
      10
     ],
     [
      122,
      1,
      8
     ],
     [
      123,
      1,
      5
     ],
     [
      124,
      1,
      6
     ],
     [
      125,
      1,
      5
     ],
     [
      129,
      1,
      8
     ],
     [
      130,
      6,
      10
     ],
     [
      136,
      1,
      9
     ],
     [
      137,
      1,
      7
     ],
     [
      138,
      166,
      10
     ],
     [
      304,
      1,
      6
     ]
    ],
    "77": [
     [
      87,
      1,
      7
     ],
     [
      88,
      7,
      10
     ],
     [
      95,
      1,
      6
     ],
     [
      96,
      1,
      7
     ],
     [
      97,
      26,
      10
     ],
     [
      123,
      1,
      5
     ],
     [
      125,
      1,
      3
     ],
     [
      127,
      1,
      2
     ],
     [
      129,
      1,
      7
     ],
     [
      130,
      6,
      10
     ],
     [
      136,
      1,
      5
     ],
     [
      138,
      1,
      7
     ],
     [
      139,
      165,
      10
     ],
     [
      304,
      1,
      3
     ]
    ],
    "78": [
     [
      87,
      1,
      1
     ],
     [
      88,
      1,
      4
     ],
     [
      89,
      1,
      9
     ],
     [
      90,
      33,
      10
     ],
     [
      123,
      1,
      6
     ],
     [
      125,
      1,
      4
     ],
     [
      128,
      1,
      2
     ],
     [
      129,
      7,
      10
     ],
     [
      136,
      1,
      2
     ],
     [
      138,
      166,
      10
     ],
     [
      304,
      1,
      2
     ]
    ],
    "79": [
     [
      89,
      1,
      3
     ],
     [
      90,
      32,
      10
     ],
     [
      124,
      1,
      4
     ],
     [
      125,
      1,
      7
     ],
     [
      126,
      1,
      1
     ],
     [
      128,
      1,
      5
     ],
     [
      129,
      8,
      10
     ],
     [
      137,
      1,
      8
     ],
     [
      138,
      166,
      10
     ]
    ],
    "80": [
     [
      89,
      1,
      1
     ],
     [
      90,
      32,
      10
     ],
     [
      122,
      1,
      7
     ],
     [
      123,
      1,
      8
     ],
     [
      124,
      1,
      9
     ],
     [
      125,
      1,
      10
     ],
     [
      126,
      1,
      8
     ],
     [
      127,
      1,
      1
     ],
     [
      129,
      174,
      10
     ],
     [
      303,
      1,
      7
     ]
    ],
    "81": [
     [
      89,
      1,
      2
     ],
     [
      90,
      38,
      10
     ],
     [
      128,
      1,
      9
     ],
     [
      129,
      24,
      10
     ],
     [
      153,
      1,
      9
     ],
     [
      154,
      2,
      8
     ],
     [
      156,
      147,
      10
     ],
     [
      303,
      1,
      7
     ]
    ],
    "82": [
     [
      86,
      1,
      2
     ],
     [
      90,
      1,
      1
     ],
     [
      91,
      61,
      10
     ],
     [
      152,
      1,
      3
     ],
     [
      155,
      1,
      2
     ],
     [
      156,
      147,
      10
     ],
     [
      303,
      1,
      4
     ]
    ],
    "83": [
     [
      87,
      2,
      3
     ],
     [
      89,
      1,
      7
     ],
     [
      90,
      1,
      6
     ],
     [
      91,
      61,
      10
     ],
     [
      152,
      2,
      8
     ],
     [
      154,
      2,
      1
     ],
     [
      156,
      147,
      10
     ],
     [
      303,
      1,
      2
     ]
    ],
    "84": [
     [
      88,
      1,
      3
     ],
     [
      89,
      61,
      10
     ],
     [
      150,
      1,
      6
     ],
     [
      151,
      1,
      5
     ],
     [
      152,
      1,
      9
     ],
     [
      153,
      1,
      10
     ],
     [
      154,
      2,
      7
     ],
     [
      156,
      147,
      10
     ]
    ],
    "85": [
     [
      89,
      26,
      10
     ],
     [
      115,
      2,
      6
     ],
     [
      117,
      1,
      9
     ],
     [
      118,
      32,
      10
     ],
     [
      150,
      1,
      3
     ],
     [
      151,
      1,
      1
     ],
     [
      152,
      1,
      7
     ],
     [
      153,
      4,
      10
     ],
     [
      157,
      1,
      8
     ],
     [
      158,
      1,
      5
     ],
     [
      159,
      1,
      9
     ],
     [
      160,
      142,
      10
     ],
     [
      302,
      1,
      8
     ]
    ],
    "86": [
     [
      86,
      1,
      1
     ],
     [
      87,
      1,
      4
     ],
     [
      90,
      25,
      10
     ],
     [
      117,
      1,
      5
     ],
     [
      118,
      32,
      10
     ],
     [
      150,
      1,
      9
     ],
     [
      151,
      1,
      8
     ],
     [
      152,
      5,
      10
     ],
     [
      157,
      1,
      7
     ],
     [
      159,
      1,
      3
     ],
     [
      160,
      1,
      9
     ],
     [
      161,
      1,
      8
     ],
     [
      162,
      140,
      10
     ],
     [
      302,
      1,
      7
     ]
    ],
    "87": [
     [
      87,
      1,
      3
     ],
     [
      88,
      1,
      10
     ],
     [
      89,
      1,
      8
     ],
     [
      90,
      19,
      10
     ],
     [
      109,
      1,
      9
     ],
     [
      110,
      1,
      6
     ],
     [
      111,
      1,
      9
     ],
     [
      112,
      2,
      10
     ],
     [
      114,
      1,
      7
     ],
     [
      117,
      1,
      2
     ],
     [
      118,
      40,
      10
     ],
     [
      158,
      1,
      7
     ],
     [
      159,
      1,
      9
     ],
     [
      160,
      1,
      4
     ],
     [
      162,
      1,
      7
     ],
     [
      163,
      139,
      10
     ],
     [
      302,
      1,
      3
     ]
    ],
    "88": [
     [
      86,
      1,
      1
     ],
     [
      87,
      1,
      4
     ],
     [
      88,
      21,
      10
     ],
     [
      109,
      1,
      6
     ],
     [
      111,
      1,
      1
     ],
     [
      112,
      1,
      7
     ],
     [
      113,
      1,
      10
     ],
     [
      114,
      1,
      3
     ],
     [
      118,
      40,
      10
     ],
     [
      158,
      1,
      8
     ],
     [
      159,
      1,
      9
     ],
     [
      160,
      1,
      4
     ],
     [
      162,
      1,
      3
     ],
     [
      163,
      1,
      8
     ],
     [
      164,
      138,
      10
     ],
     [
      302,
      1,
      2
     ]
    ],
    "89": [
     [
      86,
      24,
      10
     ],
     [
      110,
      1,
      5
     ],
     [
      111,
      1,
      1
     ],
     [
      112,
      1,
      8
     ],
     [
      113,
      1,
      10
     ],
     [
      114,
      1,
      1
     ],
     [
      118,
      1,
      4
     ],
     [
      119,
      39,
      10
     ],
     [
      158,
      1,
      2
     ],
     [
      162,
      1,
      1
     ],
     [
      164,
      138,
      10
     ]
    ],
    "90": [
     [
      81,
      1,
      1
     ],
     [
      85,
      1,
      2
     ],
     [
      86,
      28,
      10
     ],
     [
      114,
      1,
      4
     ],
     [
      119,
      1,
      3
     ],
     [
      120,
      1,
      8
     ],
     [
      121,
      38,
      10
     ],
     [
      159,
      2,
      3
     ],
     [
      161,
      1,
      2
     ],
     [
      162,
      1,
      6
     ],
     [
      163,
      138,
      10
     ],
     [
      301,
      1,
      8
     ]
    ],
    "91": [
     [
      80,
      1,
      1
     ],
     [
      81,
      1,
      7
     ],
     [
      82,
      1,
      2
     ],
     [
      86,
      1,
      8
     ],
     [
      87,
      4,
      10
     ],
     [
      91,
      1,
      1
     ],
     [
      92,
      1,
      5
     ],
     [
      93,
      21,
      10
     ],
     [
      114,
      1,
      8
     ],
     [
      119,
      1,
      2
     ],
     [
      120,
      39,
      10
     ],
     [
      159,
      1,
      5
     ],
     [
      160,
      1,
      3
     ],
     [
      161,
      2,
      1
     ],
     [
      163,
      1,
      4
     ],
     [
      164,
      1,
      9
     ],
     [
      165,
      1,
      8
     ],
     [
      166,
      1,
      7
     ],
     [
      167,
      134,
      10
     ],
     [
      301,
      1,
      6
     ]
    ],
    "92": [
     [
      80,
      1,
      1
     ],
     [
      81,
      2,
      10
     ],
     [
      83,
      1,
      9
     ],
     [
      86,
      4,
      10
     ],
     [
      90,
      1,
      9
     ],
     [
      91,
      1,
      2
     ],
     [
      93,
      1,
      9
     ],
     [
      94,
      20,
      10
     ],
     [
      114,
      1,
      1
     ],
     [
      119,
      1,
      6
     ],
     [
      120,
      1,
      9
     ],
     [
      121,
      38,
      10
     ],
     [
      159,
      1,
      2
     ],
     [
      161,
      1,
      3
     ],
     [
      163,
      1,
      5
     ],
     [
      164,
      1,
      10
     ],
     [
      167,
      1,
      5
     ],
     [
      168,
      133,
      10
     ],
     [
      301,
      1,
      3
     ]
    ],
    "93": [
     [
      79,
      1,
      1
     ],
     [
      80,
      1,
      6
     ],
     [
      81,
      1,
      10
     ],
     [
      82,
      1,
      8
     ],
     [
      83,
      1,
      3
     ],
     [
      85,
      1,
      8
     ],
     [
      86,
      5,
      10
     ],
     [
      91,
      1,
      7
     ],
     [
      93,
      1,
      7
     ],
     [
      94,
      19,
      10
     ],
     [
      113,
      1,
      9
     ],
     [
      120,
      1,
      2
     ],
     [
      121,
      38,
      10
     ],
     [
      159,
      1,
      9
     ],
     [
      160,
      1,
      3
     ],
     [
      161,
      3,
      10
     ],
     [
      164,
      1,
      9
     ],
     [
      165,
      1,
      8
     ],
     [
      166,
      1,
      2
     ],
     [
      167,
      1,
      3
     ],
     [
      168,
      133,
      10
     ],
     [
      301,
      1,
      2
     ]
    ],
    "94": [
     [
      80,
      1,
      4
     ],
     [
      81,
      1,
      10
     ],
     [
      82,
      1,
      5
     ],
     [
      84,
      1,
      1
     ],
     [
      85,
      29,
      10
     ],
     [
      114,
      1,
      7
     ],
     [
      121,
      1,
      5
     ],
     [
      122,
      42,
      10
     ],
     [
      164,
      1,
      3
     ],
     [
      166,
      1,
      1
     ],
     [
      167,
      134,
      10
     ]
    ],
    "95": [
     [
      79,
      1,
      5
     ],
     [
      80,
      1,
      9
     ],
     [
      81,
      2,
      10
     ],
     [
      83,
      1,
      7
     ],
     [
      84,
      1,
      8
     ],
     [
      85,
      30,
      10
     ],
     [
      115,
      1,
      6
     ],
     [
      116,
      1,
      2
     ],
     [
      121,
      1,
      3
     ],
     [
      122,
      43,
      10
     ],
     [
      165,
      1,
      1
     ],
     [
      167,
      1,
      7
     ],
     [
      168,
      132,
      10
     ],
     [
      300,
      1,
      7
     ]
    ],
    "96": [
     [
      78,
      1,
      2
     ],
     [
      79,
      37,
      10
     ],
     [
      116,
      1,
      6
     ],
     [
      120,
      1,
      3
     ],
     [
      121,
      1,
      7
     ],
     [
      122,
      43,
      10
     ],
     [
      165,
      1,
      8
     ],
     [
      166,
      1,
      2
     ],
     [
      167,
      133,
      10
     ],
     [
      300,
      1,
      6
     ]
    ],
    "97": [
     [
      78,
      1,
      2
     ],
     [
      79,
      39,
      10
     ],
     [
      118,
      1,
      7
     ],
     [
      119,
      45,
      10
     ],
     [
      164,
      1,
      8
     ],
     [
      165,
      1,
      2
     ],
     [
      166,
      1,
      5
     ],
     [
      167,
      2,
      10
     ],
     [
      169,
      1,
      7
     ],
     [
      170,
      1,
      6
     ],
     [
      171,
      129,
      10
     ],
     [
      300,
      1,
      4
     ]
    ],
    "98": [
     [
      78,
      1,
      2
     ],
     [
      79,
      85,
      10
     ],
     [
      164,
      2,
      1
     ],
     [
      166,
      1,
      4
     ],
     [
      167,
      1,
      10
     ],
     [
      168,
      1,
      8
     ],
     [
      169,
      1,
      1
     ],
     [
      171,
      129,
      10
     ],
     [
      300,
      1,
      1
     ]
    ],
    "99": [
     [
      78,
      1,
      7
     ],
     [
      79,
      85,
      10
     ],
     [
      164,
      2,
      5
     ],
     [
      166,
      1,
      1
     ],
     [
      167,
      1,
      4
     ],
     [
      168,
      1,
      1
     ],
     [
      170,
      1,
      7
     ],
     [
      171,
      129,
      10
     ]
    ],
    "100": [
     [
      78,
      87,
      10
     ],
     [
      165,
      1,
      8
     ],
     [
      166,
      1,
      1
     ],
     [
      170,
      1,
      9
     ],
     [
      171,
      128,
      10
     ],
     [
      299,
      1,
      7
     ]
    ],
    "101": [
     [
      75,
      1,
      2
     ],
     [
      76,
      1,
      9
     ],
     [
      77,
      89,
      10
     ],
     [
      166,
      1,
      3
     ],
     [
      167,
      1,
      6
     ],
     [
      171,
      1,
      7
     ],
     [
      172,
      127,
      10
     ],
     [
      299,
      1,
      6
     ]
    ],
    "102": [
     [
      76,
      1,
      8
     ],
     [
      77,
      88,
      10
     ],
     [
      165,
      1,
      8
     ],
     [
      166,
      1,
      1
     ],
     [
      172,
      2,
      8
     ],
     [
      174,
      125,
      10
     ],
     [
      299,
      1,
      3
     ]
    ],
    "103": [
     [
      73,
      1,
      1
     ],
     [
      74,
      1,
      3
     ],
     [
      76,
      90,
      10
     ],
     [
      166,
      1,
      3
     ],
     [
      173,
      1,
      7
     ],
     [
      174,
      125,
      10
     ],
     [
      299,
      1,
      1
     ]
    ],
    "104": [
     [
      62,
      1,
      1
     ],
     [
      63,
      1,
      4
     ],
     [
      64,
      1,
      3
     ],
     [
      66,
      1,
      1
     ],
     [
      73,
      1,
      1
     ],
     [
      74,
      92,
      10
     ],
     [
      166,
      1,
      7
     ],
     [
      173,
      1,
      2
     ],
     [
      174,
      125,
      10
     ]
    ],
    "105": [
     [
      58,
      1,
      1
     ],
     [
      59,
      1,
      3
     ],
     [
      70,
      1,
      7
     ],
     [
      71,
      1,
      3
     ],
     [
      73,
      1,
      2
     ],
     [
      74,
      92,
      10
     ],
     [
      166,
      1,
      4
     ],
     [
      169,
      1,
      1
     ],
     [
      170,
      1,
      4
     ],
     [
      171,
      1,
      7
     ],
     [
      172,
      1,
      3
     ],
     [
      173,
      1,
      5
     ],
     [
      174,
      124,
      10
     ],
     [
      298,
      1,
      7
     ]
    ],
    "106": [
     [
      22,
      1,
      3
     ],
     [
      58,
      1,
      4
     ],
     [
      59,
      1,
      8
     ],
     [
      69,
      1,
      2
     ],
     [
      70,
      1,
      10
     ],
     [
      71,
      1,
      8
     ],
     [
      72,
      2,
      3
     ],
     [
      74,
      29,
      10
     ],
     [
      103,
      1,
      4
     ],
     [
      104,
      1,
      6
     ],
     [
      105,
      62,
      10
     ],
     [
      167,
      1,
      9
     ],
     [
      168,
      1,
      3
     ],
     [
      169,
      1,
      1
     ],
     [
      170,
      1,
      3
     ],
     [
      171,
      1,
      8
     ],
     [
      172,
      126,
      10
     ],
     [
      298,
      1,
      4
     ]
    ],
    "107": [
     [
      22,
      1,
      1
     ],
     [
      59,
      1,
      1
     ],
     [
      62,
      1,
      1
     ],
     [
      68,
      1,
      1
     ],
     [
      69,
      1,
      9
     ],
     [
      70,
      32,
      10
     ],
     [
      102,
      1,
      7
     ],
     [
      104,
      1,
      4
     ],
     [
      105,
      62,
      10
     ],
     [
      167,
      1,
      8
     ],
     [
      168,
      1,
      6
     ],
     [
      170,
      1,
      1
     ],
     [
      171,
      1,
      9
     ],
     [
      172,
      126,
      10
     ],
     [
      298,
      1,
      4
     ]
    ],
    "108": [
     [
      62,
      1,
      4
     ],
     [
      63,
      1,
      3
     ],
     [
      64,
      1,
      2
     ],
     [
      68,
      1,
      3
     ],
     [
      69,
      33,
      10
     ],
     [
      102,
      1,
      7
     ],
     [
      104,
      1,
      5
     ],
     [
      105,
      62,
      10
     ],
     [
      167,
      1,
      4
     ],
     [
      169,
      1,
      1
     ],
     [
      170,
      1,
      5
     ],
     [
      171,
      127,
      10
     ]
    ],
    "109": [
     [
      63,
      2,
      1
     ],
     [
      68,
      34,
      10
     ],
     [
      102,
      1,
      9
     ],
     [
      103,
      1,
      4
     ],
     [
      104,
      1,
      8
     ],
     [
      105,
      62,
      10
     ],
     [
      167,
      1,
      9
     ],
     [
      168,
      1,
      7
     ],
     [
      169,
      129,
      10
     ]
    ],
    "110": [
     [
      49,
      1,
      2
     ],
     [
      53,
      1,
      2
     ],
     [
      54,
      1,
      6
     ],
     [
      55,
      1,
      1
     ],
     [
      67,
      1,
      3
     ],
     [
      68,
      229,
      10
     ],
     [
      297,
      1,
      6
     ]
    ],
    "111": [
     [
      23,
      1,
      1
     ],
     [
      49,
      1,
      8
     ],
     [
      50,
      1,
      3
     ],
     [
      53,
      1,
      2
     ],
     [
      55,
      1,
      1
     ],
     [
      62,
      1,
      2
     ],
     [
      67,
      1,
      7
     ],
     [
      68,
      229,
      10
     ],
     [
      297,
      1,
      5
     ]
    ],
    "112": [
     [
      49,
      1,
      2
     ],
     [
      54,
      1,
      1
     ],
     [
      55,
      1,
      2
     ],
     [
      66,
      1,
      3
     ],
     [
      67,
      101,
      10
     ],
     [
      168,
      1,
      9
     ],
     [
      169,
      128,
      10
     ],
     [
      297,
      1,
      5
     ]
    ],
    "113": [
     [
      66,
      1,
      8
     ],
     [
      67,
      101,
      10
     ],
     [
      169,
      1,
      5
     ],
     [
      170,
      127,
      10
     ],
     [
      297,
      1,
      4
     ]
    ],
    "114": [
     [
      65,
      1,
      2
     ],
     [
      66,
      102,
      10
     ],
     [
      168,
      1,
      1
     ],
     [
      170,
      1,
      6
     ],
     [
      171,
      126,
      10
     ],
     [
      297,
      1,
      3
     ]
    ],
    "115": [
     [
      65,
      1,
      6
     ],
     [
      66,
      102,
      10
     ],
     [
      168,
      1,
      8
     ],
     [
      169,
      1,
      7
     ],
     [
      170,
      127,
      10
     ]
    ],
    "116": [
     [
      25,
      1,
      6
     ],
     [
      59,
      1,
      3
     ],
     [
      60,
      1,
      5
     ],
     [
      64,
      1,
      2
     ],
     [
      65,
      231,
      10
     ],
     [
      296,
      1,
      9
     ]
    ],
    "117": [
     [
      24,
      1,
      5
     ],
     [
      25,
      1,
      7
     ],
     [
      58,
      1,
      5
     ],
     [
      59,
      1,
      10
     ],
     [
      60,
      1,
      7
     ],
     [
      64,
      1,
      7
     ],
     [
      65,
      231,
      10
     ],
     [
      296,
      1,
      6
     ]
    ],
    "118": [
     [
      25,
      2,
      6
     ],
     [
      27,
      1,
      2
     ],
     [
      57,
      1,
      5
     ],
     [
      58,
      1,
      10
     ],
     [
      59,
      1,
      6
     ],
     [
      60,
      1,
      1
     ],
     [
      63,
      1,
      4
     ],
     [
      64,
      232,
      10
     ],
     [
      296,
      1,
      4
     ]
    ],
    "119": [
     [
      18,
      1,
      1
     ],
     [
      21,
      1,
      2
     ],
     [
      22,
      1,
      4
     ],
     [
      25,
      1,
      1
     ],
     [
      55,
      1,
      2
     ],
     [
      56,
      1,
      7
     ],
     [
      57,
      1,
      10
     ],
     [
      58,
      1,
      7
     ],
     [
      62,
      1,
      1
     ],
     [
      63,
      1,
      9
     ],
     [
      64,
      232,
      10
     ],
     [
      296,
      1,
      2
     ]
    ],
    "120": [
     [
      54,
      1,
      3
     ],
     [
      55,
      2,
      7
     ],
     [
      57,
      1,
      10
     ],
     [
      58,
      1,
      4
     ],
     [
      62,
      1,
      6
     ],
     [
      63,
      233,
      10
     ]
    ],
    "121": [
     [
      57,
      1,
      4
     ],
     [
      58,
      1,
      1
     ],
     [
      61,
      1,
      1
     ],
     [
      62,
      233,
      10
     ],
     [
      295,
      1,
      8
     ]
    ],
    "122": [
     [
      61,
      1,
      8
     ],
     [
      62,
      233,
      10
     ],
     [
      295,
      1,
      7
     ]
    ],
    "123": [
     [
      60,
      1,
      2
     ],
     [
      61,
      234,
      10
     ],
     [
      295,
      1,
      4
     ]
    ],
    "124": [
     [
      59,
      1,
      1
     ],
     [
      60,
      1,
      7
     ],
     [
      61,
      234,
      10
     ],
     [
      295,
      1,
      2
     ]
    ],
    "125": [
     [
      59,
      1,
      3
     ],
     [
      60,
      235,
      10
     ]
    ],
    "126": [
     [
      59,
      1,
      8
     ],
     [
      60,
      234,
      10
     ],
     [
      294,
      1,
      8
     ]
    ],
    "127": [
     [
      59,
      1,
      8
     ],
     [
      60,
      234,
      10
     ],
     [
      294,
      1,
      6
     ]
    ],
    "128": [
     [
      57,
      1,
      1
     ],
     [
      58,
      1,
      9
     ],
     [
      59,
      235,
      10
     ],
     [
      294,
      1,
      3
     ]
    ],
    "129": [
     [
      57,
      1,
      5
     ],
     [
      58,
      236,
      10
     ],
     [
      294,
      1,
      2
     ]
    ],
    "130": [
     [
      56,
      1,
      4
     ],
     [
      57,
      237,
      10
     ]
    ],
    "131": [
     [
      46,
      1,
      5
     ],
     [
      47,
      1,
      4
     ],
     [
      55,
      1,
      1
     ],
     [
      56,
      237,
      10
     ],
     [
      293,
      1,
      7
     ]
    ],
    "132": [
     [
      43,
      1,
      3
     ],
     [
      44,
      1,
      6
     ],
     [
      45,
      1,
      8
     ],
     [
      46,
      2,
      10
     ],
     [
      48,
      1,
      1
     ],
     [
      55,
      1,
      5
     ],
     [
      56,
      237,
      10
     ],
     [
      293,
      1,
      6
     ]
    ],
    "133": [
     [
      39,
      1,
      4
     ],
     [
      40,
      1,
      1
     ],
     [
      44,
      1,
      1
     ],
     [
      45,
      1,
      6
     ],
     [
      46,
      1,
      9
     ],
     [
      47,
      1,
      10
     ],
     [
      54,
      1,
      1
     ],
     [
      55,
      238,
      10
     ],
     [
      293,
      1,
      4
     ]
    ],
    "134": [
     [
      39,
      1,
      1
     ],
     [
      47,
      1,
      3
     ],
     [
      54,
      1,
      9
     ],
     [
      55,
      238,
      10
     ],
     [
      293,
      1,
      1
     ]
    ],
    "135": [
     [
      35,
      1,
      2
     ],
     [
      36,
      1,
      3
     ],
     [
      37,
      1,
      4
     ],
     [
      44,
      1,
      9
     ],
     [
      45,
      1,
      8
     ],
     [
      46,
      1,
      6
     ],
     [
      47,
      1,
      3
     ],
     [
      53,
      1,
      7
     ],
     [
      54,
      239,
      10
     ]
    ],
    "136": [
     [
      34,
      1,
      3
     ],
     [
      35,
      1,
      10
     ],
     [
      36,
      1,
      8
     ],
     [
      43,
      1,
      2
     ],
     [
      44,
      3,
      10
     ],
     [
      47,
      1,
      3
     ],
     [
      52,
      1,
      2
     ],
     [
      53,
      239,
      10
     ],
     [
      292,
      1,
      7
     ]
    ],
    "137": [
     [
      31,
      1,
      2
     ],
     [
      32,
      1,
      3
     ],
     [
      33,
      2,
      10
     ],
     [
      35,
      1,
      9
     ],
     [
      36,
      1,
      1
     ],
     [
      43,
      1,
      1
     ],
     [
      44,
      3,
      10
     ],
     [
      47,
      1,
      1
     ],
     [
      52,
      1,
      8
     ],
     [
      53,
      239,
      10
     ],
     [
      292,
      1,
      7
     ]
    ],
    "138": [
     [
      30,
      1,
      1
     ],
     [
      31,
      1,
      9
     ],
     [
      32,
      3,
      10
     ],
     [
      35,
      1,
      6
     ],
     [
      43,
      1,
      6
     ],
     [
      44,
      2,
      10
     ],
     [
      46,
      1,
      9
     ],
     [
      51,
      1,
      4
     ],
     [
      52,
      240,
      10
     ],
     [
      292,
      1,
      3
     ]
    ],
    "139": [
     [
      30,
      1,
      5
     ],
     [
      31,
      4,
      10
     ],
     [
      35,
      1,
      6
     ],
     [
      42,
      1,
      2
     ],
     [
      43,
      4,
      10
     ],
     [
      47,
      1,
      4
     ],
     [
      51,
      1,
      9
     ],
     [
      52,
      240,
      10
     ],
     [
      292,
      1,
      2
     ]
    ],
    "140": [
     [
      30,
      1,
      1
     ],
     [
      31,
      1,
      6
     ],
     [
      32,
      1,
      8
     ],
     [
      33,
      2,
      10
     ],
     [
      35,
      1,
      7
     ],
     [
      42,
      1,
      9
     ],
     [
      43,
      4,
      10
     ],
     [
      47,
      1,
      3
     ],
     [
      50,
      1,
      5
     ],
     [
      51,
      241,
      10
     ]
    ],
    "141": [
     [
      32,
      1,
      6
     ],
     [
      33,
      2,
      10
     ],
     [
      35,
      1,
      6
     ],
     [
      41,
      1,
      4
     ],
     [
      42,
      4,
      10
     ],
     [
      46,
      1,
      9
     ],
     [
      49,
      1,
      1
     ],
     [
      50,
      1,
      9
     ],
     [
      51,
      240,
      10
     ],
     [
      291,
      1,
      8
     ]
    ],
    "142": [
     [
      32,
      1,
      5
     ],
     [
      33,
      2,
      10
     ],
     [
      35,
      1,
      1
     ],
     [
      41,
      1,
      4
     ],
     [
      42,
      4,
      10
     ],
     [
      46,
      1,
      7
     ],
     [
      49,
      1,
      4
     ],
     [
      50,
      241,
      10
     ],
     [
      291,
      1,
      6
     ]
    ],
    "143": [
     [
      31,
      1,
      1
     ],
     [
      32,
      1,
      8
     ],
     [
      33,
      1,
      10
     ],
     [
      34,
      1,
      7
     ],
     [
      40,
      1,
      6
     ],
     [
      41,
      5,
      10
     ],
     [
      46,
      1,
      3
     ],
     [
      49,
      1,
      6
     ],
     [
      50,
      241,
      10
     ],
     [
      291,
      1,
      3
     ]
    ],
    "144": [
     [
      29,
      1,
      2
     ],
     [
      30,
      1,
      8
     ],
     [
      31,
      1,
      7
     ],
     [
      32,
      1,
      2
     ],
     [
      33,
      1,
      4
     ],
     [
      34,
      1,
      1
     ],
     [
      39,
      1,
      1
     ],
     [
      40,
      1,
      3
     ],
     [
      41,
      5,
      10
     ],
     [
      46,
      1,
      2
     ],
     [
      48,
      1,
      2
     ],
     [
      49,
      242,
      10
     ],
     [
      291,
      1,
      2
     ]
    ],
    "145": [
     [
      28,
      1,
      2
     ],
     [
      29,
      1,
      8
     ],
     [
      30,
      1,
      10
     ],
     [
      31,
      1,
      7
     ],
     [
      40,
      1,
      1
     ],
     [
      41,
      4,
      10
     ],
     [
      45,
      1,
      6
     ],
     [
      48,
      1,
      7
     ],
     [
      49,
      242,
      10
     ]
    ],
    "146": [
     [
      28,
      1,
      2
     ],
     [
      29,
      2,
      10
     ],
     [
      31,
      1,
      4
     ],
     [
      40,
      1,
      8
     ],
     [
      41,
      1,
      10
     ],
     [
      42,
      1,
      8
     ],
     [
      43,
      1,
      6
     ],
     [
      44,
      1,
      9
     ],
     [
      45,
      1,
      4
     ],
     [
      48,
      242,
      10
     ],
     [
      290,
      1,
      7
     ]
    ],
    "147": [
     [
      29,
      2,
      10
     ],
     [
      39,
      1,
      4
     ],
     [
      40,
      2,
      10
     ],
     [
      42,
      1,
      7
     ],
     [
      47,
      1,
      7
     ],
     [
      48,
      242,
      10
     ],
     [
      290,
      1,
      6
     ]
    ],
    "148": [
     [
      29,
      1,
      10
     ],
     [
      30,
      1,
      7
     ],
     [
      38,
      1,
      5
     ],
     [
      39,
      1,
      8
     ],
     [
      40,
      2,
      10
     ],
     [
      42,
      1,
      7
     ],
     [
      46,
      1,
      1
     ],
     [
      47,
      243,
      10
     ],
     [
      290,
      1,
      4
     ]
    ],
    "149": [
     [
      28,
      1,
      3
     ],
     [
      29,
      1,
      8
     ],
     [
      30,
      1,
      4
     ],
     [
      37,
      1,
      5
     ],
     [
      38,
      3,
      10
     ],
     [
      46,
      1,
      6
     ],
     [
      47,
      243,
      10
     ],
     [
      290,
      1,
      1
     ]
    ],
    "150": [
     [
      28,
      1,
      1
     ],
     [
      37,
      1,
      1
     ],
     [
      38,
      1,
      7
     ],
     [
      39,
      1,
      10
     ],
     [
      40,
      1,
      4
     ],
     [
      45,
      1,
      1
     ],
     [
      46,
      1,
      7
     ],
     [
      47,
      243,
      10
     ]
    ],
    "151": [
     [
      38,
      1,
      7
     ],
     [
      39,
      1,
      9
     ],
     [
      45,
      1,
      3
     ],
     [
      46,
      243,
      10
     ],
     [
      289,
      1,
      7
     ]
    ],
    "152": [
     [
      37,
      1,
      2
     ],
     [
      38,
      1,
      4
     ],
     [
      39,
      1,
      1
     ],
     [
      45,
      1,
      7
     ],
     [
      46,
      243,
      10
     ],
     [
      289,
      1,
      7
     ]
    ],
    "153": [
     [
      44,
      1,
      2
     ],
     [
      45,
      244,
      10
     ],
     [
      289,
      1,
      3
     ]
    ],
    "154": [
     [
      44,
      1,
      5
     ],
     [
      45,
      244,
      10
     ],
     [
      289,
      1,
      1
     ]
    ],
    "155": [
     [
      34,
      1,
      1
     ],
     [
      35,
      1,
      8
     ],
     [
      36,
      1,
      10
     ],
     [
      44,
      245,
      10
     ]
    ],
    "156": [
     [
      34,
      1,
      3
     ],
     [
      35,
      2,
      10
     ],
     [
      37,
      1,
      1
     ],
     [
      43,
      1,
      3
     ],
     [
      44,
      244,
      10
     ],
     [
      288,
      1,
      7
     ]
    ],
    "157": [
     [
      34,
      1,
      6
     ],
     [
      35,
      2,
      10
     ],
     [
      37,
      1,
      4
     ],
     [
      43,
      1,
      4
     ],
     [
      44,
      244,
      10
     ],
     [
      288,
      1,
      4
     ]
    ],
    "158": [
     [
      33,
      1,
      1
     ],
     [
      34,
      1,
      8
     ],
     [
      35,
      2,
      10
     ],
     [
      42,
      1,
      1
     ],
     [
      43,
      1,
      8
     ],
     [
      44,
      244,
      10
     ],
     [
      288,
      1,
      3
     ]
    ],
    "159": [
     [
      33,
      1,
      5
     ],
     [
      34,
      3,
      10
     ],
     [
      37,
      2,
      2
     ],
     [
      39,
      1,
      1
     ],
     [
      42,
      1,
      3
     ],
     [
      43,
      245,
      10
     ],
     [
      288,
      1,
      1
     ]
    ],
    "160": [
     [
      32,
      1,
      2
     ],
     [
      33,
      6,
      10
     ],
     [
      39,
      1,
      6
     ],
     [
      42,
      1,
      6
     ],
     [
      43,
      245,
      10
     ]
    ],
    "161": [
     [
      32,
      1,
      8
     ],
     [
      33,
      6,
      10
     ],
     [
      42,
      1,
      8
     ],
     [
      43,
      244,
      10
     ],
     [
      287,
      1,
      6
     ]
    ],
    "162": [
     [
      31,
      1,
      4
     ],
     [
      32,
      5,
      10
     ],
     [
      37,
      1,
      9
     ],
     [
      38,
      1,
      5
     ],
     [
      42,
      245,
      10
     ],
     [
      287,
      1,
      5
     ]
    ],
    "163": [
     [
      32,
      1,
      9
     ],
     [
      33,
      4,
      10
     ],
     [
      37,
      1,
      4
     ],
     [
      41,
      1,
      3
     ],
     [
      42,
      245,
      10
     ],
     [
      287,
      1,
      4
     ]
    ],
    "164": [
     [
      32,
      5,
      10
     ],
     [
      37,
      1,
      6
     ],
     [
      41,
      1,
      9
     ],
     [
      42,
      245,
      10
     ]
    ],
    "165": [
     [
      31,
      1,
      2
     ],
     [
      32,
      5,
      10
     ],
     [
      37,
      1,
      8
     ],
     [
      40,
      1,
      1
     ],
     [
      41,
      245,
      10
     ],
     [
      286,
      1,
      9
     ]
    ],
    "166": [
     [
      25,
      1,
      3
     ],
     [
      31,
      1,
      1
     ],
     [
      32,
      5,
      10
     ],
     [
      37,
      1,
      5
     ],
     [
      40,
      1,
      3
     ],
     [
      41,
      245,
      10
     ],
     [
      286,
      1,
      7
     ]
    ],
    "167": [
     [
      24,
      2,
      1
     ],
     [
      27,
      1,
      1
     ],
     [
      31,
      1,
      4
     ],
     [
      32,
      4,
      10
     ],
     [
      36,
      1,
      9
     ],
     [
      37,
      1,
      3
     ],
     [
      40,
      1,
      6
     ],
     [
      41,
      245,
      10
     ],
     [
      286,
      1,
      5
     ]
    ],
    "168": [
     [
      27,
      1,
      3
     ],
     [
      31,
      1,
      4
     ],
     [
      32,
      2,
      10
     ],
     [
      34,
      1,
      8
     ],
     [
      35,
      1,
      9
     ],
     [
      36,
      1,
      1
     ],
     [
      40,
      1,
      9
     ],
     [
      41,
      245,
      10
     ],
     [
      286,
      1,
      3
     ]
    ],
    "169": [
     [
      26,
      1,
      1
     ],
     [
      27,
      1,
      7
     ],
     [
      28,
      1,
      2
     ],
     [
      30,
      1,
      4
     ],
     [
      31,
      2,
      10
     ],
     [
      33,
      1,
      5
     ],
     [
      40,
      246,
      10
     ]
    ],
    "170": [
     [
      23,
      1,
      3
     ],
     [
      24,
      3,
      7
     ],
     [
      27,
      1,
      3
     ],
     [
      31,
      1,
      6
     ],
     [
      32,
      1,
      10
     ],
     [
      33,
      1,
      1
     ],
     [
      39,
      1,
      4
     ],
     [
      40,
      245,
      10
     ],
     [
      285,
      1,
      9
     ]
    ],
    "171": [
     [
      22,
      1,
      8
     ],
     [
      23,
      2,
      10
     ],
     [
      25,
      1,
      5
     ],
     [
      26,
      1,
      1
     ],
     [
      31,
      1,
      4
     ],
     [
      32,
      1,
      9
     ],
     [
      33,
      1,
      2
     ],
     [
      39,
      1,
      4
     ],
     [
      40,
      245,
      10
     ],
     [
      285,
      1,
      7
     ]
    ],
    "172": [
     [
      22,
      2,
      10
     ],
     [
      24,
      1,
      7
     ],
     [
      30,
      1,
      6
     ],
     [
      31,
      1,
      10
     ],
     [
      32,
      1,
      4
     ],
     [
      39,
      1,
      8
     ],
     [
      40,
      245,
      10
     ],
     [
      285,
      1,
      3
     ]
    ],
    "173": [
     [
      30,
      1,
      7
     ],
     [
      31,
      1,
      10
     ],
     [
      32,
      1,
      1
     ],
     [
      38,
      1,
      1
     ],
     [
      39,
      246,
      10
     ],
     [
      285,
      1,
      3
     ]
    ],
    "174": [
     [
      38,
      1,
      7
     ],
     [
      39,
      246,
      10
     ]
    ],
    "175": [
     [
      41,
      243,
      10
     ],
     [
      284,
      1,
      9
     ]
    ],
    "176": [
     [
      48,
      236,
      10
     ],
     [
      284,
      1,
      6
     ]
    ],
    "177": [
     [
      54,
      230,
      10
     ],
     [
      284,
      1,
      4
     ]
    ],
    "178": [
     [
      61,
      223,
      10
     ],
     [
      284,
      1,
      3
     ]
    ],
    "179": [
     [
      68,
      216,
      10
     ]
    ],
    "180": [
     [
      75,
      208,
      10
     ],
     [
      283,
      1,
      8
     ]
    ],
    "181": [
     [
      81,
      202,
      10
     ],
     [
      283,
      1,
      7
     ]
    ],
    "182": [
     [
      88,
      195,
      10
     ],
     [
      283,
      1,
      4
     ]
    ],
    "183": [
     [
      95,
      188,
      10
     ],
     [
      283,
      1,
      2
     ]
    ],
    "184": [
     [
      102,
      181,
      10
     ]
    ],
    "185": [
     [
      109,
      173,
      10
     ],
     [
      282,
      1,
      8
     ]
    ],
    "186": [
     [
      115,
      167,
      10
     ],
     [
      282,
      1,
      6
     ]
    ],
    "187": [
     [
      122,
      160,
      10
     ],
     [
      282,
      1,
      3
     ]
    ],
    "188": [
     [
      129,
      153,
      10
     ],
     [
      282,
      1,
      2
     ]
    ],
    "189": [
     [
      137,
      145,
      10
     ]
    ],
    "190": [
     [
      143,
      138,
      10
     ],
     [
      281,
      1,
      8
     ]
    ],
    "191": [
     [
      151,
      130,
      10
     ],
     [
      281,
      1,
      6
     ]
    ],
    "192": [
     [
      158,
      123,
      10
     ],
     [
      281,
      1,
      4
     ]
    ],
    "193": [
     [
      165,
      116,
      10
     ],
     [
      281,
      1,
      1
     ]
    ],
    "194": [
     [
      172,
      109,
      10
     ]
    ],
    "195": [
     [
      179,
      101,
      10
     ],
     [
      280,
      1,
      7
     ]
    ],
    "196": [
     [
      186,
      94,
      10
     ],
     [
      280,
      1,
      6
     ]
    ],
    "197": [
     [
      194,
      86,
      10
     ],
     [
      280,
      1,
      3
     ]
    ],
    "198": [
     [
      201,
      79,
      10
     ],
     [
      280,
      1,
      1
     ]
    ],
    "199": [
     [
      208,
      72,
      10
     ]
    ],
    "200": [
     [
      216,
      63,
      10
     ],
     [
      279,
      1,
      7
     ]
    ],
    "201": [
     [
      223,
      56,
      10
     ],
     [
      279,
      1,
      6
     ]
    ],
    "202": [
     [
      230,
      49,
      10
     ],
     [
      279,
      1,
      3
     ]
    ],
    "203": [
     [
      238,
      41,
      10
     ],
     [
      279,
      1,
      1
     ]
    ],
    "204": [
     [
      245,
      34,
      10
     ]
    ],
    "205": [
     [
      253,
      25,
      10
     ],
     [
      278,
      1,
      7
     ]
    ],
    "206": [
     [
      260,
      18,
      10
     ],
     [
      278,
      1,
      5
     ]
    ],
    "207": [
     [
      268,
      10,
      10
     ],
     [
      278,
      1,
      4
     ]
    ],
    "208": [
     [
      276,
      2,
      10
     ]
    ]
   }
  },
  "clutter_headroom": 26.2,
  "clutter_at_floor": 0.49,
  "clutter_verdict": "vessels present",
  "detection_rate": 0.5,
  "n_detections": 6,
  "n_reports": 4,
  "n_reports_with_fix": 4,
  "n_matched": 2,
  "n_reports_unsearched": 4,
  "n_reports_marginal": 0,
  "unsearched_by_length": {
   "<25 m": 3,
   "25-50 m": 1,
   "50-100 m": 0,
   "100-200 m": 0,
   ">200 m": 0,
   "unknown": 0
  },
  "k_sigma_match": 3.0,
  "gate_min_snr": 15.0,
  "gate_min_pixels": 6,
  "n_detections_before_gate": 51,
  "ais_window_s": 1800.0,
  "calibration": {
   "detectable_length_m": 25.0,
   "max_chance_match": 0.05,
   "density_per_km2": 0.00016,
   "max_scorable_radius_m": 9983,
   "n_unscorable": 0,
   "n_unscorable_matched": 0,
   "expected_chance_matches": 0.0,
   "strata": {
    ">=25 m": {
     "found": 2,
     "scored": 2,
     "rate": 1.0,
     "ci95": [
      0.3424,
      1.0
     ]
    },
    "<25 m": {
     "found": 0,
     "scored": 2,
     "rate": 0.0,
     "ci95": [
      0.0,
      0.6576
     ]
    },
    "unknown length": {
     "found": 0,
     "scored": 0,
     "rate": null,
     "ci95": [
      null,
      null
     ]
    },
    "all scored": {
     "found": 2,
     "scored": 4,
     "rate": 0.5,
     "ci95": [
      0.15,
      0.85
     ]
    }
   },
   "curve_edges_m": [
    0.0,
    15.0,
    25.0,
    50.0,
    100.0
   ],
   "curve": {
    "0-15 m": {
     "found": 0,
     "scored": 1,
     "rate": 0.0,
     "ci95": [
      0.0,
      0.7935
     ]
    },
    "15-25 m": {
     "found": 0,
     "scored": 1,
     "rate": 0.0,
     "ci95": [
      0.0,
      0.7935
     ]
    },
    "25-50 m": {
     "found": 0,
     "scored": 0,
     "rate": null,
     "ci95": [
      null,
      null
     ]
    },
    "50-100 m": {
     "found": 0,
     "scored": 0,
     "rate": null,
     "ci95": [
      null,
      null
     ]
    },
    ">100 m": {
     "found": 2,
     "scored": 2,
     "rate": 1.0,
     "ci95": [
      0.3424,
      1.0
     ]
    },
    "unknown": {
     "found": 0,
     "scored": 0,
     "rate": null,
     "ci95": [
      null,
      null
     ]
    }
   }
  }
 },
 "features": [
  {
   "type": "Feature",
   "geometry": {
    "type": "Point",
    "coordinates": [
     -74.98225514049467,
     36.064967039033
    ]
   },
   "properties": {
    "kind": "unmatched",
    "domain": "sea",
    "t_start": "2024-07-15T22:58:12+00:00",
    "t_end": "2024-07-15T22:58:12+00:00",
    "duration_s": 0.0,
    "confidence": 0.475,
    "platform_ids": [],
    "evidence": {
     "sensor": "sentinel1-vv-cfar",
     "detector_confidence": 0.95,
     "detection_rate_this_pass": 0.5,
     "reports_considered": 4,
     "reports_with_a_fix": 4,
     "search_radius_m": 128.5,
     "snr": 37.47,
     "length_m_approx": 49.0,
     "pixels": 24,
     "scene": "S1A_IW_GRDH_1SDV_20240715T225812_20240715T225841_054778_06AB8D_C664_COG.SAFE"
    }
   }
  },
  {
   "type": "Feature",
   "geometry": {
    "type": "Point",
    "coordinates": [
     -75.24944974152255,
     36.22670014248151
    ]
   },
   "properties": {
    "kind": "unmatched",
    "domain": "sea",
    "t_start": "2024-07-15T22:58:12+00:00",
    "t_end": "2024-07-15T22:58:12+00:00",
    "duration_s": 0.0,
    "confidence": 0.475,
    "platform_ids": [],
    "evidence": {
     "sensor": "sentinel1-vv-cfar",
     "detector_confidence": 0.95,
     "detection_rate_this_pass": 0.5,
     "reports_considered": 4,
     "reports_with_a_fix": 4,
     "search_radius_m": 141.9,
     "snr": 63.68,
     "length_m_approx": 56.6,
     "pixels": 32,
     "scene": "S1A_IW_GRDH_1SDV_20240715T225812_20240715T225841_054778_06AB8D_C664_COG.SAFE"
    }
   }
  },
  {
   "type": "Feature",
   "geometry": {
    "type": "Point",
    "coordinates": [
     -75.79977662141891,
     36.22015586498117
    ]
   },
   "properties": {
    "kind": "unmatched",
    "domain": "sea",
    "t_start": "2024-07-15T22:58:12+00:00",
    "t_end": "2024-07-15T22:58:12+00:00",
    "duration_s": 0.0,
    "confidence": 0.4685,
    "platform_ids": [],
    "evidence": {
     "sensor": "sentinel1-vv-cfar",
     "detector_confidence": 0.937,
     "detection_rate_this_pass": 0.5,
     "reports_considered": 4,
     "reports_with_a_fix": 4,
     "search_radius_m": 168.6,
     "snr": 18.74,
     "length_m_approx": 70.7,
     "pixels": 50,
     "scene": "S1A_IW_GRDH_1SDV_20240715T225812_20240715T225841_054778_06AB8D_C664_COG.SAFE"
    }
   }
  },
  {
   "type": "Feature",
   "geometry": {
    "type": "Point",
    "coordinates": [
     -75.86952755431471,
     36.40507006245168
    ]
   },
   "properties": {
    "kind": "unmatched",
    "domain": "sea",
    "t_start": "2024-07-15T22:58:12+00:00",
    "t_end": "2024-07-15T22:58:12+00:00",
    "duration_s": 0.0,
    "confidence": 0.394,
    "platform_ids": [],
    "evidence": {
     "sensor": "sentinel1-vv-cfar",
     "detector_confidence": 0.788,
     "detection_rate_this_pass": 0.5,
     "reports_considered": 4,
     "reports_with_a_fix": 4,
     "search_radius_m": 140.5,
     "snr": 15.75,
     "length_m_approx": 55.7,
     "pixels": 31,
     "scene": "S1A_IW_GRDH_1SDV_20240715T225812_20240715T225841_054778_06AB8D_C664_COG.SAFE"
    }
   }
  }
 ]
}