{
 "type": "FeatureCollection",
 "properties": {
  "scene": "S1A_IW_GRDH_1SDV_20240621T225842_20240621T225907_054428_069F67_4366_COG.SAFE",
  "acquired": "2024-06-21T22:58:42+00:00",
  "geolocation_rms_m": 3.1,
  "geolocation_holdout_m": 9.9,
  "geolocation_median_m": 10.0,
  "geolocation_p90_m": 10.8,
  "geolocation_worst_m": 49.4,
  "geolocation_uneven": true,
  "geolocation_convergence": 3.2,
  "geolocation_method": "geolocation grid (bilinear)",
  "geolocation_validation": "holdout at 2x spacing",
  "tiles": 117,
  "tiles_skipped": 0,
  "k_sigma": 6.0,
  "land_masked": true,
  "water_fraction": 0.677,
  "land_sea_contrast": 2.76,
  "coast_blind_m": 605.0,
  "searched_km2": 28456.4,
  "refused_km2": 0.0,
  "tiles_without_water": 21,
  "outside_aoi": 0,
  "aoi_sea": [
   -77.2,
   36.0,
   -71.0,
   39.6
  ],
  "footprint": [
   [
    -76.22148,
    36.42872
   ],
   [
    -75.98755,
    36.46464
   ],
   [
    -75.75339,
    36.50012
   ],
   [
    -75.51901,
    36.53516
   ],
   [
    -75.28441,
    36.56971
   ],
   [
    -75.04961,
    36.60381
   ],
   [
    -74.81461,
    36.63747
   ],
   [
    -74.57939,
    36.67063
   ],
   [
    -74.34398,
    36.70335
   ],
   [
    -74.10838,
    36.73562
   ],
   [
    -73.87256,
    36.76738
   ],
   [
    -73.63657,
    36.7987
   ],
   [
    -73.40039,
    36.82957
   ],
   [
    -73.42592,
    36.95473
   ],
   [
    -73.45148,
    37.0799
   ],
   [
    -73.47706,
    37.20506
   ],
   [
    -73.50266,
    37.33022
   ],
   [
    -73.5283,
    37.45537
   ],
   [
    -73.55396,
    37.58052
   ],
   [
    -73.57964,
    37.70566
   ],
   [
    -73.60533,
    37.8308
   ],
   [
    -73.63104,
    37.95594
   ],
   [
    -73.65679,
    38.08107
   ],
   [
    -73.68255,
    38.2062
   ],
   [
    -73.70834,
    38.33133
   ],
   [
    -73.94937,
    38.30074
   ],
   [
    -74.1902,
    38.26967
   ],
   [
    -74.43084,
    38.23813
   ],
   [
    -74.67125,
    38.20606
   ],
   [
    -74.91145,
    38.17352
   ],
   [
    -75.15145,
    38.14051
   ],
   [
    -75.39112,
    38.10698
   ],
   [
    -75.63065,
    38.07298
   ],
   [
    -75.87011,
    38.03848
   ],
   [
    -76.10921,
    38.00348
   ],
   [
    -76.34798,
    37.96803
   ],
   [
    -76.58618,
    37.93217
   ],
   [
    -76.55565,
    37.8069
   ],
   [
    -76.52518,
    37.68161
   ],
   [
    -76.49454,
    37.55635
   ],
   [
    -76.46404,
    37.43107
   ],
   [
    -76.43362,
    37.30579
   ],
   [
    -76.40317,
    37.18051
   ],
   [
    -76.37249,
    37.05526
   ],
   [
    -76.34198,
    36.93
   ],
   [
    -76.31198,
    36.80466
   ],
   [
    -76.28178,
    36.67935
   ],
   [
    -76.2516,
    36.55404
   ]
  ],
  "searched_grid": {
   "cell_deg": 0.01,
   "lon0": -76.13,
   "lat0": 36.53,
   "levels": 10,
   "rows": {
    "0": [
     [
      61,
      1,
      4
     ],
     [
      62,
      3,
      10
     ]
    ],
    "1": [
     [
      61,
      1,
      8
     ],
     [
      62,
      9,
      10
     ]
    ],
    "2": [
     [
      57,
      1,
      2
     ],
     [
      58,
      1,
      1
     ],
     [
      60,
      1,
      2
     ],
     [
      61,
      1,
      9
     ],
     [
      62,
      16,
      10
     ]
    ],
    "3": [
     [
      61,
      1,
      7
     ],
     [
      62,
      23,
      10
     ]
    ],
    "4": [
     [
      61,
      31,
      10
     ]
    ],
    "5": [
     [
      60,
      1,
      2
     ],
     [
      61,
      38,
      10
     ]
    ],
    "6": [
     [
      60,
      1,
      1
     ],
     [
      61,
      1,
      4
     ],
     [
      62,
      2,
      3
     ],
     [
      64,
      1,
      8
     ],
     [
      65,
      41,
      10
     ]
    ],
    "7": [
     [
      65,
      1,
      9
     ],
     [
      66,
      47,
      10
     ]
    ],
    "8": [
     [
      65,
      1,
      2
     ],
     [
      66,
      1,
      6
     ],
     [
      67,
      1,
      4
     ],
     [
      68,
      1,
      8
     ],
     [
      69,
      51,
      10
     ]
    ],
    "9": [
     [
      66,
      1,
      1
     ],
     [
      68,
      1,
      4
     ],
     [
      69,
      58,
      10
     ]
    ],
    "10": [
     [
      67,
      1,
      1
     ],
     [
      68,
      1,
      2
     ],
     [
      69,
      1,
      8
     ],
     [
      70,
      64,
      10
     ]
    ],
    "11": [
     [
      67,
      2,
      1
     ],
     [
      69,
      1,
      2
     ],
     [
      70,
      1,
      9
     ],
     [
      71,
      70,
      10
     ]
    ],
    "12": [
     [
      70,
      1,
      6
     ],
     [
      71,
      77,
      10
     ]
    ],
    "13": [
     [
      65,
      1,
      1
     ],
     [
      68,
      1,
      1
     ],
     [
      69,
      1,
      2
     ],
     [
      70,
      1,
      8
     ],
     [
      71,
      84,
      10
     ]
    ],
    "14": [
     [
      65,
      1,
      3
     ],
     [
      66,
      1,
      5
     ],
     [
      67,
      1,
      7
     ],
     [
      68,
      1,
      8
     ],
     [
      69,
      93,
      10
     ]
    ],
    "15": [
     [
      66,
      1,
      9
     ],
     [
      67,
      3,
      10
     ],
     [
      70,
      1,
      6
     ],
     [
      71,
      1,
      3
     ],
     [
      72,
      1,
      8
     ],
     [
      73,
      96,
      10
     ]
    ],
    "16": [
     [
      67,
      1,
      8
     ],
     [
      68,
      1,
      2
     ],
     [
      69,
      1,
      10
     ],
     [
      70,
      2,
      1
     ],
     [
      72,
      104,
      10
     ]
    ],
    "17": [
     [
      63,
      1,
      1
     ],
     [
      65,
      1,
      2
     ],
     [
      66,
      1,
      4
     ],
     [
      69,
      1,
      6
     ],
     [
      71,
      1,
      1
     ],
     [
      72,
      112,
      10
     ]
    ],
    "18": [
     [
      65,
      1,
      6
     ],
     [
      66,
      1,
      9
     ],
     [
      67,
      1,
      4
     ],
     [
      68,
      1,
      2
     ],
     [
      69,
      1,
      7
     ],
     [
      70,
      1,
      3
     ],
     [
      71,
      1,
      7
     ],
     [
      72,
      119,
      10
     ]
    ],
    "19": [
     [
      65,
      1,
      5
     ],
     [
      66,
      1,
      10
     ],
     [
      67,
      1,
      9
     ],
     [
      68,
      1,
      6
     ],
     [
      69,
      129,
      10
     ]
    ],
    "20": [
     [
      63,
      1,
      1
     ],
     [
      64,
      1,
      3
     ],
     [
      65,
      1,
      7
     ],
     [
      66,
      140,
      10
     ]
    ],
    "21": [
     [
      64,
      1,
      1
     ],
     [
      65,
      1,
      6
     ],
     [
      66,
      147,
      10
     ]
    ],
    "22": [
     [
      65,
      1,
      2
     ],
     [
      66,
      1,
      8
     ],
     [
      67,
      154,
      10
     ]
    ],
    "23": [
     [
      66,
      1,
      2
     ],
     [
      67,
      1,
      4
     ],
     [
      68,
      1,
      5
     ],
     [
      69,
      1,
      10
     ],
     [
      70,
      1,
      6
     ],
     [
      71,
      1,
      4
     ],
     [
      72,
      1,
      8
     ],
     [
      73,
      155,
      10
     ]
    ],
    "24": [
     [
      69,
      2,
      3
     ],
     [
      71,
      1,
      2
     ],
     [
      73,
      1,
      9
     ],
     [
      74,
      3,
      10
     ],
     [
      77,
      1,
      3
     ],
     [
      79,
      1,
      7
     ],
     [
      80,
      155,
      10
     ]
    ],
    "25": [
     [
      70,
      1,
      1
     ],
     [
      71,
      1,
      7
     ],
     [
      72,
      1,
      6
     ],
     [
      73,
      4,
      10
     ],
     [
      77,
      3,
      6
     ],
     [
      80,
      2,
      7
     ],
     [
      82,
      161,
      10
     ]
    ],
    "26": [
     [
      71,
      1,
      8
     ],
     [
      72,
      1,
      7
     ],
     [
      73,
      1,
      6
     ],
     [
      74,
      1,
      9
     ],
     [
      75,
      3,
      10
     ],
     [
      78,
      1,
      5
     ],
     [
      81,
      1,
      1
     ],
     [
      82,
      169,
      10
     ]
    ],
    "27": [
     [
      71,
      1,
      8
     ],
     [
      74,
      1,
      6
     ],
     [
      75,
      3,
      10
     ],
     [
      78,
      1,
      7
     ],
     [
      82,
      1,
      8
     ],
     [
      83,
      175,
      10
     ]
    ],
    "28": [
     [
      66,
      1,
      1
     ],
     [
      68,
      1,
      1
     ],
     [
      70,
      1,
      4
     ],
     [
      71,
      1,
      9
     ],
     [
      72,
      1,
      6
     ],
     [
      73,
      1,
      3
     ],
     [
      74,
      2,
      4
     ],
     [
      76,
      1,
      6
     ],
     [
      77,
      1,
      10
     ],
     [
      78,
      1,
      9
     ],
     [
      79,
      1,
      6
     ],
     [
      80,
      1,
      5
     ],
     [
      81,
      1,
      3
     ],
     [
      82,
      1,
      9
     ],
     [
      83,
      183,
      10
     ]
    ],
    "29": [
     [
      69,
      1,
      2
     ],
     [
      70,
      1,
      9
     ],
     [
      71,
      2,
      6
     ],
     [
      73,
      1,
      10
     ],
     [
      74,
      1,
      7
     ],
     [
      75,
      1,
      1
     ],
     [
      78,
      1,
      1
     ],
     [
      79,
      1,
      3
     ],
     [
      80,
      188,
      10
     ],
     [
      268,
      1,
      3
     ]
    ],
    "30": [
     [
      63,
      1,
      3
     ],
     [
      64,
      1,
      1
     ],
     [
      67,
      1,
      1
     ],
     [
      68,
      1,
      4
     ],
     [
      69,
      1,
      6
     ],
     [
      70,
      1,
      7
     ],
     [
      72,
      1,
      5
     ],
     [
      73,
      3,
      10
     ],
     [
      76,
      1,
      9
     ],
     [
      77,
      1,
      3
     ],
     [
      79,
      1,
      3
     ],
     [
      80,
      188,
      10
     ]
    ],
    "31": [
     [
      63,
      1,
      1
     ],
     [
      66,
      1,
      3
     ],
     [
      67,
      1,
      9
     ],
     [
      68,
      1,
      10
     ],
     [
      69,
      3,
      6
     ],
     [
      72,
      1,
      2
     ],
     [
      73,
      1,
      8
     ],
     [
      74,
      3,
      10
     ],
     [
      77,
      1,
      7
     ],
     [
      78,
      1,
      2
     ],
     [
      79,
      1,
      8
     ],
     [
      80,
      187,
      10
     ],
     [
      267,
      1,
      9
     ]
    ],
    "32": [
     [
      61,
      1,
      2
     ],
     [
      67,
      2,
      6
     ],
     [
      69,
      1,
      1
     ],
     [
      71,
      1,
      8
     ],
     [
      73,
      1,
      4
     ],
     [
      74,
      1,
      1
     ],
     [
      75,
      1,
      7
     ],
     [
      76,
      191,
      10
     ],
     [
      267,
      1,
      7
     ]
    ],
    "33": [
     [
      68,
      1,
      1
     ],
     [
      70,
      1,
      10
     ],
     [
      74,
      1,
      7
     ],
     [
      75,
      192,
      10
     ],
     [
      267,
      1,
      5
     ]
    ],
    "34": [
     [
      57,
      1,
      1
     ],
     [
      58,
      1,
      8
     ],
     [
      59,
      1,
      7
     ],
     [
      60,
      1,
      1
     ],
     [
      65,
      1,
      2
     ],
     [
      66,
      1,
      3
     ],
     [
      67,
      1,
      2
     ],
     [
      68,
      1,
      5
     ],
     [
      69,
      1,
      4
     ],
     [
      70,
      1,
      7
     ],
     [
      72,
      1,
      1
     ],
     [
      73,
      1,
      5
     ],
     [
      74,
      193,
      10
     ],
     [
      267,
      1,
      3
     ]
    ],
    "35": [
     [
      57,
      1,
      5
     ],
     [
      58,
      1,
      2
     ],
     [
      59,
      1,
      3
     ],
     [
      60,
      1,
      7
     ],
     [
      64,
      1,
      1
     ],
     [
      65,
      1,
      9
     ],
     [
      66,
      3,
      10
     ],
     [
      69,
      1,
      7
     ],
     [
      74,
      1,
      8
     ],
     [
      75,
      192,
      10
     ]
    ],
    "36": [
     [
      57,
      1,
      5
     ],
     [
      59,
      1,
      2
     ],
     [
      60,
      1,
      9
     ],
     [
      61,
      1,
      1
     ],
     [
      65,
      1,
      1
     ],
     [
      66,
      1,
      8
     ],
     [
      67,
      4,
      10
     ],
     [
      71,
      1,
      8
     ],
     [
      72,
      1,
      2
     ],
     [
      74,
      1,
      2
     ],
     [
      75,
      191,
      10
     ],
     [
      266,
      1,
      9
     ]
    ],
    "37": [
     [
      58,
      2,
      4
     ],
     [
      60,
      1,
      8
     ],
     [
      65,
      1,
      1
     ],
     [
      66,
      1,
      8
     ],
     [
      67,
      1,
      3
     ],
     [
      68,
      2,
      6
     ],
     [
      70,
      1,
      8
     ],
     [
      71,
      1,
      10
     ],
     [
      72,
      2,
      8
     ],
     [
      74,
      1,
      7
     ],
     [
      75,
      191,
      10
     ],
     [
      266,
      1,
      7
     ]
    ],
    "38": [
     [
      57,
      1,
      1
     ],
     [
      60,
      1,
      1
     ],
     [
      62,
      1,
      4
     ],
     [
      64,
      1,
      1
     ],
     [
      65,
      1,
      2
     ],
     [
      66,
      1,
      4
     ],
     [
      71,
      1,
      3
     ],
     [
      72,
      194,
      10
     ],
     [
      266,
      1,
      3
     ]
    ],
    "39": [
     [
      63,
      1,
      1
     ],
     [
      66,
      1,
      6
     ],
     [
      67,
      1,
      8
     ],
     [
      68,
      1,
      2
     ],
     [
      69,
      2,
      3
     ],
     [
      71,
      1,
      1
     ],
     [
      72,
      194,
      10
     ],
     [
      266,
      1,
      3
     ]
    ],
    "40": [
     [
      63,
      1,
      4
     ],
     [
      64,
      1,
      5
     ],
     [
      65,
      1,
      9
     ],
     [
      66,
      2,
      10
     ],
     [
      68,
      1,
      2
     ],
     [
      69,
      1,
      1
     ],
     [
      70,
      1,
      8
     ],
     [
      71,
      195,
      10
     ]
    ],
    "41": [
     [
      58,
      1,
      1
     ],
     [
      62,
      1,
      1
     ],
     [
      63,
      1,
      8
     ],
     [
      64,
      5,
      10
     ],
     [
      69,
      1,
      8
     ],
     [
      71,
      1,
      1
     ],
     [
      72,
      193,
      10
     ],
     [
      265,
      1,
      9
     ]
    ],
    "42": [
     [
      65,
      1,
      4
     ],
     [
      66,
      1,
      8
     ],
     [
      67,
      2,
      10
     ],
     [
      69,
      1,
      5
     ],
     [
      71,
      1,
      6
     ],
     [
      72,
      193,
      10
     ],
     [
      265,
      1,
      6
     ]
    ],
    "43": [
     [
      62,
      1,
      1
     ],
     [
      63,
      1,
      2
     ],
     [
      67,
      1,
      3
     ],
     [
      68,
      1,
      10
     ],
     [
      69,
      1,
      2
     ],
     [
      71,
      1,
      3
     ],
     [
      72,
      193,
      10
     ],
     [
      265,
      1,
      4
     ]
    ],
    "44": [
     [
      63,
      1,
      1
     ],
     [
      66,
      1,
      3
     ],
     [
      67,
      1,
      6
     ],
     [
      68,
      1,
      5
     ],
     [
      69,
      1,
      6
     ],
     [
      70,
      1,
      7
     ],
     [
      71,
      1,
      8
     ],
     [
      72,
      193,
      10
     ],
     [
      265,
      1,
      3
     ]
    ],
    "45": [
     [
      64,
      1,
      5
     ],
     [
      65,
      1,
      9
     ],
     [
      66,
      1,
      10
     ],
     [
      67,
      1,
      2
     ],
     [
      69,
      1,
      8
     ],
     [
      70,
      195,
      10
     ]
    ],
    "46": [
     [
      56,
      1,
      1
     ],
     [
      62,
      1,
      1
     ],
     [
      63,
      1,
      10
     ],
     [
      64,
      1,
      3
     ],
     [
      65,
      1,
      9
     ],
     [
      66,
      1,
      10
     ],
     [
      67,
      2,
      7
     ],
     [
      69,
      5,
      10
     ],
     [
      74,
      1,
      7
     ],
     [
      75,
      1,
      6
     ],
     [
      76,
      1,
      9
     ],
     [
      77,
      187,
      10
     ],
     [
      264,
      1,
      8
     ]
    ],
    "47": [
     [
      24,
      1,
      1
     ],
     [
      47,
      1,
      1
     ],
     [
      54,
      1,
      7
     ],
     [
      55,
      1,
      9
     ],
     [
      56,
      2,
      10
     ],
     [
      58,
      1,
      6
     ],
     [
      61,
      1,
      2
     ],
     [
      63,
      1,
      2
     ],
     [
      66,
      7,
      10
     ],
     [
      73,
      1,
      7
     ],
     [
      76,
      1,
      7
     ],
     [
      77,
      187,
      10
     ],
     [
      264,
      1,
      7
     ]
    ],
    "48": [
     [
      24,
      1,
      1
     ],
     [
      25,
      1,
      2
     ],
     [
      27,
      1,
      1
     ],
     [
      28,
      1,
      3
     ],
     [
      49,
      1,
      2
     ],
     [
      51,
      2,
      1
     ],
     [
      54,
      1,
      9
     ],
     [
      55,
      4,
      10
     ],
     [
      59,
      1,
      1
     ],
     [
      64,
      1,
      5
     ],
     [
      65,
      1,
      8
     ],
     [
      66,
      7,
      10
     ],
     [
      73,
      1,
      9
     ],
     [
      74,
      1,
      5
     ],
     [
      75,
      1,
      8
     ],
     [
      76,
      188,
      10
     ],
     [
      264,
      1,
      4
     ]
    ],
    "49": [
     [
      22,
      1,
      5
     ],
     [
      23,
      1,
      10
     ],
     [
      24,
      1,
      9
     ],
     [
      25,
      1,
      1
     ],
     [
      28,
      1,
      8
     ],
     [
      29,
      1,
      4
     ],
     [
      30,
      1,
      1
     ],
     [
      49,
      1,
      2
     ],
     [
      51,
      1,
      7
     ],
     [
      52,
      1,
      5
     ],
     [
      53,
      1,
      1
     ],
     [
      54,
      1,
      10
     ],
     [
      55,
      1,
      9
     ],
     [
      56,
      1,
      7
     ],
     [
      57,
      2,
      10
     ],
     [
      62,
      1,
      4
     ],
     [
      63,
      1,
      6
     ],
     [
      64,
      200,
      10
     ],
     [
      264,
      1,
      2
     ]
    ],
    "50": [
     [
      23,
      1,
      5
     ],
     [
      24,
      1,
      7
     ],
     [
      28,
      1,
      3
     ],
     [
      29,
      1,
      1
     ],
     [
      46,
      1,
      1
     ],
     [
      51,
      1,
      2
     ],
     [
      53,
      1,
      3
     ],
     [
      54,
      1,
      7
     ],
     [
      55,
      1,
      3
     ],
     [
      57,
      1,
      7
     ],
     [
      58,
      1,
      2
     ],
     [
      60,
      1,
      1
     ],
     [
      61,
      1,
      4
     ],
     [
      62,
      7,
      10
     ],
     [
      69,
      2,
      4
     ],
     [
      71,
      1,
      9
     ],
     [
      72,
      192,
      10
     ]
    ],
    "51": [
     [
      23,
      1,
      1
     ],
     [
      24,
      1,
      4
     ],
     [
      29,
      1,
      3
     ],
     [
      44,
      1,
      1
     ],
     [
      51,
      1,
      2
     ],
     [
      52,
      1,
      1
     ],
     [
      59,
      1,
      1
     ],
     [
      60,
      1,
      7
     ],
     [
      61,
      8,
      10
     ],
     [
      69,
      2,
      1
     ],
     [
      71,
      192,
      10
     ],
     [
      263,
      1,
      8
     ]
    ],
    "52": [
     [
      48,
      1,
      1
     ],
     [
      51,
      1,
      9
     ],
     [
      52,
      1,
      7
     ],
     [
      53,
      1,
      10
     ],
     [
      54,
      1,
      3
     ],
     [
      56,
      1,
      1
     ],
     [
      57,
      1,
      2
     ],
     [
      58,
      1,
      5
     ],
     [
      59,
      10,
      10
     ],
     [
      69,
      1,
      7
     ],
     [
      70,
      1,
      9
     ],
     [
      71,
      192,
      10
     ],
     [
      263,
      1,
      6
     ]
    ],
    "53": [
     [
      24,
      1,
      1
     ],
     [
      29,
      1,
      1
     ],
     [
      48,
      1,
      4
     ],
     [
      49,
      1,
      10
     ],
     [
      50,
      1,
      8
     ],
     [
      51,
      1,
      2
     ],
     [
      53,
      1,
      7
     ],
     [
      54,
      1,
      9
     ],
     [
      58,
      1,
      6
     ],
     [
      59,
      204,
      10
     ],
     [
      263,
      1,
      3
     ]
    ],
    "54": [
     [
      29,
      1,
      1
     ],
     [
      50,
      1,
      2
     ],
     [
      52,
      1,
      3
     ],
     [
      53,
      2,
      10
     ],
     [
      58,
      1,
      7
     ],
     [
      59,
      204,
      10
     ],
     [
      263,
      1,
      1
     ]
    ],
    "55": [
     [
      50,
      1,
      1
     ],
     [
      51,
      1,
      3
     ],
     [
      52,
      1,
      7
     ],
     [
      53,
      1,
      9
     ],
     [
      54,
      1,
      8
     ],
     [
      57,
      1,
      3
     ],
     [
      58,
      4,
      10
     ],
     [
      62,
      2,
      9
     ],
     [
      64,
      2,
      10
     ],
     [
      66,
      1,
      3
     ],
     [
      67,
      1,
      5
     ],
     [
      69,
      1,
      5
     ],
     [
      70,
      193,
      10
     ]
    ],
    "56": [
     [
      48,
      1,
      1
     ],
     [
      51,
      1,
      2
     ],
     [
      52,
      1,
      6
     ],
     [
      56,
      1,
      4
     ],
     [
      57,
      1,
      9
     ],
     [
      58,
      3,
      10
     ],
     [
      61,
      1,
      7
     ],
     [
      64,
      1,
      6
     ],
     [
      65,
      1,
      10
     ],
     [
      66,
      1,
      3
     ],
     [
      67,
      1,
      4
     ],
     [
      69,
      1,
      2
     ],
     [
      70,
      192,
      10
     ],
     [
      262,
      1,
      7
     ]
    ],
    "57": [
     [
      53,
      1,
      6
     ],
     [
      54,
      1,
      2
     ],
     [
      55,
      1,
      7
     ],
     [
      56,
      1,
      8
     ],
     [
      57,
      2,
      10
     ],
     [
      59,
      1,
      7
     ],
     [
      60,
      1,
      3
     ],
     [
      64,
      1,
      2
     ],
     [
      65,
      3,
      10
     ],
     [
      68,
      2,
      8
     ],
     [
      70,
      192,
      10
     ],
     [
      262,
      1,
      5
     ]
    ],
    "58": [
     [
      33,
      1,
      2
     ],
     [
      53,
      1,
      2
     ],
     [
      56,
      1,
      2
     ],
     [
      57,
      1,
      5
     ],
     [
      58,
      1,
      7
     ],
     [
      59,
      1,
      1
     ],
     [
      62,
      1,
      5
     ],
     [
      63,
      199,
      10
     ],
     [
      262,
      1,
      4
     ]
    ],
    "59": [
     [
      31,
      1,
      7
     ],
     [
      32,
      1,
      10
     ],
     [
      33,
      1,
      6
     ],
     [
      34,
      1,
      1
     ],
     [
      56,
      1,
      1
     ],
     [
      58,
      1,
      3
     ],
     [
      60,
      1,
      3
     ],
     [
      61,
      1,
      9
     ],
     [
      62,
      200,
      10
     ]
    ],
    "60": [
     [
      32,
      1,
      9
     ],
     [
      33,
      1,
      6
     ],
     [
      52,
      1,
      2
     ],
     [
      54,
      1,
      4
     ],
     [
      57,
      1,
      2
     ],
     [
      59,
      1,
      4
     ],
     [
      60,
      202,
      10
     ]
    ],
    "61": [
     [
      32,
      1,
      7
     ],
     [
      33,
      1,
      10
     ],
     [
      34,
      1,
      1
     ],
     [
      52,
      1,
      8
     ],
     [
      54,
      1,
      3
     ],
     [
      55,
      1,
      6
     ],
     [
      59,
      1,
      4
     ],
     [
      60,
      201,
      10
     ],
     [
      261,
      1,
      6
     ]
    ],
    "62": [
     [
      35,
      1,
      2
     ],
     [
      52,
      1,
      5
     ],
     [
      54,
      1,
      1
     ],
     [
      55,
      1,
      6
     ],
     [
      56,
      1,
      4
     ],
     [
      57,
      1,
      2
     ],
     [
      58,
      1,
      3
     ],
     [
      59,
      1,
      9
     ],
     [
      60,
      201,
      10
     ],
     [
      261,
      1,
      5
     ]
    ],
    "63": [
     [
      35,
      2,
      2
     ],
     [
      49,
      1,
      1
     ],
     [
      50,
      1,
      2
     ],
     [
      54,
      1,
      1
     ],
     [
      55,
      1,
      4
     ],
     [
      56,
      14,
      10
     ],
     [
      70,
      1,
      8
     ],
     [
      71,
      1,
      9
     ],
     [
      72,
      189,
      10
     ],
     [
      261,
      1,
      3
     ]
    ],
    "64": [
     [
      36,
      1,
      10
     ],
     [
      37,
      1,
      1
     ],
     [
      47,
      1,
      5
     ],
     [
      49,
      1,
      1
     ],
     [
      50,
      1,
      2
     ],
     [
      55,
      1,
      3
     ],
     [
      56,
      14,
      10
     ],
     [
      70,
      1,
      2
     ],
     [
      72,
      1,
      6
     ],
     [
      73,
      188,
      10
     ]
    ],
    "65": [
     [
      47,
      1,
      1
     ],
     [
      52,
      2,
      6
     ],
     [
      55,
      1,
      1
     ],
     [
      56,
      1,
      4
     ],
     [
      57,
      13,
      10
     ],
     [
      70,
      1,
      9
     ],
     [
      71,
      1,
      8
     ],
     [
      72,
      1,
      9
     ],
     [
      73,
      187,
      10
     ],
     [
      260,
      1,
      9
     ]
    ],
    "66": [
     [
      38,
      1,
      1
     ],
     [
      52,
      1,
      9
     ],
     [
      53,
      1,
      10
     ],
     [
      54,
      1,
      7
     ],
     [
      55,
      2,
      4
     ],
     [
      57,
      9,
      10
     ],
     [
      66,
      1,
      8
     ],
     [
      67,
      1,
      9
     ],
     [
      68,
      192,
      10
     ],
     [
      260,
      1,
      7
     ]
    ],
    "67": [
     [
      39,
      1,
      1
     ],
     [
      49,
      1,
      2
     ],
     [
      50,
      1,
      5
     ],
     [
      53,
      3,
      10
     ],
     [
      58,
      1,
      9
     ],
     [
      59,
      7,
      10
     ],
     [
      66,
      1,
      2
     ],
     [
      68,
      1,
      9
     ],
     [
      69,
      191,
      10
     ],
     [
      260,
      1,
      4
     ]
    ],
    "68": [
     [
      39,
      1,
      6
     ],
     [
      40,
      1,
      4
     ],
     [
      42,
      1,
      1
     ],
     [
      49,
      1,
      6
     ],
     [
      50,
      1,
      7
     ],
     [
      52,
      1,
      5
     ],
     [
      53,
      2,
      10
     ],
     [
      55,
      1,
      8
     ],
     [
      56,
      2,
      5
     ],
     [
      58,
      8,
      10
     ],
     [
      66,
      1,
      5
     ],
     [
      68,
      1,
      9
     ],
     [
      69,
      191,
      10
     ],
     [
      260,
      1,
      3
     ]
    ],
    "69": [
     [
      41,
      1,
      1
     ],
     [
      42,
      1,
      4
     ],
     [
      51,
      1,
      2
     ],
     [
      52,
      1,
      9
     ],
     [
      53,
      14,
      10
     ],
     [
      67,
      1,
      7
     ],
     [
      68,
      192,
      10
     ]
    ],
    "70": [
     [
      40,
      1,
      2
     ],
     [
      41,
      1,
      8
     ],
     [
      42,
      1,
      10
     ],
     [
      43,
      1,
      6
     ],
     [
      50,
      2,
      5
     ],
     [
      53,
      206,
      10
     ],
     [
      259,
      1,
      9
     ]
    ],
    "71": [
     [
      34,
      1,
      1
     ],
     [
      35,
      1,
      2
     ],
     [
      41,
      1,
      1
     ],
     [
      42,
      1,
      8
     ],
     [
      43,
      1,
      10
     ],
     [
      44,
      1,
      3
     ],
     [
      52,
      1,
      2
     ],
     [
      53,
      1,
      6
     ],
     [
      54,
      1,
      5
     ],
     [
      55,
      1,
      3
     ],
     [
      56,
      2,
      10
     ],
     [
      58,
      1,
      8
     ],
     [
      59,
      10,
      10
     ],
     [
      69,
      1,
      6
     ],
     [
      70,
      1,
      9
     ],
     [
      71,
      188,
      10
     ],
     [
      259,
      1,
      7
     ]
    ],
    "72": [
     [
      37,
      1,
      1
     ],
     [
      42,
      1,
      2
     ],
     [
      43,
      1,
      10
     ],
     [
      44,
      1,
      7
     ],
     [
      56,
      1,
      7
     ],
     [
      57,
      1,
      4
     ],
     [
      59,
      1,
      2
     ],
     [
      60,
      5,
      10
     ],
     [
      65,
      1,
      5
     ],
     [
      66,
      1,
      9
     ],
     [
      67,
      1,
      10
     ],
     [
      68,
      1,
      7
     ],
     [
      70,
      1,
      5
     ],
     [
      71,
      188,
      10
     ],
     [
      259,
      1,
      4
     ]
    ],
    "73": [
     [
      43,
      1,
      8
     ],
     [
      44,
      1,
      10
     ],
     [
      55,
      1,
      2
     ],
     [
      58,
      2,
      1
     ],
     [
      60,
      1,
      7
     ],
     [
      61,
      3,
      10
     ],
     [
      64,
      1,
      9
     ],
     [
      66,
      1,
      4
     ],
     [
      67,
      1,
      10
     ],
     [
      68,
      1,
      8
     ],
     [
      69,
      1,
      2
     ],
     [
      70,
      1,
      7
     ],
     [
      71,
      188,
      10
     ],
     [
      259,
      1,
      3
     ]
    ],
    "74": [
     [
      39,
      1,
      1
     ],
     [
      40,
      1,
      7
     ],
     [
      41,
      1,
      5
     ],
     [
      44,
      1,
      10
     ],
     [
      45,
      1,
      4
     ],
     [
      56,
      1,
      1
     ],
     [
      57,
      1,
      4
     ],
     [
      58,
      1,
      2
     ],
     [
      60,
      1,
      9
     ],
     [
      61,
      2,
      10
     ],
     [
      63,
      1,
      1
     ],
     [
      64,
      1,
      2
     ],
     [
      66,
      1,
      3
     ],
     [
      67,
      1,
      9
     ],
     [
      68,
      1,
      8
     ],
     [
      69,
      1,
      9
     ],
     [
      70,
      189,
      10
     ]
    ],
    "75": [
     [
      38,
      1,
      4
     ],
     [
      39,
      1,
      8
     ],
     [
      40,
      1,
      1
     ],
     [
      41,
      2,
      2
     ],
     [
      44,
      1,
      3
     ],
     [
      45,
      2,
      2
     ],
     [
      57,
      1,
      7
     ],
     [
      59,
      1,
      1
     ],
     [
      60,
      3,
      10
     ],
     [
      63,
      1,
      5
     ],
     [
      64,
      1,
      6
     ],
     [
      67,
      1,
      7
     ],
     [
      69,
      1,
      2
     ],
     [
      70,
      188,
      10
     ],
     [
      258,
      1,
      9
     ]
    ],
    "76": [
     [
      36,
      1,
      2
     ],
     [
      37,
      1,
      8
     ],
     [
      38,
      2,
      9
     ],
     [
      40,
      1,
      4
     ],
     [
      41,
      1,
      5
     ],
     [
      42,
      1,
      9
     ],
     [
      43,
      1,
      2
     ],
     [
      45,
      1,
      4
     ],
     [
      46,
      1,
      6
     ],
     [
      47,
      1,
      1
     ],
     [
      60,
      1,
      2
     ],
     [
      61,
      2,
      10
     ],
     [
      63,
      1,
      3
     ],
     [
      64,
      1,
      1
     ],
     [
      65,
      1,
      2
     ],
     [
      66,
      1,
      6
     ],
     [
      67,
      1,
      10
     ],
     [
      68,
      1,
      7
     ],
     [
      69,
      1,
      8
     ],
     [
      70,
      188,
      10
     ],
     [
      258,
      1,
      6
     ]
    ],
    "77": [
     [
      36,
      1,
      1
     ],
     [
      37,
      5,
      10
     ],
     [
      42,
      1,
      7
     ],
     [
      44,
      1,
      9
     ],
     [
      45,
      1,
      10
     ],
     [
      46,
      1,
      6
     ],
     [
      48,
      1,
      2
     ],
     [
      62,
      1,
      5
     ],
     [
      65,
      1,
      1
     ],
     [
      66,
      1,
      7
     ],
     [
      67,
      1,
      9
     ],
     [
      68,
      190,
      10
     ],
     [
      258,
      1,
      4
     ]
    ],
    "78": [
     [
      37,
      1,
      4
     ],
     [
      38,
      8,
      10
     ],
     [
      47,
      1,
      1
     ],
     [
      48,
      1,
      9
     ],
     [
      49,
      1,
      4
     ],
     [
      52,
      1,
      2
     ],
     [
      58,
      2,
      2
     ],
     [
      68,
      1,
      5
     ],
     [
      69,
      189,
      10
     ],
     [
      258,
      1,
      2
     ]
    ],
    "79": [
     [
      38,
      1,
      9
     ],
     [
      39,
      7,
      10
     ],
     [
      46,
      1,
      3
     ],
     [
      48,
      1,
      3
     ],
     [
      49,
      1,
      8
     ],
     [
      50,
      1,
      3
     ],
     [
      51,
      1,
      1
     ],
     [
      58,
      1,
      3
     ],
     [
      59,
      1,
      8
     ],
     [
      61,
      1,
      4
     ],
     [
      64,
      1,
      4
     ],
     [
      68,
      1,
      1
     ],
     [
      69,
      1,
      6
     ],
     [
      70,
      188,
      10
     ]
    ],
    "80": [
     [
      40,
      1,
      8
     ],
     [
      41,
      5,
      10
     ],
     [
      46,
      1,
      8
     ],
     [
      47,
      1,
      4
     ],
     [
      48,
      1,
      6
     ],
     [
      49,
      3,
      10
     ],
     [
      52,
      1,
      1
     ],
     [
      54,
      1,
      2
     ],
     [
      61,
      2,
      6
     ],
     [
      69,
      3,
      6
     ],
     [
      72,
      185,
      10
     ],
     [
      257,
      1,
      8
     ]
    ],
    "81": [
     [
      41,
      1,
      3
     ],
     [
      42,
      1,
      7
     ],
     [
      43,
      6,
      10
     ],
     [
      49,
      1,
      9
     ],
     [
      50,
      1,
      6
     ],
     [
      51,
      1,
      5
     ],
     [
      52,
      1,
      3
     ],
     [
      53,
      1,
      1
     ],
     [
      54,
      1,
      2
     ],
     [
      68,
      1,
      3
     ],
     [
      69,
      1,
      9
     ],
     [
      70,
      1,
      4
     ],
     [
      72,
      1,
      9
     ],
     [
      73,
      184,
      10
     ],
     [
      257,
      1,
      7
     ]
    ],
    "82": [
     [
      42,
      1,
      1
     ],
     [
      43,
      1,
      4
     ],
     [
      44,
      5,
      10
     ],
     [
      49,
      1,
      5
     ],
     [
      51,
      1,
      3
     ],
     [
      52,
      2,
      8
     ],
     [
      54,
      1,
      7
     ],
     [
      62,
      1,
      2
     ],
     [
      69,
      1,
      1
     ],
     [
      71,
      1,
      5
     ],
     [
      72,
      185,
      10
     ],
     [
      257,
      1,
      5
     ]
    ],
    "83": [
     [
      43,
      1,
      3
     ],
     [
      44,
      6,
      10
     ],
     [
      50,
      1,
      9
     ],
     [
      51,
      3,
      10
     ],
     [
      54,
      1,
      9
     ],
     [
      55,
      1,
      6
     ],
     [
      68,
      1,
      1
     ],
     [
      69,
      1,
      2
     ],
     [
      71,
      1,
      5
     ],
     [
      72,
      185,
      10
     ],
     [
      257,
      1,
      6
     ]
    ],
    "84": [
     [
      43,
      1,
      8
     ],
     [
      44,
      11,
      10
     ],
     [
      55,
      1,
      9
     ],
     [
      56,
      1,
      7
     ],
     [
      57,
      1,
      5
     ],
     [
      64,
      1,
      3
     ],
     [
      70,
      1,
      4
     ],
     [
      71,
      1,
      8
     ],
     [
      72,
      185,
      10
     ],
     [
      257,
      1,
      4
     ]
    ],
    "85": [
     [
      38,
      1,
      1
     ],
     [
      39,
      1,
      2
     ],
     [
      43,
      1,
      4
     ],
     [
      44,
      14,
      10
     ],
     [
      58,
      1,
      6
     ],
     [
      63,
      1,
      5
     ],
     [
      64,
      1,
      9
     ],
     [
      65,
      1,
      1
     ],
     [
      70,
      1,
      4
     ],
     [
      71,
      186,
      10
     ],
     [
      257,
      1,
      1
     ]
    ],
    "86": [
     [
      38,
      1,
      5
     ],
     [
      39,
      1,
      1
     ],
     [
      44,
      1,
      8
     ],
     [
      45,
      14,
      10
     ],
     [
      59,
      1,
      5
     ],
     [
      60,
      1,
      3
     ],
     [
      71,
      1,
      5
     ],
     [
      72,
      185,
      10
     ]
    ],
    "87": [
     [
      37,
      1,
      6
     ],
     [
      38,
      1,
      10
     ],
     [
      39,
      1,
      3
     ],
     [
      41,
      1,
      2
     ],
     [
      44,
      1,
      1
     ],
     [
      45,
      1,
      9
     ],
     [
      46,
      15,
      10
     ],
     [
      61,
      1,
      2
     ],
     [
      72,
      1,
      6
     ],
     [
      73,
      183,
      10
     ],
     [
      256,
      1,
      7
     ]
    ],
    "88": [
     [
      38,
      1,
      4
     ],
     [
      41,
      1,
      5
     ],
     [
      42,
      1,
      1
     ],
     [
      45,
      1,
      2
     ],
     [
      46,
      16,
      10
     ],
     [
      62,
      1,
      8
     ],
     [
      68,
      1,
      3
     ],
     [
      69,
      1,
      8
     ],
     [
      73,
      1,
      7
     ],
     [
      74,
      182,
      10
     ],
     [
      256,
      1,
      7
     ]
    ],
    "89": [
     [
      46,
      1,
      7
     ],
     [
      47,
      16,
      10
     ],
     [
      63,
      1,
      7
     ],
     [
      67,
      1,
      1
     ],
     [
      68,
      1,
      4
     ],
     [
      69,
      1,
      5
     ],
     [
      70,
      1,
      7
     ],
     [
      71,
      1,
      4
     ],
     [
      72,
      1,
      1
     ],
     [
      73,
      1,
      8
     ],
     [
      74,
      182,
      10
     ],
     [
      256,
      1,
      3
     ]
    ],
    "90": [
     [
      37,
      1,
      5
     ],
     [
      38,
      1,
      1
     ],
     [
      47,
      1,
      7
     ],
     [
      48,
      15,
      10
     ],
     [
      63,
      1,
      6
     ],
     [
      69,
      1,
      1
     ],
     [
      70,
      1,
      6
     ],
     [
      71,
      185,
      10
     ],
     [
      256,
      1,
      1
     ]
    ],
    "91": [
     [
      37,
      2,
      1
     ],
     [
      47,
      1,
      4
     ],
     [
      48,
      14,
      10
     ],
     [
      62,
      1,
      9
     ],
     [
      64,
      1,
      3
     ],
     [
      71,
      1,
      2
     ],
     [
      72,
      1,
      9
     ],
     [
      73,
      183,
      10
     ]
    ],
    "92": [
     [
      47,
      1,
      2
     ],
     [
      48,
      1,
      7
     ],
     [
      49,
      1,
      9
     ],
     [
      50,
      12,
      10
     ],
     [
      62,
      1,
      9
     ],
     [
      64,
      1,
      4
     ],
     [
      65,
      1,
      5
     ],
     [
      72,
      1,
      8
     ],
     [
      73,
      182,
      10
     ],
     [
      255,
      1,
      7
     ]
    ],
    "93": [
     [
      49,
      1,
      9
     ],
     [
      50,
      12,
      10
     ],
     [
      62,
      1,
      9
     ],
     [
      63,
      1,
      4
     ],
     [
      64,
      1,
      5
     ],
     [
      65,
      1,
      9
     ],
     [
      66,
      1,
      2
     ],
     [
      70,
      1,
      6
     ],
     [
      71,
      1,
      8
     ],
     [
      72,
      183,
      10
     ],
     [
      255,
      1,
      4
     ]
    ],
    "94": [
     [
      47,
      2,
      5
     ],
     [
      49,
      17,
      10
     ],
     [
      66,
      1,
      8
     ],
     [
      67,
      1,
      3
     ],
     [
      70,
      1,
      8
     ],
     [
      71,
      1,
      5
     ],
     [
      72,
      1,
      4
     ],
     [
      73,
      1,
      8
     ],
     [
      74,
      181,
      10
     ],
     [
      255,
      1,
      3
     ]
    ],
    "95": [
     [
      47,
      1,
      3
     ],
     [
      48,
      13,
      10
     ],
     [
      61,
      1,
      4
     ],
     [
      62,
      1,
      3
     ],
     [
      63,
      1,
      8
     ],
     [
      64,
      4,
      10
     ],
     [
      68,
      1,
      7
     ],
     [
      69,
      2,
      8
     ],
     [
      73,
      1,
      4
     ],
     [
      74,
      181,
      10
     ],
     [
      255,
      1,
      1
     ]
    ],
    "96": [
     [
      48,
      1,
      7
     ],
     [
      49,
      12,
      10
     ],
     [
      61,
      1,
      4
     ],
     [
      62,
      1,
      2
     ],
     [
      63,
      1,
      8
     ],
     [
      64,
      6,
      10
     ],
     [
      70,
      1,
      8
     ],
     [
      73,
      1,
      4
     ],
     [
      74,
      181,
      10
     ]
    ],
    "97": [
     [
      48,
      1,
      1
     ],
     [
      49,
      1,
      8
     ],
     [
      50,
      204,
      10
     ],
     [
      254,
      1,
      6
     ]
    ],
    "98": [
     [
      49,
      1,
      1
     ],
     [
      50,
      204,
      10
     ],
     [
      254,
      1,
      5
     ]
    ],
    "99": [
     [
      50,
      1,
      5
     ],
     [
      51,
      10,
      10
     ],
     [
      61,
      1,
      8
     ],
     [
      62,
      1,
      4
     ],
     [
      63,
      191,
      10
     ],
     [
      254,
      1,
      3
     ]
    ],
    "100": [
     [
      46,
      1,
      1
     ],
     [
      51,
      1,
      7
     ],
     [
      52,
      9,
      10
     ],
     [
      61,
      1,
      2
     ],
     [
      63,
      1,
      6
     ],
     [
      64,
      190,
      10
     ]
    ],
    "101": [
     [
      45,
      1,
      1
     ],
     [
      51,
      1,
      1
     ],
     [
      52,
      1,
      9
     ],
     [
      53,
      8,
      10
     ],
     [
      61,
      1,
      5
     ],
     [
      64,
      1,
      7
     ],
     [
      65,
      188,
      10
     ],
     [
      253,
      1,
      9
     ]
    ],
    "102": [
     [
      45,
      1,
      4
     ],
     [
      52,
      1,
      1
     ],
     [
      53,
      1,
      9
     ],
     [
      54,
      8,
      10
     ],
     [
      62,
      1,
      8
     ],
     [
      64,
      1,
      7
     ],
     [
      65,
      188,
      10
     ],
     [
      253,
      1,
      7
     ]
    ],
    "103": [
     [
      53,
      1,
      1
     ],
     [
      54,
      1,
      4
     ],
     [
      55,
      198,
      10
     ],
     [
      253,
      1,
      5
     ]
    ],
    "104": [
     [
      54,
      1,
      3
     ],
     [
      55,
      198,
      10
     ],
     [
      253,
      1,
      3
     ]
    ],
    "105": [
     [
      53,
      1,
      3
     ],
     [
      54,
      199,
      10
     ]
    ],
    "106": [
     [
      52,
      1,
      4
     ],
     [
      53,
      1,
      8
     ],
     [
      54,
      198,
      10
     ],
     [
      252,
      1,
      9
     ]
    ],
    "107": [
     [
      52,
      1,
      4
     ],
     [
      53,
      199,
      10
     ],
     [
      252,
      1,
      7
     ]
    ],
    "108": [
     [
      49,
      1,
      3
     ],
     [
      52,
      1,
      2
     ],
     [
      53,
      199,
      10
     ],
     [
      252,
      1,
      3
     ]
    ],
    "109": [
     [
      49,
      1,
      1
     ],
     [
      53,
      1,
      6
     ],
     [
      54,
      198,
      10
     ],
     [
      252,
      1,
      3
     ]
    ],
    "110": [
     [
      53,
      1,
      2
     ],
     [
      54,
      198,
      10
     ]
    ],
    "111": [
     [
      54,
      1,
      8
     ],
     [
      55,
      196,
      10
     ],
     [
      251,
      1,
      9
     ]
    ],
    "112": [
     [
      54,
      1,
      5
     ],
     [
      55,
      196,
      10
     ],
     [
      251,
      1,
      6
     ]
    ],
    "113": [
     [
      54,
      1,
      2
     ],
     [
      55,
      196,
      10
     ],
     [
      251,
      1,
      4
     ]
    ],
    "114": [
     [
      25,
      1,
      1
     ],
     [
      54,
      1,
      1
     ],
     [
      55,
      1,
      7
     ],
     [
      56,
      195,
      10
     ],
     [
      251,
      1,
      2
     ]
    ],
    "115": [
     [
      55,
      1,
      2
     ],
     [
      56,
      195,
      10
     ]
    ],
    "116": [
     [
      56,
      1,
      8
     ],
     [
      57,
      193,
      10
     ],
     [
      250,
      1,
      7
     ]
    ],
    "117": [
     [
      56,
      1,
      4
     ],
     [
      57,
      193,
      10
     ],
     [
      250,
      1,
      6
     ]
    ],
    "118": [
     [
      27,
      1,
      3
     ],
     [
      28,
      1,
      1
     ],
     [
      57,
      1,
      9
     ],
     [
      58,
      192,
      10
     ],
     [
      250,
      1,
      4
     ]
    ],
    "119": [
     [
      27,
      1,
      2
     ],
     [
      57,
      1,
      6
     ],
     [
      58,
      192,
      10
     ],
     [
      250,
      1,
      1
     ]
    ],
    "120": [
     [
      22,
      1,
      1
     ],
     [
      57,
      1,
      1
     ],
     [
      58,
      1,
      9
     ],
     [
      59,
      191,
      10
     ]
    ],
    "121": [
     [
      29,
      1,
      2
     ],
     [
      58,
      1,
      1
     ],
     [
      59,
      190,
      10
     ],
     [
      249,
      1,
      7
     ]
    ],
    "122": [
     [
      23,
      1,
      1
     ],
     [
      30,
      1,
      1
     ],
     [
      31,
      1,
      3
     ],
     [
      59,
      1,
      6
     ],
     [
      60,
      189,
      10
     ],
     [
      249,
      1,
      6
     ]
    ],
    "123": [
     [
      59,
      1,
      1
     ],
     [
      60,
      1,
      9
     ],
     [
      61,
      188,
      10
     ],
     [
      249,
      1,
      3
     ]
    ],
    "124": [
     [
      29,
      1,
      2
     ],
     [
      60,
      1,
      4
     ],
     [
      61,
      188,
      10
     ],
     [
      249,
      1,
      1
     ]
    ],
    "125": [
     [
      29,
      1,
      5
     ],
     [
      30,
      1,
      6
     ],
     [
      61,
      1,
      7
     ],
     [
      62,
      187,
      10
     ]
    ],
    "126": [
     [
      29,
      1,
      2
     ],
     [
      30,
      1,
      9
     ],
     [
      31,
      1,
      1
     ],
     [
      62,
      1,
      8
     ],
     [
      63,
      185,
      10
     ],
     [
      248,
      1,
      7
     ]
    ],
    "127": [
     [
      19,
      1,
      1
     ],
     [
      20,
      1,
      2
     ],
     [
      24,
      2,
      1
     ],
     [
      29,
      1,
      1
     ],
     [
      30,
      1,
      9
     ],
     [
      31,
      1,
      10
     ],
     [
      32,
      1,
      4
     ],
     [
      36,
      1,
      1
     ],
     [
      37,
      1,
      7
     ],
     [
      62,
      1,
      2
     ],
     [
      63,
      1,
      8
     ],
     [
      64,
      184,
      10
     ],
     [
      248,
      1,
      4
     ]
    ],
    "128": [
     [
      30,
      1,
      2
     ],
     [
      31,
      2,
      10
     ],
     [
      33,
      1,
      6
     ],
     [
      35,
      1,
      4
     ],
     [
      36,
      1,
      10
     ],
     [
      37,
      1,
      9
     ],
     [
      63,
      1,
      1
     ],
     [
      64,
      1,
      9
     ],
     [
      65,
      183,
      10
     ],
     [
      248,
      1,
      4
     ]
    ],
    "129": [
     [
      25,
      2,
      2
     ],
     [
      31,
      2,
      10
     ],
     [
      33,
      1,
      7
     ],
     [
      35,
      1,
      4
     ],
     [
      36,
      1,
      10
     ],
     [
      37,
      1,
      9
     ],
     [
      38,
      1,
      3
     ],
     [
      39,
      1,
      2
     ],
     [
      40,
      1,
      1
     ],
     [
      64,
      1,
      1
     ],
     [
      65,
      1,
      9
     ],
     [
      66,
      182,
      10
     ]
    ],
    "130": [
     [
      21,
      1,
      1
     ],
     [
      25,
      1,
      3
     ],
     [
      26,
      1,
      1
     ],
     [
      31,
      3,
      10
     ],
     [
      34,
      1,
      1
     ],
     [
      35,
      1,
      7
     ],
     [
      36,
      4,
      10
     ],
     [
      40,
      1,
      8
     ],
     [
      65,
      1,
      1
     ],
     [
      66,
      1,
      8
     ],
     [
      67,
      6,
      10
     ],
     [
      73,
      1,
      9
     ],
     [
      74,
      174,
      10
     ]
    ],
    "131": [
     [
      15,
      1,
      5
     ],
     [
      16,
      1,
      6
     ],
     [
      17,
      1,
      1
     ],
     [
      24,
      1,
      2
     ],
     [
      25,
      1,
      5
     ],
     [
      26,
      1,
      1
     ],
     [
      31,
      1,
      1
     ],
     [
      32,
      1,
      8
     ],
     [
      33,
      7,
      10
     ],
     [
      40,
      1,
      9
     ],
     [
      41,
      1,
      1
     ],
     [
      67,
      1,
      7
     ],
     [
      68,
      4,
      10
     ],
     [
      72,
      1,
      9
     ],
     [
      75,
      1,
      2
     ],
     [
      76,
      1,
      8
     ],
     [
      77,
      170,
      10
     ],
     [
      247,
      1,
      6
     ]
    ],
    "132": [
     [
      16,
      1,
      3
     ],
     [
      17,
      1,
      1
     ],
     [
      24,
      1,
      8
     ],
     [
      25,
      1,
      2
     ],
     [
      27,
      1,
      1
     ],
     [
      28,
      1,
      2
     ],
     [
      32,
      1,
      3
     ],
     [
      33,
      1,
      10
     ],
     [
      34,
      2,
      5
     ],
     [
      36,
      5,
      10
     ],
     [
      41,
      1,
      9
     ],
     [
      42,
      1,
      7
     ],
     [
      43,
      1,
      2
     ],
     [
      68,
      1,
      4
     ],
     [
      69,
      2,
      7
     ],
     [
      71,
      1,
      10
     ],
     [
      72,
      1,
      6
     ],
     [
      76,
      1,
      1
     ],
     [
      77,
      1,
      8
     ],
     [
      78,
      169,
      10
     ],
     [
      247,
      1,
      5
     ]
    ],
    "133": [
     [
      16,
      1,
      6
     ],
     [
      21,
      1,
      3
     ],
     [
      22,
      1,
      8
     ],
     [
      23,
      1,
      6
     ],
     [
      27,
      1,
      2
     ],
     [
      31,
      2,
      10
     ],
     [
      33,
      1,
      9
     ],
     [
      36,
      7,
      10
     ],
     [
      43,
      1,
      1
     ],
     [
      71,
      1,
      5
     ],
     [
      72,
      1,
      4
     ],
     [
      77,
      1,
      1
     ],
     [
      78,
      1,
      8
     ],
     [
      79,
      168,
      10
     ],
     [
      247,
      1,
      3
     ]
    ],
    "134": [
     [
      15,
      2,
      2
     ],
     [
      21,
      1,
      4
     ],
     [
      22,
      1,
      10
     ],
     [
      23,
      1,
      4
     ],
     [
      28,
      1,
      6
     ],
     [
      29,
      1,
      10
     ],
     [
      30,
      1,
      9
     ],
     [
      31,
      3,
      10
     ],
     [
      34,
      1,
      9
     ],
     [
      35,
      1,
      7
     ],
     [
      36,
      7,
      10
     ],
     [
      43,
      1,
      6
     ],
     [
      71,
      1,
      3
     ],
     [
      72,
      1,
      1
     ],
     [
      75,
      1,
      1
     ],
     [
      76,
      1,
      3
     ],
     [
      78,
      1,
      1
     ],
     [
      79,
      168,
      10
     ]
    ],
    "135": [
     [
      15,
      1,
      1
     ],
     [
      22,
      1,
      7
     ],
     [
      26,
      1,
      2
     ],
     [
      27,
      1,
      9
     ],
     [
      28,
      9,
      10
     ],
     [
      37,
      1,
      8
     ],
     [
      38,
      1,
      10
     ],
     [
      39,
      1,
      9
     ],
     [
      40,
      2,
      10
     ],
     [
      42,
      1,
      2
     ],
     [
      74,
      1,
      2
     ],
     [
      75,
      1,
      4
     ],
     [
      76,
      1,
      1
     ],
     [
      79,
      1,
      3
     ],
     [
      80,
      166,
      10
     ],
     [
      246,
      1,
      9
     ]
    ],
    "136": [
     [
      13,
      1,
      1
     ],
     [
      24,
      1,
      3
     ],
     [
      25,
      2,
      8
     ],
     [
      27,
      9,
      10
     ],
     [
      36,
      1,
      6
     ],
     [
      80,
      1,
      6
     ],
     [
      81,
      165,
      10
     ],
     [
      246,
      1,
      7
     ]
    ],
    "137": [
     [
      21,
      1,
      1
     ],
     [
      25,
      1,
      6
     ],
     [
      26,
      10,
      10
     ],
     [
      36,
      1,
      7
     ],
     [
      37,
      1,
      5
     ],
     [
      80,
      1,
      1
     ],
     [
      81,
      1,
      8
     ],
     [
      82,
      164,
      10
     ],
     [
      246,
      1,
      4
     ]
    ],
    "138": [
     [
      20,
      1,
      2
     ],
     [
      21,
      1,
      6
     ],
     [
      22,
      1,
      8
     ],
     [
      27,
      1,
      3
     ],
     [
      28,
      1,
      7
     ],
     [
      29,
      1,
      9
     ],
     [
      30,
      8,
      10
     ],
     [
      81,
      1,
      3
     ],
     [
      82,
      164,
      10
     ],
     [
      246,
      1,
      3
     ]
    ],
    "139": [
     [
      30,
      1,
      7
     ],
     [
      31,
      7,
      10
     ],
     [
      38,
      1,
      9
     ],
     [
      39,
      1,
      1
     ],
     [
      82,
      1,
      5
     ],
     [
      83,
      163,
      10
     ]
    ],
    "140": [
     [
      22,
      1,
      4
     ],
     [
      31,
      1,
      4
     ],
     [
      32,
      7,
      10
     ],
     [
      39,
      1,
      9
     ],
     [
      43,
      1,
      2
     ],
     [
      82,
      1,
      1
     ],
     [
      83,
      1,
      8
     ],
     [
      84,
      161,
      10
     ],
     [
      245,
      1,
      9
     ]
    ],
    "141": [
     [
      20,
      1,
      4
     ],
     [
      21,
      1,
      5
     ],
     [
      22,
      1,
      9
     ],
     [
      32,
      1,
      6
     ],
     [
      33,
      7,
      10
     ],
     [
      40,
      1,
      2
     ],
     [
      43,
      1,
      10
     ],
     [
      44,
      1,
      4
     ],
     [
      45,
      1,
      3
     ],
     [
      46,
      1,
      2
     ],
     [
      47,
      1,
      5
     ],
     [
      48,
      1,
      2
     ],
     [
      83,
      1,
      3
     ],
     [
      84,
      161,
      10
     ],
     [
      245,
      1,
      7
     ]
    ],
    "142": [
     [
      20,
      1,
      4
     ],
     [
      21,
      2,
      10
     ],
     [
      23,
      1,
      3
     ],
     [
      33,
      1,
      1
     ],
     [
      34,
      1,
      7
     ],
     [
      35,
      3,
      10
     ],
     [
      38,
      1,
      6
     ],
     [
      39,
      1,
      8
     ],
     [
      40,
      1,
      4
     ],
     [
      41,
      2,
      6
     ],
     [
      43,
      1,
      10
     ],
     [
      44,
      1,
      9
     ],
     [
      45,
      1,
      6
     ],
     [
      46,
      1,
      1
     ],
     [
      48,
      1,
      3
     ],
     [
      74,
      1,
      5
     ],
     [
      75,
      2,
      4
     ],
     [
      84,
      1,
      5
     ],
     [
      85,
      160,
      10
     ],
     [
      245,
      1,
      4
     ]
    ],
    "143": [
     [
      20,
      1,
      2
     ],
     [
      21,
      1,
      10
     ],
     [
      22,
      1,
      8
     ],
     [
      23,
      1,
      1
     ],
     [
      35,
      1,
      3
     ],
     [
      36,
      1,
      1
     ],
     [
      41,
      1,
      3
     ],
     [
      42,
      1,
      2
     ],
     [
      73,
      1,
      4
     ],
     [
      74,
      3,
      10
     ],
     [
      77,
      1,
      9
     ],
     [
      78,
      1,
      1
     ],
     [
      85,
      1,
      6
     ],
     [
      86,
      159,
      10
     ],
     [
      245,
      1,
      3
     ]
    ],
    "144": [
     [
      14,
      1,
      1
     ],
     [
      20,
      1,
      1
     ],
     [
      21,
      1,
      5
     ],
     [
      22,
      1,
      2
     ],
     [
      73,
      1,
      4
     ],
     [
      74,
      4,
      10
     ],
     [
      78,
      1,
      8
     ],
     [
      85,
      1,
      1
     ],
     [
      86,
      1,
      9
     ],
     [
      87,
      158,
      10
     ]
    ],
    "145": [
     [
      15,
      1,
      1
     ],
     [
      16,
      1,
      3
     ],
     [
      17,
      1,
      1
     ],
     [
      22,
      1,
      2
     ],
     [
      73,
      1,
      7
     ],
     [
      74,
      2,
      10
     ],
     [
      76,
      1,
      8
     ],
     [
      77,
      1,
      7
     ],
     [
      78,
      1,
      10
     ],
     [
      79,
      1,
      1
     ],
     [
      86,
      1,
      2
     ],
     [
      87,
      1,
      9
     ],
     [
      88,
      156,
      10
     ],
     [
      244,
      1,
      9
     ]
    ],
    "146": [
     [
      15,
      1,
      3
     ],
     [
      16,
      1,
      10
     ],
     [
      17,
      1,
      9
     ],
     [
      19,
      1,
      2
     ],
     [
      20,
      1,
      1
     ],
     [
      22,
      1,
      10
     ],
     [
      23,
      1,
      4
     ],
     [
      73,
      1,
      2
     ],
     [
      74,
      2,
      8
     ],
     [
      76,
      1,
      5
     ],
     [
      78,
      1,
      7
     ],
     [
      79,
      1,
      5
     ],
     [
      81,
      1,
      2
     ],
     [
      87,
      1,
      4
     ],
     [
      88,
      156,
      10
     ],
     [
      244,
      1,
      6
     ]
    ],
    "147": [
     [
      15,
      1,
      7
     ],
     [
      16,
      5,
      10
     ],
     [
      21,
      1,
      3
     ],
     [
      23,
      1,
      7
     ],
     [
      24,
      1,
      1
     ],
     [
      75,
      1,
      1
     ],
     [
      77,
      1,
      1
     ],
     [
      78,
      4,
      10
     ],
     [
      82,
      1,
      7
     ],
     [
      88,
      1,
      7
     ],
     [
      89,
      155,
      10
     ],
     [
      244,
      1,
      4
     ]
    ],
    "148": [
     [
      15,
      1,
      8
     ],
     [
      16,
      3,
      10
     ],
     [
      19,
      1,
      8
     ],
     [
      20,
      1,
      4
     ],
     [
      23,
      1,
      7
     ],
     [
      24,
      1,
      6
     ],
     [
      76,
      1,
      3
     ],
     [
      77,
      1,
      1
     ],
     [
      78,
      5,
      10
     ],
     [
      83,
      1,
      7
     ],
     [
      89,
      1,
      8
     ],
     [
      90,
      154,
      10
     ],
     [
      244,
      1,
      1
     ]
    ],
    "149": [
     [
      15,
      4,
      10
     ],
     [
      19,
      1,
      4
     ],
     [
      21,
      1,
      1
     ],
     [
      23,
      1,
      5
     ],
     [
      24,
      1,
      10
     ],
     [
      75,
      1,
      2
     ],
     [
      78,
      1,
      9
     ],
     [
      79,
      5,
      10
     ],
     [
      84,
      1,
      6
     ],
     [
      89,
      1,
      1
     ],
     [
      90,
      154,
      10
     ]
    ],
    "150": [
     [
      21,
      1,
      10
     ],
     [
      23,
      1,
      8
     ],
     [
      24,
      1,
      7
     ],
     [
      79,
      1,
      1
     ],
     [
      80,
      1,
      5
     ],
     [
      81,
      4,
      10
     ],
     [
      85,
      1,
      9
     ],
     [
      86,
      1,
      2
     ],
     [
      90,
      1,
      4
     ],
     [
      91,
      152,
      10
     ],
     [
      243,
      1,
      8
     ]
    ],
    "151": [
     [
      80,
      1,
      1
     ],
     [
      81,
      1,
      8
     ],
     [
      82,
      4,
      10
     ],
     [
      86,
      1,
      1
     ],
     [
      91,
      1,
      6
     ],
     [
      92,
      151,
      10
     ],
     [
      243,
      1,
      6
     ]
    ],
    "152": [
     [
      81,
      1,
      2
     ],
     [
      82,
      1,
      7
     ],
     [
      83,
      2,
      10
     ],
     [
      85,
      1,
      7
     ],
     [
      92,
      1,
      9
     ],
     [
      93,
      150,
      10
     ],
     [
      243,
      1,
      4
     ]
    ],
    "153": [
     [
      81,
      1,
      2
     ],
     [
      82,
      1,
      4
     ],
     [
      83,
      1,
      7
     ],
     [
      84,
      1,
      8
     ],
     [
      85,
      1,
      10
     ],
     [
      86,
      1,
      6
     ],
     [
      87,
      1,
      1
     ],
     [
      92,
      1,
      3
     ],
     [
      93,
      150,
      10
     ],
     [
      243,
      1,
      1
     ]
    ],
    "154": [
     [
      81,
      1,
      2
     ],
     [
      85,
      2,
      10
     ],
     [
      87,
      1,
      3
     ],
     [
      89,
      1,
      4
     ],
     [
      93,
      1,
      6
     ],
     [
      94,
      149,
      10
     ]
    ],
    "155": [
     [
      83,
      1,
      3
     ],
     [
      84,
      1,
      7
     ],
     [
      85,
      4,
      10
     ],
     [
      89,
      1,
      7
     ],
     [
      94,
      1,
      8
     ],
     [
      95,
      147,
      10
     ],
     [
      242,
      1,
      7
     ]
    ],
    "156": [
     [
      84,
      1,
      9
     ],
     [
      85,
      3,
      10
     ],
     [
      88,
      1,
      7
     ],
     [
      94,
      1,
      2
     ],
     [
      95,
      147,
      10
     ],
     [
      242,
      1,
      5
     ]
    ],
    "157": [
     [
      84,
      1,
      3
     ],
     [
      85,
      3,
      10
     ],
     [
      88,
      1,
      6
     ],
     [
      89,
      1,
      3
     ],
     [
      90,
      1,
      7
     ],
     [
      91,
      1,
      1
     ],
     [
      95,
      1,
      9
     ],
     [
      96,
      146,
      10
     ],
     [
      242,
      1,
      3
     ]
    ],
    "158": [
     [
      84,
      1,
      6
     ],
     [
      85,
      7,
      10
     ],
     [
      92,
      1,
      3
     ],
     [
      95,
      1,
      3
     ],
     [
      96,
      146,
      10
     ],
     [
      242,
      1,
      1
     ]
    ],
    "159": [
     [
      84,
      8,
      10
     ],
     [
      92,
      1,
      7
     ],
     [
      95,
      1,
      1
     ],
     [
      96,
      146,
      10
     ]
    ],
    "160": [
     [
      92,
      1,
      10
     ],
     [
      95,
      1,
      2
     ],
     [
      96,
      145,
      10
     ],
     [
      241,
      1,
      7
     ]
    ],
    "161": [
     [
      99,
      142,
      10
     ],
     [
      241,
      1,
      5
     ]
    ],
    "162": [
     [
      106,
      135,
      10
     ],
     [
      241,
      1,
      4
     ]
    ],
    "163": [
     [
      113,
      128,
      10
     ]
    ],
    "164": [
     [
      121,
      120,
      10
     ]
    ],
    "165": [
     [
      128,
      112,
      10
     ],
     [
      240,
      1,
      6
     ]
    ],
    "166": [
     [
      135,
      105,
      10
     ],
     [
      240,
      1,
      6
     ]
    ],
    "167": [
     [
      143,
      97,
      10
     ],
     [
      240,
      1,
      3
     ]
    ],
    "168": [
     [
      150,
      90,
      10
     ]
    ],
    "169": [
     [
      157,
      82,
      10
     ],
     [
      239,
      1,
      9
     ]
    ],
    "170": [
     [
      165,
      74,
      10
     ],
     [
      239,
      1,
      7
     ]
    ],
    "171": [
     [
      173,
      66,
      10
     ],
     [
      239,
      1,
      4
     ]
    ],
    "172": [
     [
      180,
      59,
      10
     ],
     [
      239,
      1,
      3
     ]
    ],
    "173": [
     [
      188,
      51,
      10
     ]
    ],
    "174": [
     [
      196,
      42,
      10
     ],
     [
      238,
      1,
      9
     ]
    ],
    "175": [
     [
      203,
      35,
      10
     ],
     [
      238,
      1,
      6
     ]
    ],
    "176": [
     [
      211,
      27,
      10
     ],
     [
      238,
      1,
      4
     ]
    ],
    "177": [
     [
      219,
      19,
      10
     ],
     [
      238,
      1,
      2
     ]
    ],
    "178": [
     [
      227,
      11,
      10
     ]
    ],
    "179": [
     [
      235,
      2,
      10
     ],
     [
      237,
      1,
      8
     ]
    ]
   }
  },
  "clutter_headroom": 50.2,
  "clutter_at_floor": 0.474,
  "clutter_verdict": "vessels present",
  "detection_rate": 0.6,
  "n_detections": 23,
  "n_reports": 15,
  "n_reports_with_fix": 15,
  "n_matched": 9,
  "n_reports_unsearched": 314,
  "n_reports_marginal": 1,
  "unsearched_by_length": {
   "<25 m": 183,
   "25-50 m": 48,
   "50-100 m": 17,
   "100-200 m": 22,
   ">200 m": 28,
   "unknown": 16
  },
  "k_sigma_match": 3.0,
  "gate_min_snr": 15.0,
  "gate_min_pixels": 6,
  "n_detections_before_gate": 384,
  "ais_window_s": 1800.0,
  "calibration": {
   "detectable_length_m": 25.0,
   "max_chance_match": 0.05,
   "density_per_km2": 0.00081,
   "max_scorable_radius_m": 4495,
   "n_unscorable": 0,
   "n_unscorable_matched": 0,
   "expected_chance_matches": 0.01,
   "strata": {
    ">=25 m": {
     "found": 7,
     "scored": 11,
     "rate": 0.6364,
     "ci95": [
      0.3538,
      0.8483
     ]
    },
    "<25 m": {
     "found": 1,
     "scored": 3,
     "rate": 0.3333,
     "ci95": [
      0.0615,
      0.7923
     ]
    },
    "unknown length": {
     "found": 1,
     "scored": 1,
     "rate": 1.0,
     "ci95": [
      0.2065,
      1.0
     ]
    },
    "all scored": {
     "found": 9,
     "scored": 15,
     "rate": 0.6,
     "ci95": [
      0.3575,
      0.8018
     ]
    }
   },
   "curve_edges_m": [
    0.0,
    15.0,
    25.0,
    50.0,
    100.0
   ],
   "curve": {
    "0-15 m": {
     "found": 0,
     "scored": 1,
     "rate": 0.0,
     "ci95": [
      0.0,
      0.7935
     ]
    },
    "15-25 m": {
     "found": 1,
     "scored": 2,
     "rate": 0.5,
     "ci95": [
      0.0945,
      0.9055
     ]
    },
    "25-50 m": {
     "found": 2,
     "scored": 4,
     "rate": 0.5,
     "ci95": [
      0.15,
      0.85
     ]
    },
    "50-100 m": {
     "found": 2,
     "scored": 3,
     "rate": 0.6667,
     "ci95": [
      0.2077,
      0.9385
     ]
    },
    ">100 m": {
     "found": 3,
     "scored": 4,
     "rate": 0.75,
     "ci95": [
      0.3006,
      0.9544
     ]
    },
    "unknown": {
     "found": 1,
     "scored": 1,
     "rate": 1.0,
     "ci95": [
      0.2065,
      1.0
     ]
    }
   }
  }
 },
 "features": [
  {
   "type": "Feature",
   "geometry": {
    "type": "Point",
    "coordinates": [
     -75.45959029352925,
     36.90029531163737
    ]
   },
   "properties": {
    "kind": "unmatched",
    "domain": "sea",
    "t_start": "2024-06-21T22:58:42+00:00",
    "t_end": "2024-06-21T22:58:42+00:00",
    "duration_s": 0.0,
    "confidence": 0.57,
    "platform_ids": [],
    "evidence": {
     "sensor": "sentinel1-vv-cfar",
     "detector_confidence": 0.95,
     "detection_rate_this_pass": 0.6,
     "reports_considered": 15,
     "reports_with_a_fix": 15,
     "search_radius_m": 160.0,
     "snr": 63.33,
     "length_m_approx": 66.3,
     "pixels": 44,
     "scene": "S1A_IW_GRDH_1SDV_20240621T225842_20240621T225907_054428_069F67_4366_COG.SAFE"
    }
   }
  },
  {
   "type": "Feature",
   "geometry": {
    "type": "Point",
    "coordinates": [
     -75.44395189638767,
     36.900174997562765
    ]
   },
   "properties": {
    "kind": "unmatched",
    "domain": "sea",
    "t_start": "2024-06-21T22:58:42+00:00",
    "t_end": "2024-06-21T22:58:42+00:00",
    "duration_s": 0.0,
    "confidence": 0.57,
    "platform_ids": [],
    "evidence": {
     "sensor": "sentinel1-vv-cfar",
     "detector_confidence": 0.95,
     "detection_rate_this_pass": 0.6,
     "reports_considered": 15,
     "reports_with_a_fix": 15,
     "search_radius_m": 116.1,
     "snr": 60.81,
     "length_m_approx": 41.2,
     "pixels": 17,
     "scene": "S1A_IW_GRDH_1SDV_20240621T225842_20240621T225907_054428_069F67_4366_COG.SAFE"
    }
   }
  },
  {
   "type": "Feature",
   "geometry": {
    "type": "Point",
    "coordinates": [
     -75.45754587740046,
     36.884719823531604
    ]
   },
   "properties": {
    "kind": "unmatched",
    "domain": "sea",
    "t_start": "2024-06-21T22:58:42+00:00",
    "t_end": "2024-06-21T22:58:42+00:00",
    "duration_s": 0.0,
    "confidence": 0.57,
    "platform_ids": [],
    "evidence": {
     "sensor": "sentinel1-vv-cfar",
     "detector_confidence": 0.95,
     "detection_rate_this_pass": 0.6,
     "reports_considered": 15,
     "reports_with_a_fix": 15,
     "search_radius_m": 128.9,
     "snr": 52.64,
     "length_m_approx": 49.0,
     "pixels": 24,
     "scene": "S1A_IW_GRDH_1SDV_20240621T225842_20240621T225907_054428_069F67_4366_COG.SAFE"
    }
   }
  },
  {
   "type": "Feature",
   "geometry": {
    "type": "Point",
    "coordinates": [
     -75.47312715262709,
     36.88468964357901
    ]
   },
   "properties": {
    "kind": "unmatched",
    "domain": "sea",
    "t_start": "2024-06-21T22:58:42+00:00",
    "t_end": "2024-06-21T22:58:42+00:00",
    "duration_s": 0.0,
    "confidence": 0.57,
    "platform_ids": [],
    "evidence": {
     "sensor": "sentinel1-vv-cfar",
     "detector_confidence": 0.95,
     "detection_rate_this_pass": 0.6,
     "reports_considered": 15,
     "reports_with_a_fix": 15,
     "search_radius_m": 128.9,
     "snr": 47.68,
     "length_m_approx": 49.0,
     "pixels": 24,
     "scene": "S1A_IW_GRDH_1SDV_20240621T225842_20240621T225907_054428_069F67_4366_COG.SAFE"
    }
   }
  },
  {
   "type": "Feature",
   "geometry": {
    "type": "Point",
    "coordinates": [
     -75.42841585259309,
     36.900248885523794
    ]
   },
   "properties": {
    "kind": "unmatched",
    "domain": "sea",
    "t_start": "2024-06-21T22:58:42+00:00",
    "t_end": "2024-06-21T22:58:42+00:00",
    "duration_s": 0.0,
    "confidence": 0.57,
    "platform_ids": [],
    "evidence": {
     "sensor": "sentinel1-vv-cfar",
     "detector_confidence": 0.95,
     "detection_rate_this_pass": 0.6,
     "reports_considered": 15,
     "reports_with_a_fix": 15,
     "search_radius_m": 107.9,
     "snr": 38.98,
     "length_m_approx": 36.1,
     "pixels": 13,
     "scene": "S1A_IW_GRDH_1SDV_20240621T225842_20240621T225907_054428_069F67_4366_COG.SAFE"
    }
   }
  },
  {
   "type": "Feature",
   "geometry": {
    "type": "Point",
    "coordinates": [
     -75.44197923973266,
     36.884739272038146
    ]
   },
   "properties": {
    "kind": "unmatched",
    "domain": "sea",
    "t_start": "2024-06-21T22:58:42+00:00",
    "t_end": "2024-06-21T22:58:42+00:00",
    "duration_s": 0.0,
    "confidence": 0.57,
    "platform_ids": [],
    "evidence": {
     "sensor": "sentinel1-vv-cfar",
     "detector_confidence": 0.95,
     "detection_rate_this_pass": 0.6,
     "reports_considered": 15,
     "reports_with_a_fix": 15,
     "search_radius_m": 105.8,
     "snr": 27.84,
     "length_m_approx": 34.6,
     "pixels": 12,
     "scene": "S1A_IW_GRDH_1SDV_20240621T225842_20240621T225907_054428_069F67_4366_COG.SAFE"
    }
   }
  },
  {
   "type": "Feature",
   "geometry": {
    "type": "Point",
    "coordinates": [
     -75.38229731446035,
     36.76417305380291
    ]
   },
   "properties": {
    "kind": "unmatched",
    "domain": "sea",
    "t_start": "2024-06-21T22:58:42+00:00",
    "t_end": "2024-06-21T22:58:42+00:00",
    "duration_s": 0.0,
    "confidence": 0.5286,
    "platform_ids": [],
    "evidence": {
     "sensor": "sentinel1-vv-cfar",
     "detector_confidence": 0.881,
     "detection_rate_this_pass": 0.6,
     "reports_considered": 15,
     "reports_with_a_fix": 15,
     "search_radius_m": 97.0,
     "snr": 17.61,
     "length_m_approx": 28.3,
     "pixels": 8,
     "scene": "S1A_IW_GRDH_1SDV_20240621T225842_20240621T225907_054428_069F67_4366_COG.SAFE"
    }
   }
  },
  {
   "type": "Feature",
   "geometry": {
    "type": "Point",
    "coordinates": [
     -74.57796788669508,
     37.066302726923034
    ]
   },
   "properties": {
    "kind": "unmatched",
    "domain": "sea",
    "t_start": "2024-06-21T22:58:42+00:00",
    "t_end": "2024-06-21T22:58:42+00:00",
    "duration_s": 0.0,
    "confidence": 0.57,
    "platform_ids": [],
    "evidence": {
     "sensor": "sentinel1-vv-cfar",
     "detector_confidence": 0.95,
     "detection_rate_this_pass": 0.6,
     "reports_considered": 15,
     "reports_with_a_fix": 15,
     "search_radius_m": 166.7,
     "snr": 82.65,
     "length_m_approx": 70.0,
     "pixels": 49,
     "scene": "S1A_IW_GRDH_1SDV_20240621T225842_20240621T225907_054428_069F67_4366_COG.SAFE"
    }
   }
  },
  {
   "type": "Feature",
   "geometry": {
    "type": "Point",
    "coordinates": [
     -74.60040739082118,
     37.06244613721794
    ]
   },
   "properties": {
    "kind": "unmatched",
    "domain": "sea",
    "t_start": "2024-06-21T22:58:42+00:00",
    "t_end": "2024-06-21T22:58:42+00:00",
    "duration_s": 0.0,
    "confidence": 0.4644,
    "platform_ids": [],
    "evidence": {
     "sensor": "sentinel1-vv-cfar",
     "detector_confidence": 0.774,
     "detection_rate_this_pass": 0.6,
     "reports_considered": 15,
     "reports_with_a_fix": 15,
     "search_radius_m": 101.4,
     "snr": 15.48,
     "length_m_approx": 31.6,
     "pixels": 10,
     "scene": "S1A_IW_GRDH_1SDV_20240621T225842_20240621T225907_054428_069F67_4366_COG.SAFE"
    }
   }
  },
  {
   "type": "Feature",
   "geometry": {
    "type": "Point",
    "coordinates": [
     -74.41801908610083,
     37.156525479624435
    ]
   },
   "properties": {
    "kind": "unmatched",
    "domain": "sea",
    "t_start": "2024-06-21T22:58:42+00:00",
    "t_end": "2024-06-21T22:58:42+00:00",
    "duration_s": 0.0,
    "confidence": 0.4776,
    "platform_ids": [],
    "evidence": {
     "sensor": "sentinel1-vv-cfar",
     "detector_confidence": 0.796,
     "detection_rate_this_pass": 0.6,
     "reports_considered": 15,
     "reports_with_a_fix": 15,
     "search_radius_m": 160.0,
     "snr": 15.93,
     "length_m_approx": 66.3,
     "pixels": 44,
     "scene": "S1A_IW_GRDH_1SDV_20240621T225842_20240621T225907_054428_069F67_4366_COG.SAFE"
    }
   }
  },
  {
   "type": "Feature",
   "geometry": {
    "type": "Point",
    "coordinates": [
     -74.5239315657081,
     37.448955707983295
    ]
   },
   "properties": {
    "kind": "unmatched",
    "domain": "sea",
    "t_start": "2024-06-21T22:58:42+00:00",
    "t_end": "2024-06-21T22:58:42+00:00",
    "duration_s": 0.0,
    "confidence": 0.4758,
    "platform_ids": [],
    "evidence": {
     "sensor": "sentinel1-vv-cfar",
     "detector_confidence": 0.793,
     "detection_rate_this_pass": 0.6,
     "reports_considered": 15,
     "reports_with_a_fix": 15,
     "search_radius_m": 116.1,
     "snr": 15.85,
     "length_m_approx": 41.2,
     "pixels": 17,
     "scene": "S1A_IW_GRDH_1SDV_20240621T225842_20240621T225907_054428_069F67_4366_COG.SAFE"
    }
   }
  },
  {
   "type": "Feature",
   "geometry": {
    "type": "Point",
    "coordinates": [
     -74.74396386376026,
     37.773321431990816
    ]
   },
   "properties": {
    "kind": "unmatched",
    "domain": "sea",
    "t_start": "2024-06-21T22:58:42+00:00",
    "t_end": "2024-06-21T22:58:42+00:00",
    "duration_s": 0.0,
    "confidence": 0.57,
    "platform_ids": [],
    "evidence": {
     "sensor": "sentinel1-vv-cfar",
     "detector_confidence": 0.95,
     "detection_rate_this_pass": 0.6,
     "reports_considered": 15,
     "reports_with_a_fix": 15,
     "search_radius_m": 279.7,
     "snr": 65.08,
     "length_m_approx": 126.9,
     "pixels": 161,
     "scene": "S1A_IW_GRDH_1SDV_20240621T225842_20240621T225907_054428_069F67_4366_COG.SAFE"
    }
   }
  },
  {
   "type": "Feature",
   "geometry": {
    "type": "Point",
    "coordinates": [
     -75.91199476417097,
     37.95805725520121
    ]
   },
   "properties": {
    "kind": "unmatched",
    "domain": "sea",
    "t_start": "2024-06-21T22:58:42+00:00",
    "t_end": "2024-06-21T22:58:42+00:00",
    "duration_s": 0.0,
    "confidence": 0.528,
    "platform_ids": [],
    "evidence": {
     "sensor": "sentinel1-vv-cfar",
     "detector_confidence": 0.88,
     "detection_rate_this_pass": 0.6,
     "reports_considered": 15,
     "reports_with_a_fix": 15,
     "search_radius_m": 95.7,
     "snr": 17.6,
     "length_m_approx": 26.5,
     "pixels": 7,
     "scene": "S1A_IW_GRDH_1SDV_20240621T225842_20240621T225907_054428_069F67_4366_COG.SAFE"
    }
   }
  },
  {
   "type": "Feature",
   "geometry": {
    "type": "Point",
    "coordinates": [
     -75.32462292185394,
     38.005700788813726
    ]
   },
   "properties": {
    "kind": "unmatched",
    "domain": "sea",
    "t_start": "2024-06-21T22:58:42+00:00",
    "t_end": "2024-06-21T22:58:42+00:00",
    "duration_s": 0.0,
    "confidence": 0.5448,
    "platform_ids": [],
    "evidence": {
     "sensor": "sentinel1-vv-cfar",
     "detector_confidence": 0.908,
     "detection_rate_this_pass": 0.6,
     "reports_considered": 15,
     "reports_with_a_fix": 15,
     "search_radius_m": 143.0,
     "snr": 18.15,
     "length_m_approx": 56.6,
     "pixels": 32,
     "scene": "S1A_IW_GRDH_1SDV_20240621T225842_20240621T225907_054428_069F67_4366_COG.SAFE"
    }
   }
  }
 ]
}