{
 "type": "FeatureCollection",
 "properties": {
  "scene": "S1A_IW_GRDH_1SDV_20241230T225903_20241230T225928_057228_070A00_44C7_COG.SAFE",
  "by_length": {
   "<25 m": 2,
   "25-50 m": 1,
   "50-100 m": 0,
   "100-200 m": 0,
   ">200 m": 1,
   "unknown": 0
  }
 },
 "features": [
  {
   "type": "Feature",
   "geometry": {
    "type": "Point",
    "coordinates": [
     -74.50892123274332,
     39.2931803384917
    ]
   },
   "properties": {
    "mmsi": "338107783",
    "name": "AMTC41",
    "length_m": 13.0,
    "fix_uncertainty_m": 70.6,
    "reports_in_track": 39,
    "length_class": "<25 m",
    "scored": true
   }
  },
  {
   "type": "Feature",
   "geometry": {
    "type": "Point",
    "coordinates": [
     -75.32614795775129,
     39.254878014729016
    ]
   },
   "properties": {
    "mmsi": "366999664",
    "name": "CG HERON",
    "length_m": 26.0,
    "fix_uncertainty_m": 139.4,
    "reports_in_track": 50,
    "length_class": ">=25 m",
    "scored": true
   }
  },
  {
   "type": "Feature",
   "geometry": {
    "type": "Point",
    "coordinates": [
     -74.85968999034037,
     38.65931869843106
    ]
   },
   "properties": {
    "mmsi": "636022893",
    "name": "CHIQUITA EXPLORER",
    "length_m": 222.0,
    "fix_uncertainty_m": 90.3,
    "reports_in_track": 45,
    "length_class": ">=25 m",
    "scored": true
   }
  },
  {
   "type": "Feature",
   "geometry": {
    "type": "Point",
    "coordinates": [
     -74.89881445753349,
     38.9144735166933
    ]
   },
   "properties": {
    "mmsi": "369493665",
    "name": "CG45665",
    "length_m": 14.0,
    "fix_uncertainty_m": 82.3,
    "reports_in_track": 49,
    "length_class": "<25 m",
    "scored": true
   }
  }
 ]
}