{
 "type": "FeatureCollection",
 "properties": {
  "scene": "S1A_IW_GRDH_1SDV_20241019T225813_20241019T225842_056178_06E050_9D33_COG.SAFE",
  "by_length": {
   "<25 m": 1,
   "25-50 m": 0,
   "50-100 m": 0,
   "100-200 m": 0,
   ">200 m": 0,
   "unknown": 0
  }
 },
 "features": [
  {
   "type": "Feature",
   "geometry": {
    "type": "Point",
    "coordinates": [
     -74.76701333174788,
     36.34200083349533
    ]
   },
   "properties": {
    "mmsi": "368278690",
    "name": "FINE TUNA",
    "length_m": 17.0,
    "fix_uncertainty_m": 80.7,
    "reports_in_track": 22,
    "length_class": "<25 m",
    "scored": true
   }
  }
 ]
}