{
 "type": "FeatureCollection",
 "properties": {
  "scene": "S1A_IW_GRDH_1SDV_20241206T225840_20241206T225905_056878_06FC1E_3016_COG.SAFE",
  "by_length": {
   "<25 m": 1,
   "25-50 m": 2,
   "50-100 m": 0,
   "100-200 m": 0,
   ">200 m": 0,
   "unknown": 0
  }
 },
 "features": [
  {
   "type": "Feature",
   "geometry": {
    "type": "Point",
    "coordinates": [
     -75.74291356954228,
     37.15841355846243
    ]
   },
   "properties": {
    "mmsi": "367113320",
    "name": "CAPT GASTON",
    "length_m": 25.0,
    "fix_uncertainty_m": 129.9,
    "reports_in_track": 43,
    "length_class": ">=25 m",
    "scored": true
   }
  },
  {
   "type": "Feature",
   "geometry": {
    "type": "Point",
    "coordinates": [
     -75.60432101100787,
     36.679667617442774
    ]
   },
   "properties": {
    "mmsi": "269111410",
    "name": "MI ADELITA",
    "length_m": 17.0,
    "fix_uncertainty_m": 114.8,
    "reports_in_track": 43,
    "length_class": "<25 m",
    "scored": true
   }
  },
  {
   "type": "Feature",
   "geometry": {
    "type": "Point",
    "coordinates": [
     -75.71015613780116,
     37.21433750034774
    ]
   },
   "properties": {
    "mmsi": "367097050",
    "name": "KARAH D",
    "length_m": 25.0,
    "fix_uncertainty_m": 27.5,
    "reports_in_track": 34,
    "length_class": ">=25 m",
    "scored": true
   }
  }
 ]
}